{"type":"FeatureCollection","features":[{"type":"Feature","properties":{"id":"c0","lines":"S1 S2 S3","n":3,"color":"#5a6672","other":1},"geometry":{"type":"LineString","coordinates":[[21.044984,52.242008],[21.041902,52.243897],[21.038819,52.243897]]}},{"type":"Feature","properties":{"id":"c2","lines":"S1 S2 S3","n":3,"color":"#5a6672","other":0},"geometry":{"type":"LineString","coordinates":[[21.044984,52.242008],[21.048067,52.243897],[21.048067,52.247674]]}},{"type":"Feature","properties":{"id":"c6","lines":"S1 S2 S3","n":3,"color":"#5a6672","other":1},"geometry":{"type":"LineString","coordinates":[[21.038819,52.243897],[21.035737,52.243897]]}},{"type":"Feature","properties":{"id":"c11","lines":"M2","n":1,"color":"#BB0000","other":0},"geometry":{"type":"LineString","coordinates":[[21.041902,52.245785],[21.038819,52.245785],[21.035737,52.243897]]}},{"type":"Feature","properties":{"id":"c12","lines":"M2","n":1,"color":"#BB0000","other":0},"geometry":{"type":"LineString","coordinates":[[21.041902,52.245785],[21.032654,52.251451],[21.032654,52.25334]]}},{"type":"Feature","properties":{"id":"c21","lines":"S1 S2","n":2,"color":"#5a6672","other":1},"geometry":{"type":"LineString","coordinates":[[21.051149,52.247674],[21.054231,52.247674]]}},{"type":"Feature","properties":{"id":"c22","lines":"S1 S2","n":2,"color":"#5a6672","other":0},"geometry":{"type":"LineString","coordinates":[[21.051149,52.247674],[21.048067,52.247674]]}},{"type":"Feature","properties":{"id":"c23","lines":"S1","n":1,"color":"#E84A4B","other":1},"geometry":{"type":"LineString","coordinates":[[21.054231,52.247674],[21.057314,52.249562],[21.060396,52.249562]]}},{"type":"Feature","properties":{"id":"c25","lines":"S2","n":1,"color":"#2E8EC8","other":0},"geometry":{"type":"LineString","coordinates":[[21.054231,52.247674],[21.057314,52.245785]]}},{"type":"Feature","properties":{"id":"c26","lines":"S1","n":1,"color":"#E84A4B","other":1},"geometry":{"type":"LineString","coordinates":[[21.060396,52.249562],[21.063479,52.247674]]}},{"type":"Feature","properties":{"id":"c29","lines":"S1","n":1,"color":"#E84A4B","other":1},"geometry":{"type":"LineString","coordinates":[[21.063479,52.247674],[21.066561,52.247674]]}},{"type":"Feature","properties":{"id":"c31","lines":"S1","n":1,"color":"#E84A4B","other":1},"geometry":{"type":"LineString","coordinates":[[21.066561,52.247674],[21.069644,52.245785]]}},{"type":"Feature","properties":{"id":"c32","lines":"S1","n":1,"color":"#E84A4B","other":0},"geometry":{"type":"LineString","coordinates":[[21.066561,52.247674],[21.066561,52.249562]]}},{"type":"Feature","properties":{"id":"c33","lines":"S1","n":1,"color":"#E84A4B","other":1},"geometry":{"type":"LineString","coordinates":[[21.069644,52.245785],[21.072726,52.243897]]}},{"type":"Feature","properties":{"id":"c36","lines":"S1 S2","n":2,"color":"#5a6672","other":1},"geometry":{"type":"LineString","coordinates":[[21.072726,52.243897],[21.078891,52.24012]]}},{"type":"Feature","properties":{"id":"c37","lines":"S2","n":1,"color":"#2E8EC8","other":1},"geometry":{"type":"LineString","coordinates":[[21.072726,52.243897],[21.066561,52.243897]]}},{"type":"Feature","properties":{"id":"c38","lines":"S1","n":1,"color":"#E84A4B","other":1},"geometry":{"type":"LineString","coordinates":[[21.078891,52.24012],[21.078891,52.242008]]}},{"type":"Feature","properties":{"id":"c40","lines":"S1 S2","n":2,"color":"#5a6672","other":1},"geometry":{"type":"LineString","coordinates":[[21.078891,52.24012],[21.088138,52.234454],[21.088138,52.232565]]}},{"type":"Feature","properties":{"id":"c54","lines":"M1","n":1,"color":"#0000BB","other":0},"geometry":{"type":"LineString","coordinates":[[20.943264,52.274114],[20.943264,52.272225],[20.946347,52.270337]]}},{"type":"Feature","properties":{"id":"c67","lines":"M1","n":1,"color":"#0000BB","other":0},"geometry":{"type":"LineString","coordinates":[[20.955594,52.270337],[20.958676,52.268448],[20.961759,52.268448]]}},{"type":"Feature","properties":{"id":"c68","lines":"M1","n":1,"color":"#0000BB","other":0},"geometry":{"type":"LineString","coordinates":[[20.955594,52.270337],[20.946347,52.270337]]}},{"type":"Feature","properties":{"id":"c95","lines":"S4 S40","n":2,"color":"#5a6672","other":1},"geometry":{"type":"LineString","coordinates":[[20.964841,52.255228],[20.961759,52.25334]]}},{"type":"Feature","properties":{"id":"c96","lines":"S4 S40","n":2,"color":"#5a6672","other":0},"geometry":{"type":"LineString","coordinates":[[20.964841,52.255228],[20.971006,52.255228],[20.974088,52.257117]]}},{"type":"Feature","properties":{"id":"c98","lines":"S4 S40","n":2,"color":"#5a6672","other":0},"geometry":{"type":"LineString","coordinates":[[20.961759,52.25334],[20.958676,52.25334]]}},{"type":"Feature","properties":{"id":"c110","lines":"M2","n":1,"color":"#BB0000","other":0},"geometry":{"type":"LineString","coordinates":[[20.961759,52.24012],[20.958676,52.24012],[20.952511,52.243897]]}},{"type":"Feature","properties":{"id":"c111","lines":"M2","n":1,"color":"#BB0000","other":0},"geometry":{"type":"LineString","coordinates":[[20.961759,52.24012],[20.983336,52.24012]]}},{"type":"Feature","properties":{"id":"c119","lines":"M2","n":1,"color":"#BB0000","other":1},"geometry":{"type":"LineString","coordinates":[[21.017242,52.272225],[21.02649,52.272225]]}},{"type":"Feature","properties":{"id":"c146","lines":"M2","n":1,"color":"#BB0000","other":0},"geometry":{"type":"LineString","coordinates":[[20.983336,52.24012],[20.989501,52.24012],[20.992583,52.242008],[21.004913,52.242008]]}},{"type":"Feature","properties":{"id":"c191","lines":"M2 S3","n":2,"color":"#5a6672","other":1},"geometry":{"type":"LineString","coordinates":[[21.02649,52.24012],[21.017242,52.24012],[21.01416,52.242008]]}},{"type":"Feature","properties":{"id":"c192","lines":"M2 S3","n":2,"color":"#5a6672","other":0},"geometry":{"type":"LineString","coordinates":[[21.02649,52.24012],[21.032654,52.243897],[21.035737,52.243897]]}},{"type":"Feature","properties":{"id":"c230","lines":"M2","n":1,"color":"#BB0000","other":1},"geometry":{"type":"LineString","coordinates":[[21.004913,52.242008],[21.01416,52.242008]]}},{"type":"Feature","properties":{"id":"c247","lines":"M1","n":1,"color":"#0000BB","other":1},"geometry":{"type":"LineString","coordinates":[[21.00183,52.251451],[21.00183,52.25334],[20.998748,52.255228]]}},{"type":"Feature","properties":{"id":"c251","lines":"M1","n":1,"color":"#0000BB","other":0},"geometry":{"type":"LineString","coordinates":[[21.00183,52.251451],[21.00183,52.249562],[21.01416,52.242008]]}},{"type":"Feature","properties":{"id":"c317","lines":"M1","n":1,"color":"#0000BB","other":1},"geometry":{"type":"LineString","coordinates":[[21.02649,52.177797],[21.02649,52.172131]]}},{"type":"Feature","properties":{"id":"c318","lines":"M1","n":1,"color":"#0000BB","other":0},"geometry":{"type":"LineString","coordinates":[[21.02649,52.177797],[21.02649,52.183462]]}},{"type":"Feature","properties":{"id":"c390","lines":"M1","n":1,"color":"#0000BB","other":0},"geometry":{"type":"LineString","coordinates":[[20.961759,52.268448],[20.964841,52.26656],[20.971006,52.26656]]}},{"type":"Feature","properties":{"id":"c396","lines":"M1","n":1,"color":"#0000BB","other":1},"geometry":{"type":"LineString","coordinates":[[20.971006,52.26656],[20.986418,52.26656]]}},{"type":"Feature","properties":{"id":"c403","lines":"M1","n":1,"color":"#0000BB","other":1},"geometry":{"type":"LineString","coordinates":[[20.998748,52.255228],[20.998748,52.257117]]}},{"type":"Feature","properties":{"id":"c406","lines":"S1 S2","n":2,"color":"#5a6672","other":1},"geometry":{"type":"LineString","coordinates":[[21.032654,52.236342],[21.035737,52.238231],[21.038819,52.238231]]}},{"type":"Feature","properties":{"id":"c408","lines":"S1 S2","n":2,"color":"#5a6672","other":1},"geometry":{"type":"LineString","coordinates":[[21.032654,52.236342],[21.023407,52.236342],[21.020325,52.234454]]}},{"type":"Feature","properties":{"id":"c410","lines":"S1 S2","n":2,"color":"#5a6672","other":0},"geometry":{"type":"LineString","coordinates":[[21.038819,52.238231],[21.038819,52.24012]]}},{"type":"Feature","properties":{"id":"c466","lines":"S3 S4 S40","n":3,"color":"#5a6672","other":1},"geometry":{"type":"LineString","coordinates":[[21.004913,52.276002],[21.011078,52.272225],[21.01416,52.272225]]}},{"type":"Feature","properties":{"id":"c469","lines":"S3 S4 S40","n":3,"color":"#5a6672","other":0},"geometry":{"type":"LineString","coordinates":[[21.004913,52.276002],[21.011078,52.272225]]}},{"type":"Feature","properties":{"id":"c471","lines":"S3 S4 S40","n":3,"color":"#5a6672","other":1},"geometry":{"type":"LineString","coordinates":[[21.01416,52.272225],[21.017242,52.270337]]}},{"type":"Feature","properties":{"id":"c474","lines":"M2","n":1,"color":"#BB0000","other":1},"geometry":{"type":"LineString","coordinates":[[21.02649,52.272225],[21.032654,52.272225]]}},{"type":"Feature","properties":{"id":"c480","lines":"M2","n":1,"color":"#BB0000","other":0},"geometry":{"type":"LineString","coordinates":[[21.032654,52.272225],[21.035737,52.272225],[21.041902,52.268448]]}},{"type":"Feature","properties":{"id":"c502","lines":"M2","n":1,"color":"#BB0000","other":0},"geometry":{"type":"LineString","coordinates":[[20.91244,52.24012],[20.921687,52.24012],[20.927852,52.243897]]}},{"type":"Feature","properties":{"id":"c521","lines":"S3 S4 S40","n":3,"color":"#5a6672","other":1},"geometry":{"type":"LineString","coordinates":[[21.011078,52.272225],[21.007995,52.272225],[21.00183,52.276002]]}},{"type":"Feature","properties":{"id":"c549","lines":"M1","n":1,"color":"#0000BB","other":1},"geometry":{"type":"LineString","coordinates":[[20.986418,52.26656],[20.995665,52.260894]]}},{"type":"Feature","properties":{"id":"c556","lines":"S3 S4 S40","n":3,"color":"#5a6672","other":1},"geometry":{"type":"LineString","coordinates":[[21.017242,52.270337],[21.020325,52.268448]]}},{"type":"Feature","properties":{"id":"c584","lines":"S2","n":1,"color":"#2E8EC8","other":1},"geometry":{"type":"LineString","coordinates":[[21.097385,52.238231],[21.100468,52.238231]]}},{"type":"Feature","properties":{"id":"c585","lines":"S2","n":1,"color":"#2E8EC8","other":0},"geometry":{"type":"LineString","coordinates":[[21.097385,52.238231],[21.094303,52.238231]]}},{"type":"Feature","properties":{"id":"c587","lines":"S2","n":1,"color":"#2E8EC8","other":1},"geometry":{"type":"LineString","coordinates":[[21.100468,52.238231],[21.10355,52.238231],[21.106633,52.236342]]}},{"type":"Feature","properties":{"id":"c590","lines":"S2","n":1,"color":"#2E8EC8","other":1},"geometry":{"type":"LineString","coordinates":[[21.106633,52.236342],[21.109715,52.234454],[21.109715,52.232565]]}},{"type":"Feature","properties":{"id":"c593","lines":"S2","n":1,"color":"#2E8EC8","other":1},"geometry":{"type":"LineString","coordinates":[[21.109715,52.232565],[21.112797,52.232565]]}},{"type":"Feature","properties":{"id":"c611","lines":"S1","n":1,"color":"#E84A4B","other":1},"geometry":{"type":"LineString","coordinates":[[21.10355,52.206125],[21.10355,52.211791]]}},{"type":"Feature","properties":{"id":"c615","lines":"S1","n":1,"color":"#E84A4B","other":0},"geometry":{"type":"LineString","coordinates":[[21.10355,52.206125],[21.106633,52.204237]]}},{"type":"Feature","properties":{"id":"c616","lines":"S1","n":1,"color":"#E84A4B","other":1},"geometry":{"type":"LineString","coordinates":[[21.106633,52.204237],[21.109715,52.202348]]}},{"type":"Feature","properties":{"id":"c618","lines":"S1","n":1,"color":"#E84A4B","other":1},"geometry":{"type":"LineString","coordinates":[[21.109715,52.202348],[21.109715,52.198571]]}},{"type":"Feature","properties":{"id":"c620","lines":"S1","n":1,"color":"#E84A4B","other":1},"geometry":{"type":"LineString","coordinates":[[21.109715,52.198571],[21.109715,52.194794]]}},{"type":"Feature","properties":{"id":"c621","lines":"S1","n":1,"color":"#E84A4B","other":1},"geometry":{"type":"LineString","coordinates":[[21.109715,52.194794],[21.109715,52.189128]]}},{"type":"Feature","properties":{"id":"c623","lines":"S1","n":1,"color":"#E84A4B","other":0},"geometry":{"type":"LineString","coordinates":[[21.109715,52.194794],[21.112797,52.192905]]}},{"type":"Feature","properties":{"id":"c625","lines":"S1","n":1,"color":"#E84A4B","other":0},"geometry":{"type":"LineString","coordinates":[[21.109715,52.189128],[21.112797,52.187239]]}},{"type":"Feature","properties":{"id":"c627","lines":"S1","n":1,"color":"#E84A4B","other":1},"geometry":{"type":"LineString","coordinates":[[21.112797,52.187239],[21.112797,52.185351]]}},{"type":"Feature","properties":{"id":"c641","lines":"S1","n":1,"color":"#E84A4B","other":1},"geometry":{"type":"LineString","coordinates":[[21.112797,52.185351],[21.112797,52.181574]]}},{"type":"Feature","properties":{"id":"c642","lines":"M1","n":1,"color":"#0000BB","other":1},"geometry":{"type":"LineString","coordinates":[[20.995665,52.260894],[20.995665,52.259005],[20.998748,52.257117]]}},{"type":"Feature","properties":{"id":"c643","lines":"S4 S40","n":2,"color":"#5a6672","other":1},"geometry":{"type":"LineString","coordinates":[[20.995665,52.260894],[20.992583,52.259005],[20.986418,52.259005]]}},{"type":"Feature","properties":{"id":"c644","lines":"S4 S40","n":2,"color":"#5a6672","other":1},"geometry":{"type":"LineString","coordinates":[[20.995665,52.260894],[21.004913,52.260894]]}},{"type":"Feature","properties":{"id":"c646","lines":"S4 S40","n":2,"color":"#5a6672","other":0},"geometry":{"type":"LineString","coordinates":[[20.995665,52.260894],[20.995665,52.262782]]}},{"type":"Feature","properties":{"id":"c681","lines":"S3","n":1,"color":"#FFAC01","other":1},"geometry":{"type":"LineString","coordinates":[[21.011078,52.24012],[21.011078,52.234454]]}},{"type":"Feature","properties":{"id":"c682","lines":"S3","n":1,"color":"#FFAC01","other":1},"geometry":{"type":"LineString","coordinates":[[21.011078,52.24012],[21.01416,52.242008]]}},{"type":"Feature","properties":{"id":"c689","lines":"S3","n":1,"color":"#FFAC01","other":0},"geometry":{"type":"LineString","coordinates":[[21.011078,52.234454],[21.007995,52.236342]]}},{"type":"Feature","properties":{"id":"c690","lines":"M1","n":1,"color":"#0000BB","other":1},"geometry":{"type":"LineString","coordinates":[[21.020325,52.234454],[21.020325,52.238231],[21.01416,52.242008]]}},{"type":"Feature","properties":{"id":"c691","lines":"M1","n":1,"color":"#0000BB","other":1},"geometry":{"type":"LineString","coordinates":[[21.020325,52.234454],[21.032654,52.2269]]}},{"type":"Feature","properties":{"id":"c692","lines":"S1 S2","n":2,"color":"#5a6672","other":0},"geometry":{"type":"LineString","coordinates":[[21.020325,52.234454],[21.017242,52.236342],[21.007995,52.236342]]}},{"type":"Feature","properties":{"id":"c702","lines":"S1 S2","n":2,"color":"#5a6672","other":1},"geometry":{"type":"LineString","coordinates":[[21.038819,52.24012],[21.035737,52.242008],[21.035737,52.243897]]}},{"type":"Feature","properties":{"id":"c703","lines":"M1","n":1,"color":"#0000BB","other":1},"geometry":{"type":"LineString","coordinates":[[21.032654,52.2269],[21.032654,52.221234]]}},{"type":"Feature","properties":{"id":"c709","lines":"M1","n":1,"color":"#0000BB","other":1},"geometry":{"type":"LineString","coordinates":[[21.032654,52.221234],[21.029572,52.219345],[21.01416,52.219345]]}},{"type":"Feature","properties":{"id":"c758","lines":"M1","n":1,"color":"#0000BB","other":1},"geometry":{"type":"LineString","coordinates":[[21.020325,52.208014],[21.01416,52.211791],[21.01416,52.219345]]}},{"type":"Feature","properties":{"id":"c761","lines":"M1","n":1,"color":"#0000BB","other":0},"geometry":{"type":"LineString","coordinates":[[21.020325,52.208014],[21.02649,52.204237],[21.02649,52.194794]]}},{"type":"Feature","properties":{"id":"c780","lines":"S1","n":1,"color":"#E84A4B","other":1},"geometry":{"type":"LineString","coordinates":[[21.100468,52.21368],[21.097385,52.215568],[21.097385,52.217457]]}},{"type":"Feature","properties":{"id":"c781","lines":"S1","n":1,"color":"#E84A4B","other":0},"geometry":{"type":"LineString","coordinates":[[21.100468,52.21368],[21.10355,52.211791]]}},{"type":"Feature","properties":{"id":"c786","lines":"S3","n":1,"color":"#FFAC01","other":1},"geometry":{"type":"LineString","coordinates":[[21.044984,52.249562],[21.044984,52.251451]]}},{"type":"Feature","properties":{"id":"c788","lines":"S3","n":1,"color":"#FFAC01","other":0},"geometry":{"type":"LineString","coordinates":[[21.044984,52.249562],[21.048067,52.247674]]}},{"type":"Feature","properties":{"id":"c798","lines":"M2","n":1,"color":"#BB0000","other":1},"geometry":{"type":"LineString","coordinates":[[21.032654,52.25334],[21.038819,52.257117]]}},{"type":"Feature","properties":{"id":"c805","lines":"S3","n":1,"color":"#FFAC01","other":1},"geometry":{"type":"LineString","coordinates":[[21.038819,52.257117],[21.032654,52.260894]]}},{"type":"Feature","properties":{"id":"c806","lines":"S3","n":1,"color":"#FFAC01","other":1},"geometry":{"type":"LineString","coordinates":[[21.038819,52.257117],[21.041902,52.259005]]}},{"type":"Feature","properties":{"id":"c808","lines":"M2","n":1,"color":"#BB0000","other":0},"geometry":{"type":"LineString","coordinates":[[21.038819,52.257117],[21.038819,52.259005]]}},{"type":"Feature","properties":{"id":"c817","lines":"M2","n":1,"color":"#BB0000","other":0},"geometry":{"type":"LineString","coordinates":[[21.038819,52.259005],[21.038819,52.262782],[21.035737,52.264671]]}},{"type":"Feature","properties":{"id":"c823","lines":"M2","n":1,"color":"#BB0000","other":0},"geometry":{"type":"LineString","coordinates":[[21.035737,52.264671],[21.041902,52.268448]]}},{"type":"Feature","properties":{"id":"c856","lines":"S3","n":1,"color":"#FFAC01","other":0},"geometry":{"type":"LineString","coordinates":[[21.044984,52.255228],[21.044984,52.25334]]}},{"type":"Feature","properties":{"id":"c857","lines":"S3","n":1,"color":"#FFAC01","other":0},"geometry":{"type":"LineString","coordinates":[[21.044984,52.255228],[21.041902,52.257117],[21.041902,52.259005]]}},{"type":"Feature","properties":{"id":"c896","lines":"S2","n":1,"color":"#2E8EC8","other":1},"geometry":{"type":"LineString","coordinates":[[21.057314,52.245785],[21.060396,52.243897],[21.063479,52.243897]]}},{"type":"Feature","properties":{"id":"c915","lines":"S1","n":1,"color":"#E84A4B","other":1},"geometry":{"type":"LineString","coordinates":[[21.091221,52.223122],[21.088138,52.225011],[21.088138,52.228788]]}},{"type":"Feature","properties":{"id":"c916","lines":"S1","n":1,"color":"#E84A4B","other":1},"geometry":{"type":"LineString","coordinates":[[21.091221,52.223122],[21.097385,52.219345],[21.097385,52.217457]]}},{"type":"Feature","properties":{"id":"c920","lines":"S1","n":1,"color":"#E84A4B","other":1},"geometry":{"type":"LineString","coordinates":[[21.088138,52.228788],[21.088138,52.232565]]}},{"type":"Feature","properties":{"id":"c949","lines":"S3 S4 S40","n":3,"color":"#5a6672","other":1},"geometry":{"type":"LineString","coordinates":[[20.995665,52.283557],[20.995665,52.27978]]}},{"type":"Feature","properties":{"id":"c951","lines":"S3 S4 S40","n":3,"color":"#5a6672","other":0},"geometry":{"type":"LineString","coordinates":[[20.995665,52.283557],[20.995665,52.285445]]}},{"type":"Feature","properties":{"id":"c955","lines":"S3 S4 S40","n":3,"color":"#5a6672","other":1},"geometry":{"type":"LineString","coordinates":[[20.995665,52.285445],[20.992583,52.285445]]}},{"type":"Feature","properties":{"id":"c956","lines":"S3 S4 S40","n":3,"color":"#5a6672","other":1},"geometry":{"type":"LineString","coordinates":[[20.992583,52.285445],[20.989501,52.287334]]}},{"type":"Feature","properties":{"id":"c957","lines":"S3 S4 S40","n":3,"color":"#5a6672","other":1},"geometry":{"type":"LineString","coordinates":[[20.995665,52.27978],[20.998748,52.277891]]}},{"type":"Feature","properties":{"id":"c958","lines":"S3 S4 S40","n":3,"color":"#5a6672","other":1},"geometry":{"type":"LineString","coordinates":[[20.998748,52.277891],[21.00183,52.276002]]}},{"type":"Feature","properties":{"id":"c962","lines":"S3","n":1,"color":"#FFAC01","other":1},"geometry":{"type":"LineString","coordinates":[[20.998748,52.232565],[20.995665,52.230677],[20.992583,52.230677]]}},{"type":"Feature","properties":{"id":"c964","lines":"S3","n":1,"color":"#FFAC01","other":0},"geometry":{"type":"LineString","coordinates":[[20.998748,52.232565],[21.004913,52.236342]]}},{"type":"Feature","properties":{"id":"c965","lines":"S1 S2 S3 WKD","n":4,"color":"#5a6672","other":1},"geometry":{"type":"LineString","coordinates":[[20.992583,52.230677],[20.989501,52.228788],[20.977171,52.228788]]}},{"type":"Feature","properties":{"id":"c972","lines":"S1 S2 WKD","n":3,"color":"#5a6672","other":0},"geometry":{"type":"LineString","coordinates":[[20.992583,52.230677],[21.00183,52.236342],[21.004913,52.236342]]}},{"type":"Feature","properties":{"id":"c973","lines":"S1 S2 S3 WKD","n":4,"color":"#5a6672","other":1},"geometry":{"type":"LineString","coordinates":[[20.977171,52.228788],[20.967924,52.223122]]}},{"type":"Feature","properties":{"id":"c974","lines":"S1 S2 S3 WKD","n":4,"color":"#5a6672","other":1},"geometry":{"type":"LineString","coordinates":[[20.967924,52.223122],[20.964841,52.221234],[20.961759,52.221234]]}},{"type":"Feature","properties":{"id":"c976","lines":"S1 S2 S3 WKD","n":4,"color":"#5a6672","other":1},"geometry":{"type":"LineString","coordinates":[[20.961759,52.221234],[20.955594,52.217457]]}},{"type":"Feature","properties":{"id":"c979","lines":"S1 S2 S3 WKD","n":4,"color":"#5a6672","other":1},"geometry":{"type":"LineString","coordinates":[[20.961759,52.221234],[20.958676,52.223122]]}},{"type":"Feature","properties":{"id":"c980","lines":"S1 S2 S3 S4 S40 WKD","n":6,"color":"#5a6672","other":1},"geometry":{"type":"LineString","coordinates":[[20.955594,52.217457],[20.949429,52.217457],[20.940182,52.211791]]}},{"type":"Feature","properties":{"id":"c981","lines":"S4 S40","n":2,"color":"#5a6672","other":1},"geometry":{"type":"LineString","coordinates":[[20.955594,52.217457],[20.952511,52.219345],[20.952511,52.225011]]}},{"type":"Feature","properties":{"id":"c984","lines":"WKD","n":1,"color":"#a518a3","other":1},"geometry":{"type":"LineString","coordinates":[[20.940182,52.211791],[20.934017,52.211791]]}},{"type":"Feature","properties":{"id":"c986","lines":"S1 S2 S3 S4 S40","n":5,"color":"#5a6672","other":1},"geometry":{"type":"LineString","coordinates":[[20.940182,52.211791],[20.927852,52.204237]]}},{"type":"Feature","properties":{"id":"c989","lines":"S1 WKD","n":2,"color":"#5a6672","other":1},"geometry":{"type":"LineString","coordinates":[[20.927852,52.204237],[20.92477,52.202348],[20.92477,52.196682]]}},{"type":"Feature","properties":{"id":"c990","lines":"S2 S3 S4 S40","n":4,"color":"#5a6672","other":1},"geometry":{"type":"LineString","coordinates":[[20.927852,52.204237],[20.934017,52.20046],[20.934017,52.198571]]}},{"type":"Feature","properties":{"id":"c991","lines":"WKD","n":1,"color":"#a518a3","other":0},"geometry":{"type":"LineString","coordinates":[[20.927852,52.204237],[20.927852,52.208014],[20.934017,52.211791]]}},{"type":"Feature","properties":{"id":"c992","lines":"S1","n":1,"color":"#E84A4B","other":1},"geometry":{"type":"LineString","coordinates":[[20.92477,52.196682],[20.918605,52.20046]]}},{"type":"Feature","properties":{"id":"c993","lines":"WKD","n":1,"color":"#a518a3","other":1},"geometry":{"type":"LineString","coordinates":[[20.92477,52.196682],[20.918605,52.192905]]}},{"type":"Feature","properties":{"id":"c996","lines":"S1","n":1,"color":"#E84A4B","other":1},"geometry":{"type":"LineString","coordinates":[[20.918605,52.20046],[20.91244,52.204237],[20.909358,52.204237]]}},{"type":"Feature","properties":{"id":"c1005","lines":"S1","n":1,"color":"#E84A4B","other":1},"geometry":{"type":"LineString","coordinates":[[20.906275,52.206125],[20.909358,52.204237]]}},{"type":"Feature","properties":{"id":"c1007","lines":"S1","n":1,"color":"#E84A4B","other":1},"geometry":{"type":"LineString","coordinates":[[20.906275,52.206125],[20.90011,52.202348],[20.897028,52.202348]]}},{"type":"Feature","properties":{"id":"c1008","lines":"S1","n":1,"color":"#E84A4B","other":0},"geometry":{"type":"LineString","coordinates":[[20.906275,52.206125],[20.90011,52.206125]]}},{"type":"Feature","properties":{"id":"c1058","lines":"M2","n":1,"color":"#BB0000","other":0},"geometry":{"type":"LineString","coordinates":[[20.937099,52.243897],[20.927852,52.243897]]}},{"type":"Feature","properties":{"id":"c1059","lines":"M2","n":1,"color":"#BB0000","other":0},"geometry":{"type":"LineString","coordinates":[[20.937099,52.243897],[20.952511,52.243897]]}},{"type":"Feature","properties":{"id":"c1079","lines":"S1","n":1,"color":"#E84A4B","other":1},"geometry":{"type":"LineString","coordinates":[[20.893945,52.196682],[20.887781,52.196682]]}},{"type":"Feature","properties":{"id":"c1082","lines":"S1","n":1,"color":"#E84A4B","other":1},"geometry":{"type":"LineString","coordinates":[[20.893945,52.196682],[20.893945,52.20046],[20.897028,52.202348]]}},{"type":"Feature","properties":{"id":"c1086","lines":"S1","n":1,"color":"#E84A4B","other":0},"geometry":{"type":"LineString","coordinates":[[20.893945,52.196682],[20.897028,52.198571]]}},{"type":"Feature","properties":{"id":"c1145","lines":"S3","n":1,"color":"#FFAC01","other":1},"geometry":{"type":"LineString","coordinates":[[21.032654,52.260894],[21.029572,52.262782],[21.02649,52.262782]]}},{"type":"Feature","properties":{"id":"c1167","lines":"S4 S40","n":2,"color":"#5a6672","other":0},"geometry":{"type":"LineString","coordinates":[[20.952511,52.225011],[20.952511,52.2269]]}},{"type":"Feature","properties":{"id":"c1203","lines":"M1","n":1,"color":"#0000BB","other":1},"geometry":{"type":"LineString","coordinates":[[21.02649,52.166465],[21.02649,52.164577]]}},{"type":"Feature","properties":{"id":"c1205","lines":"M1","n":1,"color":"#0000BB","other":1},"geometry":{"type":"LineString","coordinates":[[21.02649,52.166465],[21.02649,52.170242]]}},{"type":"Feature","properties":{"id":"c1211","lines":"M1","n":1,"color":"#0000BB","other":0},"geometry":{"type":"LineString","coordinates":[[21.02649,52.164577],[21.02649,52.162688]]}},{"type":"Feature","properties":{"id":"c1229","lines":"M1","n":1,"color":"#0000BB","other":1},"geometry":{"type":"LineString","coordinates":[[21.035737,52.160799],[21.038819,52.158911]]}},{"type":"Feature","properties":{"id":"c1232","lines":"M1","n":1,"color":"#0000BB","other":0},"geometry":{"type":"LineString","coordinates":[[21.035737,52.160799],[21.029572,52.160799],[21.02649,52.162688]]}},{"type":"Feature","properties":{"id":"c1242","lines":"M1","n":1,"color":"#0000BB","other":1},"geometry":{"type":"LineString","coordinates":[[21.038819,52.158911],[21.038819,52.155134]]}},{"type":"Feature","properties":{"id":"c1255","lines":"S3","n":1,"color":"#FFAC01","other":0},"geometry":{"type":"LineString","coordinates":[[21.044984,52.25334],[21.044984,52.251451]]}},{"type":"Feature","properties":{"id":"c1281","lines":"M1","n":1,"color":"#0000BB","other":0},"geometry":{"type":"LineString","coordinates":[[21.041902,52.151357],[21.038819,52.153245],[21.038819,52.155134]]}},{"type":"Feature","properties":{"id":"c1323","lines":"S2 S3 S4 S40","n":4,"color":"#5a6672","other":1},"geometry":{"type":"LineString","coordinates":[[20.977171,52.175908],[20.983336,52.175908],[20.989501,52.172131]]}},{"type":"Feature","properties":{"id":"c1324","lines":"S2 S3 S4 S40","n":4,"color":"#5a6672","other":1},"geometry":{"type":"LineString","coordinates":[[20.977171,52.175908],[20.977171,52.181574]]}},{"type":"Feature","properties":{"id":"c1325","lines":"S2 S3 S4 S40","n":4,"color":"#5a6672","other":1},"geometry":{"type":"LineString","coordinates":[[20.977171,52.181574],[20.977171,52.185351],[20.980253,52.187239]]}},{"type":"Feature","properties":{"id":"c1333","lines":"S2 S3 S4 S40","n":4,"color":"#5a6672","other":0},"geometry":{"type":"LineString","coordinates":[[20.980253,52.187239],[20.977171,52.187239],[20.974088,52.189128],[20.955594,52.189128]]}},{"type":"Feature","properties":{"id":"c1358","lines":"S2","n":1,"color":"#2E8EC8","other":1},"geometry":{"type":"LineString","coordinates":[[21.091221,52.236342],[21.088138,52.234454]]}},{"type":"Feature","properties":{"id":"c1359","lines":"S2","n":1,"color":"#2E8EC8","other":1},"geometry":{"type":"LineString","coordinates":[[21.091221,52.236342],[21.094303,52.238231]]}},{"type":"Feature","properties":{"id":"c1360","lines":"S2","n":1,"color":"#2E8EC8","other":1},"geometry":{"type":"LineString","coordinates":[[21.088138,52.234454],[21.088138,52.232565]]}},{"type":"Feature","properties":{"id":"c1363","lines":"S1","n":1,"color":"#E84A4B","other":0},"geometry":{"type":"LineString","coordinates":[[21.088138,52.232565],[21.091221,52.230677]]}},{"type":"Feature","properties":{"id":"c1398","lines":"S2 S3","n":2,"color":"#5a6672","other":0},"geometry":{"type":"LineString","coordinates":[[20.971006,52.166465],[20.967924,52.168354]]}},{"type":"Feature","properties":{"id":"c1403","lines":"S4 S40","n":2,"color":"#5a6672","other":1},"geometry":{"type":"LineString","coordinates":[[20.983336,52.162688],[20.977171,52.166465]]}},{"type":"Feature","properties":{"id":"c1404","lines":"S4 S40","n":2,"color":"#5a6672","other":0},"geometry":{"type":"LineString","coordinates":[[20.983336,52.162688],[20.986418,52.160799],[20.986418,52.134359]]}},{"type":"Feature","properties":{"id":"c1429","lines":"S4 S40","n":2,"color":"#5a6672","other":1},"geometry":{"type":"LineString","coordinates":[[20.977171,52.166465],[20.977171,52.172131]]}},{"type":"Feature","properties":{"id":"c1430","lines":"S2 S3","n":2,"color":"#5a6672","other":1},"geometry":{"type":"LineString","coordinates":[[20.967924,52.168354],[20.974088,52.172131],[20.977171,52.172131]]}},{"type":"Feature","properties":{"id":"c1479","lines":"S2 S3 S4 S40","n":4,"color":"#5a6672","other":1},"geometry":{"type":"LineString","coordinates":[[20.977171,52.174019],[20.977171,52.172131]]}},{"type":"Feature","properties":{"id":"c1480","lines":"S2 S3 S4 S40","n":4,"color":"#5a6672","other":1},"geometry":{"type":"LineString","coordinates":[[20.977171,52.174019],[20.980253,52.174019],[20.986418,52.170242]]}},{"type":"Feature","properties":{"id":"c1481","lines":"S2 S3 S4 S40","n":4,"color":"#5a6672","other":1},"geometry":{"type":"LineString","coordinates":[[20.955594,52.189128],[20.940182,52.189128],[20.934017,52.192905]]}},{"type":"Feature","properties":{"id":"c1504","lines":"S1","n":1,"color":"#E84A4B","other":0},"geometry":{"type":"LineString","coordinates":[[21.112797,52.181574],[21.112797,52.179685],[21.118962,52.175908]]}},{"type":"Feature","properties":{"id":"c1544","lines":"S3","n":1,"color":"#FFAC01","other":1},"geometry":{"type":"LineString","coordinates":[[21.02649,52.262782],[21.020325,52.26656]]}},{"type":"Feature","properties":{"id":"c1558","lines":"S2","n":1,"color":"#2E8EC8","other":1},"geometry":{"type":"LineString","coordinates":[[21.118962,52.234454],[21.118962,52.232565]]}},{"type":"Feature","properties":{"id":"c1559","lines":"S2","n":1,"color":"#2E8EC8","other":0},"geometry":{"type":"LineString","coordinates":[[21.118962,52.234454],[21.118962,52.238231]]}},{"type":"Feature","properties":{"id":"c1560","lines":"S2","n":1,"color":"#2E8EC8","other":1},"geometry":{"type":"LineString","coordinates":[[21.118962,52.232565],[21.112797,52.232565]]}},{"type":"Feature","properties":{"id":"c1563","lines":"S2","n":1,"color":"#2E8EC8","other":1},"geometry":{"type":"LineString","coordinates":[[21.066561,52.243897],[21.063479,52.243897]]}},{"type":"Feature","properties":{"id":"c1564","lines":"M1","n":1,"color":"#0000BB","other":0},"geometry":{"type":"LineString","coordinates":[[21.02649,52.194794],[21.02649,52.183462]]}},{"type":"Feature","properties":{"id":"c1571","lines":"S3 S4 S40","n":3,"color":"#5a6672","other":1},"geometry":{"type":"LineString","coordinates":[[20.989501,52.287334],[20.986418,52.289222],[20.983336,52.289222]]}},{"type":"Feature","properties":{"id":"c1572","lines":"S3 S4 S40","n":3,"color":"#5a6672","other":0},"geometry":{"type":"LineString","coordinates":[[20.983336,52.289222],[20.983336,52.298665],[20.961759,52.311885]]}},{"type":"Feature","properties":{"id":"c1590","lines":"S1","n":1,"color":"#E84A4B","other":1},"geometry":{"type":"LineString","coordinates":[[20.884698,52.194794],[20.887781,52.196682]]}},{"type":"Feature","properties":{"id":"c1591","lines":"S1","n":1,"color":"#E84A4B","other":1},"geometry":{"type":"LineString","coordinates":[[20.884698,52.194794],[20.878533,52.194794]]}},{"type":"Feature","properties":{"id":"c1602","lines":"S4 S40","n":2,"color":"#5a6672","other":1},"geometry":{"type":"LineString","coordinates":[[21.004913,52.260894],[21.01416,52.260894]]}},{"type":"Feature","properties":{"id":"c1616","lines":"S4 S40","n":2,"color":"#5a6672","other":1},"geometry":{"type":"LineString","coordinates":[[20.980253,52.257117],[20.974088,52.257117]]}},{"type":"Feature","properties":{"id":"c1618","lines":"S4 S40","n":2,"color":"#5a6672","other":1},"geometry":{"type":"LineString","coordinates":[[20.980253,52.257117],[20.983336,52.257117],[20.986418,52.259005]]}},{"type":"Feature","properties":{"id":"c1638","lines":"S1","n":1,"color":"#E84A4B","other":1},"geometry":{"type":"LineString","coordinates":[[20.878533,52.194794],[20.875451,52.192905]]}},{"type":"Feature","properties":{"id":"c1647","lines":"WKD","n":1,"color":"#a518a3","other":1},"geometry":{"type":"LineString","coordinates":[[20.918605,52.192905],[20.92477,52.189128]]}},{"type":"Feature","properties":{"id":"c1654","lines":"M1","n":1,"color":"#0000BB","other":1},"geometry":{"type":"LineString","coordinates":[[21.02649,52.172131],[21.02649,52.170242]]}},{"type":"Feature","properties":{"id":"c1657","lines":"S2 S3 S4 S40","n":4,"color":"#5a6672","other":0},"geometry":{"type":"LineString","coordinates":[[20.989501,52.172131],[20.986418,52.170242]]}},{"type":"Feature","properties":{"id":"c1660","lines":"WKD","n":1,"color":"#a518a3","other":0},"geometry":{"type":"LineString","coordinates":[[20.92477,52.189128],[20.909358,52.179685]]}},{"type":"Feature","properties":{"id":"c1675","lines":"S2","n":1,"color":"#2E8EC8","other":0},"geometry":{"type":"LineString","coordinates":[[21.118962,52.238231],[21.122045,52.238231],[21.134374,52.230677]]}},{"type":"Feature","properties":{"id":"c1726","lines":"S2 S3 S4 S40","n":4,"color":"#5a6672","other":0},"geometry":{"type":"LineString","coordinates":[[20.934017,52.198571],[20.934017,52.192905]]}},{"type":"Feature","properties":{"id":"c1782","lines":"WKD","n":1,"color":"#a518a3","other":0},"geometry":{"type":"LineString","coordinates":[[20.909358,52.179685],[20.906275,52.177797],[20.893945,52.177797]]}},{"type":"Feature","properties":{"id":"c1828","lines":"S4 S40","n":2,"color":"#5a6672","other":0},"geometry":{"type":"LineString","coordinates":[[21.01416,52.260894],[21.01416,52.26656]]}},{"type":"Feature","properties":{"id":"c1838","lines":"S1","n":1,"color":"#E84A4B","other":0},"geometry":{"type":"LineString","coordinates":[[21.097385,52.217457],[21.100468,52.219345]]}},{"type":"Feature","properties":{"id":"c1840","lines":"S4 S40","n":2,"color":"#5a6672","other":0},"geometry":{"type":"LineString","coordinates":[[20.952511,52.2269],[20.952511,52.234454],[20.958676,52.238231],[20.958676,52.25334]]}},{"type":"Feature","properties":{"id":"c1848","lines":"S1","n":1,"color":"#E84A4B","other":1},"geometry":{"type":"LineString","coordinates":[[21.122045,52.158911],[21.118962,52.160799]]}},{"type":"Feature","properties":{"id":"c1854","lines":"S1","n":1,"color":"#E84A4B","other":0},"geometry":{"type":"LineString","coordinates":[[21.122045,52.158911],[21.122045,52.160799]]}},{"type":"Feature","properties":{"id":"c1965","lines":"S4 S40","n":2,"color":"#5a6672","other":0},"geometry":{"type":"LineString","coordinates":[[21.00183,52.124917],[20.986418,52.134359]]}},{"type":"Feature","properties":{"id":"c2063","lines":"S1","n":1,"color":"#E84A4B","other":1},"geometry":{"type":"LineString","coordinates":[[20.875451,52.192905],[20.875451,52.189128],[20.878533,52.187239],[20.878533,52.185351]]}},{"type":"Feature","properties":{"id":"c2064","lines":"S1","n":1,"color":"#E84A4B","other":0},"geometry":{"type":"LineString","coordinates":[[20.875451,52.192905],[20.875451,52.187239]]}},{"type":"Feature","properties":{"id":"c2068","lines":"S1","n":1,"color":"#E84A4B","other":1},"geometry":{"type":"LineString","coordinates":[[20.878533,52.185351],[20.878533,52.181574]]}},{"type":"Feature","properties":{"id":"c2215","lines":"S4 S40","n":2,"color":"#5a6672","other":1},"geometry":{"type":"LineString","coordinates":[[20.961759,52.313774],[20.967924,52.309997],[20.971006,52.309997]]}},{"type":"Feature","properties":{"id":"c2216","lines":"S4 S40","n":2,"color":"#5a6672","other":0},"geometry":{"type":"LineString","coordinates":[[20.961759,52.313774],[20.961759,52.311885]]}},{"type":"Feature","properties":{"id":"c2219","lines":"S4 S40","n":2,"color":"#5a6672","other":1},"geometry":{"type":"LineString","coordinates":[[20.971006,52.309997],[20.974088,52.309997]]}},{"type":"Feature","properties":{"id":"c2376","lines":"S1","n":1,"color":"#E84A4B","other":1},"geometry":{"type":"LineString","coordinates":[[20.872368,52.183462],[20.875451,52.183462],[20.878533,52.181574]]}},{"type":"Feature","properties":{"id":"c2377","lines":"S1","n":1,"color":"#E84A4B","other":1},"geometry":{"type":"LineString","coordinates":[[20.872368,52.183462],[20.869286,52.181574]]}},{"type":"Feature","properties":{"id":"c2379","lines":"WKD","n":1,"color":"#a518a3","other":0},"geometry":{"type":"LineString","coordinates":[[20.878533,52.181574],[20.878533,52.174019],[20.872368,52.170242]]}},{"type":"Feature","properties":{"id":"c2380","lines":"WKD","n":1,"color":"#a518a3","other":0},"geometry":{"type":"LineString","coordinates":[[20.878533,52.181574],[20.887781,52.181574],[20.893945,52.177797]]}},{"type":"Feature","properties":{"id":"c2406","lines":"S4 S40","n":2,"color":"#5a6672","other":1},"geometry":{"type":"LineString","coordinates":[[20.974088,52.309997],[20.974088,52.311885]]}},{"type":"Feature","properties":{"id":"c2408","lines":"S4 S40","n":2,"color":"#5a6672","other":0},"geometry":{"type":"LineString","coordinates":[[20.974088,52.311885],[20.980253,52.315662]]}},{"type":"Feature","properties":{"id":"c2704","lines":"S3 S4 S40","n":3,"color":"#5a6672","other":1},"geometry":{"type":"LineString","coordinates":[[21.020325,52.268448],[21.020325,52.26656]]}},{"type":"Feature","properties":{"id":"c2705","lines":"S3 S4 S40","n":3,"color":"#5a6672","other":0},"geometry":{"type":"LineString","coordinates":[[21.020325,52.26656],[21.01416,52.26656]]}},{"type":"Feature","properties":{"id":"c2712","lines":"S1","n":1,"color":"#E84A4B","other":1},"geometry":{"type":"LineString","coordinates":[[21.118962,52.160799],[21.118962,52.164577]]}},{"type":"Feature","properties":{"id":"c2714","lines":"S1","n":1,"color":"#E84A4B","other":1},"geometry":{"type":"LineString","coordinates":[[21.11588,52.166465],[21.118962,52.168354],[21.118962,52.175908]]}},{"type":"Feature","properties":{"id":"c2715","lines":"S1","n":1,"color":"#E84A4B","other":0},"geometry":{"type":"LineString","coordinates":[[21.11588,52.166465],[21.118962,52.164577]]}},{"type":"Feature","properties":{"id":"c2765","lines":"WKD","n":1,"color":"#a518a3","other":0},"geometry":{"type":"LineString","coordinates":[[20.819967,52.158911],[20.826132,52.162688]]}},{"type":"Feature","properties":{"id":"c2780","lines":"WKD","n":1,"color":"#a518a3","other":0},"geometry":{"type":"LineString","coordinates":[[20.826132,52.162688],[20.832297,52.162688],[20.835379,52.164577]]}},{"type":"Feature","properties":{"id":"c2921","lines":"WKD","n":1,"color":"#a518a3","other":0},"geometry":{"type":"LineString","coordinates":[[20.844627,52.164577],[20.835379,52.164577]]}},{"type":"Feature","properties":{"id":"c2922","lines":"WKD","n":1,"color":"#a518a3","other":0},"geometry":{"type":"LineString","coordinates":[[20.844627,52.164577],[20.847709,52.162688],[20.856956,52.162688]]}},{"type":"Feature","properties":{"id":"c2988","lines":"WKD","n":1,"color":"#a518a3","other":0},"geometry":{"type":"LineString","coordinates":[[20.856956,52.162688],[20.860039,52.162688],[20.866204,52.166465]]}},{"type":"Feature","properties":{"id":"c3001","lines":"WKD","n":1,"color":"#a518a3","other":0},"geometry":{"type":"LineString","coordinates":[[20.832297,52.166465],[20.835379,52.164577]]}},{"type":"Feature","properties":{"id":"c3289","lines":"S1","n":1,"color":"#E84A4B","other":1},"geometry":{"type":"LineString","coordinates":[[20.863121,52.185351],[20.869286,52.181574]]}},{"type":"Feature","properties":{"id":"c3347","lines":"WKD","n":1,"color":"#a518a3","other":0},"geometry":{"type":"LineString","coordinates":[[20.866204,52.166465],[20.872368,52.170242]]}},{"type":"Feature","properties":{"id":"c3484","lines":"S2","n":1,"color":"#2E8EC8","other":1},"geometry":{"type":"LineString","coordinates":[[21.140539,52.2269],[21.140539,52.228788],[21.137457,52.230677]]}},{"type":"Feature","properties":{"id":"c3619","lines":"S2","n":1,"color":"#2E8EC8","other":1},"geometry":{"type":"LineString","coordinates":[[21.134374,52.230677],[21.137457,52.230677]]}},{"type":"Feature","properties":{"id":"c3625","lines":"S4","n":1,"color":"#2F7B20","other":0},"geometry":{"type":"LineString","coordinates":[[20.989501,52.321328],[20.980253,52.315662]]}},{"type":"Feature","properties":{"id":"c3626","lines":"S4","n":1,"color":"#2F7B20","other":0},"geometry":{"type":"LineString","coordinates":[[20.989501,52.321328],[20.995665,52.325105]]}},{"type":"Feature","properties":{"id":"c3639","lines":"S1 S2 S3","n":3,"color":"#5a6672","other":0},"geometry":{"type":"LineString","coordinates":[[21.004913,52.236342],[21.007995,52.236342]]}}]}