{"type":"FeatureCollection","features":[{"type":"Feature","properties":{"name":"Dw. Wileński","mode":"bus","text":"162 N02","n":2,"color":"#0059a9","badge":"bus","tip":0},"geometry":{"type":"Point","coordinates":[21.032654,52.25334]}},{"type":"Feature","properties":{"name":"Pl. Hallera","mode":"bus","text":"135 162 166 212 338","n":5,"color":"#0059a9","badge":"bus","tip":0},"geometry":{"type":"Point","coordinates":[21.02649,52.257117]}},{"type":"Feature","properties":{"name":"Rondo Starzyńskiego","mode":"bus","text":"170","n":1,"color":"#0059a9","badge":"bus","tip":0},"geometry":{"type":"Point","coordinates":[21.017242,52.260894]}},{"type":"Feature","properties":{"name":"Żerań FSO","mode":"bus","text":"145 211 516 723 731 736","n":6,"color":"#0059a9","badge":"bus","tip":0},"geometry":{"type":"Point","coordinates":[20.998748,52.274114]}},{"type":"Feature","properties":{"name":"Żerań FSO","mode":"tram","text":"18 20","n":2,"color":"#d6212b","badge":"tram","tip":0},"geometry":{"type":"Point","coordinates":[20.998748,52.274114]}},{"type":"Feature","properties":{"name":"Henryków","mode":"bus","text":"900 N63","n":2,"color":"#0059a9","badge":"bus","tip":0},"geometry":{"type":"Point","coordinates":[20.971006,52.291111]}},{"type":"Feature","properties":{"name":"Dw. Wschodni (Kijowska)","mode":"bus","text":"120 123 156 169 512 N02","n":6,"color":"#0059a9","badge":"bus","tip":0},"geometry":{"type":"Point","coordinates":[21.044984,52.249562]}},{"type":"Feature","properties":{"name":"Dw. Wschodni (Kijowska)","mode":"tram","text":"13 28","n":2,"color":"#d6212b","badge":"tram","tip":0},"geometry":{"type":"Point","coordinates":[21.044984,52.249562]}},{"type":"Feature","properties":{"name":"Wojnicka","mode":"tram","text":"7","n":1,"color":"#d6212b","badge":"tram","tip":0},"geometry":{"type":"Point","coordinates":[21.051149,52.25334]}},{"type":"Feature","properties":{"name":"Utrata","mode":"bus","text":"138 338","n":2,"color":"#0059a9","badge":"bus","tip":1},"geometry":{"type":"Point","coordinates":[21.072726,52.251451]}},{"type":"Feature","properties":{"name":"Elsnerów","mode":"bus","text":"170","n":1,"color":"#0059a9","badge":"bus","tip":1},"geometry":{"type":"Point","coordinates":[21.066561,52.257117]}},{"type":"Feature","properties":{"name":"Lewinów","mode":"bus","text":"262","n":1,"color":"#0059a9","badge":"bus","tip":0},"geometry":{"type":"Point","coordinates":[21.057314,52.264671]}},{"type":"Feature","properties":{"name":"Czynszowa","mode":"tram","text":"23","n":1,"color":"#d6212b","badge":"tram","tip":0},"geometry":{"type":"Point","coordinates":[21.032654,52.259005]}},{"type":"Feature","properties":{"name":"Metro Bródno","mode":"bus","text":"104 176 204 226 326","n":5,"color":"#0059a9","badge":"bus","tip":0},"geometry":{"type":"Point","coordinates":[21.017242,52.272225]}},{"type":"Feature","properties":{"name":"Metro Bródno","mode":"metro","text":"M2","n":1,"color":"#BB0000","badge":"cBB0000","tip":0},"geometry":{"type":"Point","coordinates":[21.017242,52.272225]}},{"type":"Feature","properties":{"name":"Annopol","mode":"tram","text":"1 3 25","n":3,"color":"#d6212b","badge":"tram","tip":1},"geometry":{"type":"Point","coordinates":[21.011078,52.276002]}},{"type":"Feature","properties":{"name":"Żerań Wschodni","mode":"bus","text":"234","n":1,"color":"#0059a9","badge":"bus","tip":0},"geometry":{"type":"Point","coordinates":[21.00183,52.281668]}},{"type":"Feature","properties":{"name":"Żerań Wschodni","mode":"tram","text":"1 4","n":2,"color":"#d6212b","badge":"tram","tip":0},"geometry":{"type":"Point","coordinates":[21.00183,52.281668]}},{"type":"Feature","properties":{"name":"Marcelin","mode":"bus","text":"176","n":1,"color":"#0059a9","badge":"bus","tip":0},"geometry":{"type":"Point","coordinates":[20.992583,52.285445]}},{"type":"Feature","properties":{"name":"Choszczówka","mode":"bus","text":"133 176 N64","n":3,"color":"#0059a9","badge":"bus","tip":0},"geometry":{"type":"Point","coordinates":[20.980253,52.298665]}},{"type":"Feature","properties":{"name":"Płytowa","mode":"bus","text":"N64","n":1,"color":"#0059a9","badge":"bus","tip":0},"geometry":{"type":"Point","coordinates":[21.00183,52.285445]}},{"type":"Feature","properties":{"name":"Metro Trocka","mode":"bus","text":"140 262 340 356 738 N12 Z2M Z4M","n":8,"color":"#0059a9","badge":"bus","tip":0},"geometry":{"type":"Point","coordinates":[21.035737,52.264671]}},{"type":"Feature","properties":{"name":"Żuromińska","mode":"bus","text":"N11","n":1,"color":"#0059a9","badge":"bus","tip":0},"geometry":{"type":"Point","coordinates":[21.032654,52.270337]}},{"type":"Feature","properties":{"name":"Metro Kondratowicza","mode":"bus","text":"240 256 527 R9","n":4,"color":"#0059a9","badge":"bus","tip":0},"geometry":{"type":"Point","coordinates":[21.032654,52.272225]}},{"type":"Feature","properties":{"name":"Bródno - Podgrodzie","mode":"bus","text":"114 169 199 245 409 414 500","n":7,"color":"#0059a9","badge":"bus","tip":1},"geometry":{"type":"Point","coordinates":[21.029572,52.276002]}},{"type":"Feature","properties":{"name":"Białołęka - Kanał","mode":"bus","text":"104","n":1,"color":"#0059a9","badge":"bus","tip":0},"geometry":{"type":"Point","coordinates":[21.01416,52.287334]}},{"type":"Feature","properties":{"name":"CH Targówek","mode":"bus","text":"126 212","n":2,"color":"#0059a9","badge":"bus","tip":0},"geometry":{"type":"Point","coordinates":[21.035737,52.276002]}},{"type":"Feature","properties":{"name":"Grodzisk","mode":"bus","text":"160 204 527","n":3,"color":"#0059a9","badge":"bus","tip":0},"geometry":{"type":"Point","coordinates":[21.038819,52.283557]}},{"type":"Feature","properties":{"name":"Legionowo Mickiewicza","mode":"bus","text":"736 N63","n":2,"color":"#0059a9","badge":"bus","tip":0},"geometry":{"type":"Point","coordinates":[20.946347,52.308108]}},{"type":"Feature","properties":{"name":"PKP Legionowo Przystanek","mode":"bus","text":"723 N63 W1","n":3,"color":"#0059a9","badge":"bus","tip":0},"geometry":{"type":"Point","coordinates":[20.940182,52.311885]}},{"type":"Feature","properties":{"name":"Zajezdnia Stalowa","mode":"bus","text":"N03 N61","n":2,"color":"#0059a9","badge":"bus","tip":0},"geometry":{"type":"Point","coordinates":[21.041902,52.259005]}},{"type":"Feature","properties":{"name":"Legionowo Os. Młodych","mode":"bus","text":"731","n":1,"color":"#0059a9","badge":"bus","tip":0},"geometry":{"type":"Point","coordinates":[20.949429,52.315662]}},{"type":"Feature","properties":{"name":"Metro Stadion Narodowy","mode":"bus","text":"E-1","n":1,"color":"#0059a9","badge":"bus","tip":0},"geometry":{"type":"Point","coordinates":[21.041902,52.245785]}},{"type":"Feature","properties":{"name":"Metro Stadion Narodowy","mode":"bus","text":"102 125 202","n":3,"color":"#0059a9","badge":"bus","tip":0},"geometry":{"type":"Point","coordinates":[21.044984,52.242008]}},{"type":"Feature","properties":{"name":"CH Marki","mode":"bus","text":"112 190 L40 L44 L45 L46 Z1 Z3","n":8,"color":"#0059a9","badge":"bus","tip":0},"geometry":{"type":"Point","coordinates":[21.048067,52.276002]}},{"type":"Feature","properties":{"name":"Marki Pustelnik","mode":"bus","text":"240 340","n":2,"color":"#0059a9","badge":"bus","tip":0},"geometry":{"type":"Point","coordinates":[21.063479,52.285445]}},{"type":"Feature","properties":{"name":"Marki Czarna Struga","mode":"bus","text":"140 N61","n":2,"color":"#0059a9","badge":"bus","tip":1},"geometry":{"type":"Point","coordinates":[21.051149,52.293]}},{"type":"Feature","properties":{"name":"Nowodwory","mode":"bus","text":"186 516 518 N01 N13 N63","n":6,"color":"#0059a9","badge":"bus","tip":0},"geometry":{"type":"Point","coordinates":[20.955594,52.289222]}},{"type":"Feature","properties":{"name":"Białobrzegi","mode":"bus","text":"705","n":1,"color":"#0059a9","badge":"bus","tip":0},"geometry":{"type":"Point","coordinates":[21.017242,52.317551]}},{"type":"Feature","properties":{"name":"Tarchomin","mode":"bus","text":"126 133 152 314 N03 N13 N63","n":7,"color":"#0059a9","badge":"bus","tip":0},"geometry":{"type":"Point","coordinates":[20.958676,52.283557]}},{"type":"Feature","properties":{"name":"Olesin","mode":"bus","text":"120 134 314 N14","n":4,"color":"#0059a9","badge":"bus","tip":1},"geometry":{"type":"Point","coordinates":[21.032654,52.296777]}},{"type":"Feature","properties":{"name":"Chotomów","mode":"bus","text":"L49","n":1,"color":"#0059a9","badge":"bus","tip":0},"geometry":{"type":"Point","coordinates":[20.930935,52.311885]}},{"type":"Feature","properties":{"name":"Dąbrówka Wiślana","mode":"bus","text":"211 511","n":2,"color":"#0059a9","badge":"bus","tip":0},"geometry":{"type":"Point","coordinates":[20.949429,52.293]}},{"type":"Feature","properties":{"name":"Zegrze Płd.","mode":"bus","text":"735","n":1,"color":"#0059a9","badge":"bus","tip":1},"geometry":{"type":"Point","coordinates":[20.998748,52.321328]}},{"type":"Feature","properties":{"name":"Kupiecka","mode":"bus","text":"N64","n":1,"color":"#0059a9","badge":"bus","tip":1},"geometry":{"type":"Point","coordinates":[21.00183,52.287334]}},{"type":"Feature","properties":{"name":"Juranda ze Spychowa - Szkoła","mode":"bus","text":"332","n":1,"color":"#0059a9","badge":"bus","tip":0},"geometry":{"type":"Point","coordinates":[21.017242,52.283557]}},{"type":"Feature","properties":{"name":"Os. Derby","mode":"bus","text":"132 152 N11","n":3,"color":"#0059a9","badge":"bus","tip":0},"geometry":{"type":"Point","coordinates":[21.035737,52.27978]}},{"type":"Feature","properties":{"name":"Rynia","mode":"bus","text":"705","n":1,"color":"#0059a9","badge":"bus","tip":1},"geometry":{"type":"Point","coordinates":[21.020325,52.326994]}},{"type":"Feature","properties":{"name":"Legionowo Starostwo Powiatowe","mode":"bus","text":"731","n":1,"color":"#0059a9","badge":"bus","tip":0},"geometry":{"type":"Point","coordinates":[20.958676,52.315662]}},{"type":"Feature","properties":{"name":"Wołomin Os. Niepodległości","mode":"bus","text":"N62","n":1,"color":"#0059a9","badge":"bus","tip":0},"geometry":{"type":"Point","coordinates":[21.11588,52.27978]}},{"type":"Feature","properties":{"name":"Słupno","mode":"bus","text":"R38","n":1,"color":"#0059a9","badge":"bus","tip":0},"geometry":{"type":"Point","coordinates":[21.069644,52.296777]}},{"type":"Feature","properties":{"name":"Radzymin Cmentarz 1920 r.","mode":"bus","text":"R38","n":1,"color":"#0059a9","badge":"bus","tip":0},"geometry":{"type":"Point","coordinates":[21.072726,52.300554]}},{"type":"Feature","properties":{"name":"Radzymin Norwida","mode":"bus","text":"N61 R2 R3 R31","n":4,"color":"#0059a9","badge":"bus","tip":0},"geometry":{"type":"Point","coordinates":[21.081973,52.30622]}},{"type":"Feature","properties":{"name":"Zaułek - Szkoła","mode":"bus","text":"256","n":1,"color":"#0059a9","badge":"bus","tip":0},"geometry":{"type":"Point","coordinates":[21.038819,52.287334]}},{"type":"Feature","properties":{"name":"Ząbki Maczka","mode":"bus","text":"245","n":1,"color":"#0059a9","badge":"bus","tip":0},"geometry":{"type":"Point","coordinates":[21.075808,52.255228]}},{"type":"Feature","properties":{"name":"Kanał Bródnowski","mode":"bus","text":"512","n":1,"color":"#0059a9","badge":"bus","tip":1},"geometry":{"type":"Point","coordinates":[21.038819,52.268448]}},{"type":"Feature","properties":{"name":"PKP Zacisze-Wilno","mode":"bus","text":"170 356 N16","n":3,"color":"#0059a9","badge":"bus","tip":1},"geometry":{"type":"Point","coordinates":[21.057314,52.260894]}},{"type":"Feature","properties":{"name":"Dom Samotnej Matki","mode":"bus","text":"900","n":1,"color":"#0059a9","badge":"bus","tip":1},"geometry":{"type":"Point","coordinates":[20.964841,52.300554]}},{"type":"Feature","properties":{"name":"Tarchomin Kościelny","mode":"tram","text":"2 17","n":2,"color":"#d6212b","badge":"tram","tip":1},"geometry":{"type":"Point","coordinates":[20.952511,52.285445]}},{"type":"Feature","properties":{"name":"Nieporęt Pl. Wolności","mode":"bus","text":"L31","n":1,"color":"#0059a9","badge":"bus","tip":1},"geometry":{"type":"Point","coordinates":[21.004913,52.311885]}},{"type":"Feature","properties":{"name":"Podwójna","mode":"bus","text":"332","n":1,"color":"#0059a9","badge":"bus","tip":0},"geometry":{"type":"Point","coordinates":[21.038819,52.27978]}},{"type":"Feature","properties":{"name":"Augustów","mode":"bus","text":"234","n":1,"color":"#0059a9","badge":"bus","tip":1},"geometry":{"type":"Point","coordinates":[21.038819,52.291111]}},{"type":"Feature","properties":{"name":"Kobyłka Borysów","mode":"bus","text":"L26","n":1,"color":"#0059a9","badge":"bus","tip":0},"geometry":{"type":"Point","coordinates":[21.094303,52.274114]}},{"type":"Feature","properties":{"name":"PKP Radzymin","mode":"bus","text":"R38 R7","n":2,"color":"#0059a9","badge":"bus","tip":0},"geometry":{"type":"Point","coordinates":[21.066561,52.309997]}},{"type":"Feature","properties":{"name":"R-5 Zajezdnia Annopol","mode":"tram","text":"4 25","n":2,"color":"#d6212b","badge":"tram","tip":0},"geometry":{"type":"Point","coordinates":[21.01416,52.277891]}},{"type":"Feature","properties":{"name":"P+R Radzymin","mode":"bus","text":"738 R4 R5 R9","n":4,"color":"#0059a9","badge":"bus","tip":0},"geometry":{"type":"Point","coordinates":[21.085056,52.300554]}},{"type":"Feature","properties":{"name":"Os. Zielona Dolina","mode":"bus","text":"226","n":1,"color":"#0059a9","badge":"bus","tip":0},"geometry":{"type":"Point","coordinates":[21.02649,52.293]}},{"type":"Feature","properties":{"name":"Nowe Załubice Opolska","mode":"bus","text":"705 R4","n":2,"color":"#0059a9","badge":"bus","tip":0},"geometry":{"type":"Point","coordinates":[21.048067,52.328882]}},{"type":"Feature","properties":{"name":"Wołomin Szpital Powiatowy","mode":"bus","text":"L35 L36 L37 L38","n":4,"color":"#0059a9","badge":"bus","tip":0},"geometry":{"type":"Point","coordinates":[21.097385,52.281668]}},{"type":"Feature","properties":{"name":"Kobyłka Kordeckiego","mode":"bus","text":"L26","n":1,"color":"#0059a9","badge":"bus","tip":0},"geometry":{"type":"Point","coordinates":[21.088138,52.283557]}},{"type":"Feature","properties":{"name":"Kobyłka Kościół","mode":"bus","text":"L37","n":1,"color":"#0059a9","badge":"bus","tip":0},"geometry":{"type":"Point","coordinates":[21.091221,52.281668]}},{"type":"Feature","properties":{"name":"Sieraków k. Radzymina Sobieskiego","mode":"bus","text":"R7","n":1,"color":"#0059a9","badge":"bus","tip":0},"geometry":{"type":"Point","coordinates":[21.044984,52.30622]}},{"type":"Feature","properties":{"name":"PKP Wołomin","mode":"bus","text":"L40 L44 N62 R8","n":4,"color":"#0059a9","badge":"bus","tip":0},"geometry":{"type":"Point","coordinates":[21.106633,52.277891]}},{"type":"Feature","properties":{"name":"Majdan","mode":"bus","text":"L38","n":1,"color":"#0059a9","badge":"bus","tip":0},"geometry":{"type":"Point","coordinates":[21.12821,52.26656]}},{"type":"Feature","properties":{"name":"Lipinki","mode":"bus","text":"L36","n":1,"color":"#0059a9","badge":"bus","tip":1},"geometry":{"type":"Point","coordinates":[21.122045,52.287334]}},{"type":"Feature","properties":{"name":"Stare Grabie","mode":"bus","text":"L35","n":1,"color":"#0059a9","badge":"bus","tip":1},"geometry":{"type":"Point","coordinates":[21.134374,52.27978]}},{"type":"Feature","properties":{"name":"PKP Legionowo","mode":"bus","text":"L-8 L-9 L10 L11 L34 L41","n":6,"color":"#0059a9","badge":"bus","tip":0},"geometry":{"type":"Point","coordinates":[20.961759,52.311885]}},{"type":"Feature","properties":{"name":"PKP Legionowo","mode":"skm","text":"S3","n":1,"color":"#FFAC01","badge":"cFFAC01","tip":0},"geometry":{"type":"Point","coordinates":[20.961759,52.311885]}},{"type":"Feature","properties":{"name":"Wieliszew - Plaża","mode":"bus","text":"L-9 L10","n":2,"color":"#0059a9","badge":"bus","tip":1},"geometry":{"type":"Point","coordinates":[20.964841,52.330771]}},{"type":"Feature","properties":{"name":"Komornica - Szkoła","mode":"bus","text":"L-9 L10 W1","n":3,"color":"#0059a9","badge":"bus","tip":0},"geometry":{"type":"Point","coordinates":[20.955594,52.330771]}},{"type":"Feature","properties":{"name":"Olszewnica Nowa Wiejska","mode":"bus","text":"L34","n":1,"color":"#0059a9","badge":"bus","tip":0},"geometry":{"type":"Point","coordinates":[20.921687,52.317551]}},{"type":"Feature","properties":{"name":"PKP Wieliszew Centrum","mode":"bus","text":"W2 W3","n":2,"color":"#0059a9","badge":"bus","tip":0},"geometry":{"type":"Point","coordinates":[20.989501,52.321328]}},{"type":"Feature","properties":{"name":"Olszewnica Stara","mode":"bus","text":"L34","n":1,"color":"#0059a9","badge":"bus","tip":0},"geometry":{"type":"Point","coordinates":[20.927852,52.317551]}},{"type":"Feature","properties":{"name":"Zielonka 11 Listopada","mode":"bus","text":"L27 L46","n":2,"color":"#0059a9","badge":"bus","tip":0},"geometry":{"type":"Point","coordinates":[21.088138,52.264671]}},{"type":"Feature","properties":{"name":"Łąki Biedronki","mode":"bus","text":"R31","n":1,"color":"#0059a9","badge":"bus","tip":0},"geometry":{"type":"Point","coordinates":[21.044984,52.317551]}},{"type":"Feature","properties":{"name":"PKP Dąbkowizna","mode":"bus","text":"L-8 L45","n":2,"color":"#0059a9","badge":"bus","tip":1},"geometry":{"type":"Point","coordinates":[21.029572,52.313774]}},{"type":"Feature","properties":{"name":"Nowy Dwór Mazowiecki Urząd Miasta","mode":"bus","text":"L-7 L11 L41","n":3,"color":"#0059a9","badge":"bus","tip":1},"geometry":{"type":"Point","coordinates":[20.860039,52.30622]}},{"type":"Feature","properties":{"name":"Wieliszew","mode":"skm","text":"S40","n":1,"color":"#70AD46","badge":"c70AD46","tip":0},"geometry":{"type":"Point","coordinates":[20.980253,52.315662]}},{"type":"Feature","properties":{"name":"Zegrze Południowe","mode":"skm","text":"S4","n":1,"color":"#2F7B20","badge":"c2F7B20","tip":1},"geometry":{"type":"Point","coordinates":[20.995665,52.325105]}},{"type":"Feature","properties":{"name":"Kępa Tarchomińska","mode":"bus","text":"211","n":1,"color":"#0059a9","badge":"bus","tip":1},"geometry":{"type":"Point","coordinates":[20.943264,52.291111]}},{"type":"Feature","properties":{"name":"Winnica","mode":"bus","text":"509 900 L-7 L49 N03","n":5,"color":"#0059a9","badge":"bus","tip":0},"geometry":{"type":"Point","coordinates":[20.961759,52.293]}},{"type":"Feature","properties":{"name":"Winnica","mode":"tram","text":"2 17","n":2,"color":"#d6212b","badge":"tram","tip":0},"geometry":{"type":"Point","coordinates":[20.961759,52.293]}},{"type":"Feature","properties":{"name":"Nadma Nowa","mode":"bus","text":"L27","n":1,"color":"#0059a9","badge":"bus","tip":0},"geometry":{"type":"Point","coordinates":[21.075808,52.287334]}},{"type":"Feature","properties":{"name":"Radzymin Głowackiego","mode":"bus","text":"L31 R8","n":2,"color":"#0059a9","badge":"bus","tip":0},"geometry":{"type":"Point","coordinates":[21.078891,52.309997]}},{"type":"Feature","properties":{"name":"Wiatraczna","mode":"bus","text":"142 145 148 183 521 702 704 720 722 730 N03","n":11,"color":"#0059a9","badge":"bus","tip":0},"geometry":{"type":"Point","coordinates":[21.069644,52.24012]}},{"type":"Feature","properties":{"name":"Wiatraczna","mode":"tram","text":"9 22 26","n":3,"color":"#d6212b","badge":"tram","tip":0},"geometry":{"type":"Point","coordinates":[21.069644,52.24012]}},{"type":"Feature","properties":{"name":"Gocławek","mode":"tram","text":"3 6 9 24","n":4,"color":"#d6212b","badge":"tram","tip":0},"geometry":{"type":"Point","coordinates":[21.085056,52.230677]}},{"type":"Feature","properties":{"name":"Płowiecka","mode":"bus","text":"520 720 N21","n":3,"color":"#0059a9","badge":"bus","tip":0},"geometry":{"type":"Point","coordinates":[21.088138,52.228788]}},{"type":"Feature","properties":{"name":"Międzylesie","mode":"bus","text":"125 319 525 N25","n":4,"color":"#0059a9","badge":"bus","tip":1},"geometry":{"type":"Point","coordinates":[21.118962,52.208014]}},{"type":"Feature","properties":{"name":"Wiśniowa Góra","mode":"bus","text":"119","n":1,"color":"#0059a9","badge":"bus","tip":0},"geometry":{"type":"Point","coordinates":[21.11588,52.211791]}},{"type":"Feature","properties":{"name":"PKP Międzylesie","mode":"bus","text":"305","n":1,"color":"#0059a9","badge":"bus","tip":0},"geometry":{"type":"Point","coordinates":[21.10355,52.206125]}},{"type":"Feature","properties":{"name":"PKP Falenica","mode":"bus","text":"229","n":1,"color":"#0059a9","badge":"bus","tip":0},"geometry":{"type":"Point","coordinates":[21.112797,52.181574]}},{"type":"Feature","properties":{"name":"Falenica","mode":"bus","text":"146 521 N22 N72","n":4,"color":"#0059a9","badge":"bus","tip":0},"geometry":{"type":"Point","coordinates":[21.109715,52.181574]}},{"type":"Feature","properties":{"name":"Błota","mode":"bus","text":"213","n":1,"color":"#0059a9","badge":"bus","tip":0},"geometry":{"type":"Point","coordinates":[21.10355,52.172131]}},{"type":"Feature","properties":{"name":"PKP Gocławek","mode":"bus","text":"188 202","n":2,"color":"#0059a9","badge":"bus","tip":0},"geometry":{"type":"Point","coordinates":[21.088138,52.232565]}},{"type":"Feature","properties":{"name":"Marysin","mode":"bus","text":"402 520 N02","n":3,"color":"#0059a9","badge":"bus","tip":0},"geometry":{"type":"Point","coordinates":[21.106633,52.230677]}},{"type":"Feature","properties":{"name":"Rembertów - Kolonia","mode":"bus","text":"143 153 N24","n":3,"color":"#0059a9","badge":"bus","tip":0},"geometry":{"type":"Point","coordinates":[21.112797,52.24012]}},{"type":"Feature","properties":{"name":"R-3 Zajezdnia Ostrobramska","mode":"bus","text":"720 722 N21 N24","n":4,"color":"#0059a9","badge":"bus","tip":0},"geometry":{"type":"Point","coordinates":[21.085056,52.228788]}},{"type":"Feature","properties":{"name":"Witolin","mode":"bus","text":"141 158 168 182","n":4,"color":"#0059a9","badge":"bus","tip":0},"geometry":{"type":"Point","coordinates":[21.078891,52.232565]}},{"type":"Feature","properties":{"name":"PKP Olszynka Grochowska","mode":"bus","text":"102 135 523","n":3,"color":"#0059a9","badge":"bus","tip":1},"geometry":{"type":"Point","coordinates":[21.078891,52.242008]}},{"type":"Feature","properties":{"name":"Dw. Wschodni (Lubelska)","mode":"bus","text":"123 146 147 173","n":4,"color":"#0059a9","badge":"bus","tip":0},"geometry":{"type":"Point","coordinates":[21.051149,52.247674]}},{"type":"Feature","properties":{"name":"Gocław","mode":"bus","text":"111 117 213 219 225 311 411 507 509 E-1","n":10,"color":"#0059a9","badge":"bus","tip":0},"geometry":{"type":"Point","coordinates":[21.081973,52.221234]}},{"type":"Feature","properties":{"name":"Olecka","mode":"bus","text":"161","n":1,"color":"#0059a9","badge":"bus","tip":0},"geometry":{"type":"Point","coordinates":[21.112797,52.174019]}},{"type":"Feature","properties":{"name":"Ośrodek Szkoleniowy","mode":"bus","text":"219","n":1,"color":"#0059a9","badge":"bus","tip":0},"geometry":{"type":"Point","coordinates":[21.091221,52.194794]}},{"type":"Feature","properties":{"name":"Skalnicowa","mode":"bus","text":"142","n":1,"color":"#0059a9","badge":"bus","tip":0},"geometry":{"type":"Point","coordinates":[21.085056,52.191017]}},{"type":"Feature","properties":{"name":"PKP Mokry Ług","mode":"bus","text":"115 153 225","n":3,"color":"#0059a9","badge":"bus","tip":0},"geometry":{"type":"Point","coordinates":[21.097385,52.25334]}},{"type":"Feature","properties":{"name":"Aleksandrów","mode":"bus","text":"115 142 N22","n":3,"color":"#0059a9","badge":"bus","tip":1},"geometry":{"type":"Point","coordinates":[21.12821,52.189128]}},{"type":"Feature","properties":{"name":"Strusia","mode":"bus","text":"305","n":1,"color":"#0059a9","badge":"bus","tip":0},"geometry":{"type":"Point","coordinates":[21.094303,52.221234]}},{"type":"Feature","properties":{"name":"Stara Miłosna (Ułańska)","mode":"bus","text":"147 198 N21","n":3,"color":"#0059a9","badge":"bus","tip":0},"geometry":{"type":"Point","coordinates":[21.12821,52.215568]}},{"type":"Feature","properties":{"name":"Wola Grzybowska","mode":"bus","text":"514 N71","n":2,"color":"#0059a9","badge":"bus","tip":0},"geometry":{"type":"Point","coordinates":[21.125127,52.232565]}},{"type":"Feature","properties":{"name":"PKP Halinów","mode":"bus","text":"704","n":1,"color":"#0059a9","badge":"bus","tip":1},"geometry":{"type":"Point","coordinates":[21.155951,52.215568]}},{"type":"Feature","properties":{"name":"PKP Wesoła","mode":"bus","text":"198","n":1,"color":"#0059a9","badge":"bus","tip":0},"geometry":{"type":"Point","coordinates":[21.118962,52.238231]}},{"type":"Feature","properties":{"name":"Otwock Świder","mode":"bus","text":"M1","n":1,"color":"#0059a9","badge":"bus","tip":0},"geometry":{"type":"Point","coordinates":[21.11588,52.166465]}},{"type":"Feature","properties":{"name":"Otwock Orla","mode":"bus","text":"702 M2 M3 N72 W1","n":5,"color":"#0059a9","badge":"bus","tip":0},"geometry":{"type":"Point","coordinates":[21.122045,52.158911]}},{"type":"Feature","properties":{"name":"Nowy Rembertów","mode":"bus","text":"183","n":1,"color":"#0059a9","badge":"bus","tip":0},"geometry":{"type":"Point","coordinates":[21.10355,52.234454]}},{"type":"Feature","properties":{"name":"Rzakta","mode":"bus","text":"720","n":1,"color":"#0059a9","badge":"bus","tip":1},"geometry":{"type":"Point","coordinates":[21.177528,52.179685]}},{"type":"Feature","properties":{"name":"Pastuszków","mode":"bus","text":"153","n":1,"color":"#0059a9","badge":"bus","tip":1},"geometry":{"type":"Point","coordinates":[21.097385,52.257117]}},{"type":"Feature","properties":{"name":"Brzeziny","mode":"bus","text":"730","n":1,"color":"#0059a9","badge":"bus","tip":1},"geometry":{"type":"Point","coordinates":[21.159034,52.206125]}},{"type":"Feature","properties":{"name":"Stara Miłosna (Graniczna)","mode":"bus","text":"173 411 502","n":3,"color":"#0059a9","badge":"bus","tip":0},"geometry":{"type":"Point","coordinates":[21.118962,52.21368]}},{"type":"Feature","properties":{"name":"Rembertów - Strzelnica","mode":"bus","text":"199","n":1,"color":"#0059a9","badge":"bus","tip":1},"geometry":{"type":"Point","coordinates":[21.106633,52.247674]}},{"type":"Feature","properties":{"name":"Kamionek","mode":"bus","text":"311","n":1,"color":"#0059a9","badge":"bus","tip":0},"geometry":{"type":"Point","coordinates":[21.060396,52.249562]}},{"type":"Feature","properties":{"name":"Rechniewskiego","mode":"bus","text":"151","n":1,"color":"#0059a9","badge":"bus","tip":1},"geometry":{"type":"Point","coordinates":[21.081973,52.225011]}},{"type":"Feature","properties":{"name":"PKP Radość (Izbicka)","mode":"bus","text":"161","n":1,"color":"#0059a9","badge":"bus","tip":1},"geometry":{"type":"Point","coordinates":[21.11588,52.196682]}},{"type":"Feature","properties":{"name":"Karczew Stare Miasto","mode":"bus","text":"N72","n":1,"color":"#0059a9","badge":"bus","tip":1},"geometry":{"type":"Point","coordinates":[21.109715,52.143802]}},{"type":"Feature","properties":{"name":"Os. Radiówek","mode":"bus","text":"722","n":1,"color":"#0059a9","badge":"bus","tip":0},"geometry":{"type":"Point","coordinates":[21.140539,52.183462]}},{"type":"Feature","properties":{"name":"Gawędziarzy","mode":"bus","text":"153","n":1,"color":"#0059a9","badge":"bus","tip":0},"geometry":{"type":"Point","coordinates":[21.10355,52.24012]}},{"type":"Feature","properties":{"name":"Warszawa Wawer","mode":"skm","text":"S1","n":1,"color":"#E84A4B","badge":"cE84A4B","tip":1},"geometry":{"type":"Point","coordinates":[21.100468,52.219345]}},{"type":"Feature","properties":{"name":"Sulejówek Miłosna","mode":"bus","text":"A1 A2 W3","n":3,"color":"#0059a9","badge":"bus","tip":0},"geometry":{"type":"Point","coordinates":[21.140539,52.2269]}},{"type":"Feature","properties":{"name":"Sulejówek Miłosna","mode":"skm","text":"S2","n":1,"color":"#2E8EC8","badge":"c2E8EC8","tip":0},"geometry":{"type":"Point","coordinates":[21.140539,52.2269]}},{"type":"Feature","properties":{"name":"Otwock","mode":"skm","text":"S1","n":1,"color":"#E84A4B","badge":"cE84A4B","tip":1},"geometry":{"type":"Point","coordinates":[21.122045,52.160799]}},{"type":"Feature","properties":{"name":"Metro Wilanowska","mode":"bus","text":"107 130 163 164 165 217 218 251 300 331 401 519 709 727 739 N50","n":16,"color":"#0059a9","badge":"bus","tip":0},"geometry":{"type":"Point","coordinates":[21.02649,52.177797]}},{"type":"Feature","properties":{"name":"Metro Wilanowska","mode":"tram","text":"4 10","n":2,"color":"#d6212b","badge":"tram","tip":0},"geometry":{"type":"Point","coordinates":[21.02649,52.177797]}},{"type":"Feature","properties":{"name":"Poleczki","mode":"bus","text":"N86","n":1,"color":"#0059a9","badge":"bus","tip":0},"geometry":{"type":"Point","coordinates":[21.011078,52.158911]}},{"type":"Feature","properties":{"name":"Dąbrówka","mode":"bus","text":"L39","n":1,"color":"#0059a9","badge":"bus","tip":0},"geometry":{"type":"Point","coordinates":[21.004913,52.140025]}},{"type":"Feature","properties":{"name":"PKP Jeziorki","mode":"bus","text":"809 L33","n":2,"color":"#0059a9","badge":"bus","tip":0},"geometry":{"type":"Point","coordinates":[20.989501,52.140025]}},{"type":"Feature","properties":{"name":"Wilanów","mode":"bus","text":"116 131 164 180 263 317 E-2 N31","n":8,"color":"#0059a9","badge":"bus","tip":0},"geometry":{"type":"Point","coordinates":[21.063479,52.175908]}},{"type":"Feature","properties":{"name":"Andrutowa","mode":"bus","text":"N50","n":1,"color":"#0059a9","badge":"bus","tip":0},"geometry":{"type":"Point","coordinates":[21.057314,52.153245]}},{"type":"Feature","properties":{"name":"Powsin - Park Kultury","mode":"bus","text":"519","n":1,"color":"#0059a9","badge":"bus","tip":1},"geometry":{"type":"Point","coordinates":[21.051149,52.149468]}},{"type":"Feature","properties":{"name":"Sielce","mode":"tram","text":"11","n":1,"color":"#d6212b","badge":"tram","tip":0},"geometry":{"type":"Point","coordinates":[21.054231,52.206125]}},{"type":"Feature","properties":{"name":"Chełmska","mode":"bus","text":"162","n":1,"color":"#0059a9","badge":"bus","tip":0},"geometry":{"type":"Point","coordinates":[21.054231,52.20046]}},{"type":"Feature","properties":{"name":"Sadyba","mode":"bus","text":"131 172 189 N31","n":4,"color":"#0059a9","badge":"bus","tip":0},"geometry":{"type":"Point","coordinates":[21.063479,52.185351]}},{"type":"Feature","properties":{"name":"EC Siekierki","mode":"bus","text":"130 162","n":2,"color":"#0059a9","badge":"bus","tip":0},"geometry":{"type":"Point","coordinates":[21.075808,52.194794]}},{"type":"Feature","properties":{"name":"Stegny","mode":"bus","text":"108 187","n":2,"color":"#0059a9","badge":"bus","tip":0},"geometry":{"type":"Point","coordinates":[21.044984,52.177797]}},{"type":"Feature","properties":{"name":"Stegny","mode":"tram","text":"19","n":1,"color":"#d6212b","badge":"tram","tip":0},"geometry":{"type":"Point","coordinates":[21.044984,52.177797]}},{"type":"Feature","properties":{"name":"Wyczółki","mode":"bus","text":"165 331 N86","n":3,"color":"#0059a9","badge":"bus","tip":0},"geometry":{"type":"Point","coordinates":[21.00183,52.160799]}},{"type":"Feature","properties":{"name":"Wielicka","mode":"bus","text":"218 228 308","n":3,"color":"#0059a9","badge":"bus","tip":0},"geometry":{"type":"Point","coordinates":[21.029572,52.183462]}},{"type":"Feature","properties":{"name":"Metro Wierzbno","mode":"tram","text":"31","n":1,"color":"#d6212b","badge":"tram","tip":0},"geometry":{"type":"Point","coordinates":[21.02649,52.183462]}},{"type":"Feature","properties":{"name":"Kielecka","mode":"tram","text":"33","n":1,"color":"#d6212b","badge":"tram","tip":0},"geometry":{"type":"Point","coordinates":[21.017242,52.204237]}},{"type":"Feature","properties":{"name":"Ursynów Płn.","mode":"bus","text":"179 193 715 737 N01 N03","n":6,"color":"#0059a9","badge":"bus","tip":0},"geometry":{"type":"Point","coordinates":[21.035737,52.168354]}},{"type":"Feature","properties":{"name":"Centrum Onkologii","mode":"bus","text":"163","n":1,"color":"#0059a9","badge":"bus","tip":0},"geometry":{"type":"Point","coordinates":[21.023407,52.158911]}},{"type":"Feature","properties":{"name":"Ursynów Płd.","mode":"bus","text":"192 209 229 809 815","n":5,"color":"#0059a9","badge":"bus","tip":0},"geometry":{"type":"Point","coordinates":[21.029572,52.162688]}},{"type":"Feature","properties":{"name":"Natolin Płn.","mode":"bus","text":"136 217 503","n":3,"color":"#0059a9","badge":"bus","tip":0},"geometry":{"type":"Point","coordinates":[21.038819,52.158911]}},{"type":"Feature","properties":{"name":"Kępa Zawadowska","mode":"bus","text":"164","n":1,"color":"#0059a9","badge":"bus","tip":0},"geometry":{"type":"Point","coordinates":[21.078891,52.172131]}},{"type":"Feature","properties":{"name":"Mysiadło","mode":"bus","text":"L-4","n":1,"color":"#0059a9","badge":"bus","tip":0},"geometry":{"type":"Point","coordinates":[21.004913,52.138137]}},{"type":"Feature","properties":{"name":"Piaseczno Szkolna","mode":"bus","text":"709","n":1,"color":"#0059a9","badge":"bus","tip":0},"geometry":{"type":"Point","coordinates":[21.011078,52.130582]}},{"type":"Feature","properties":{"name":"PKP Piaseczno","mode":"bus","text":"709 L-1 L-3 N83","n":4,"color":"#0059a9","badge":"bus","tip":0},"geometry":{"type":"Point","coordinates":[21.00183,52.124917]}},{"type":"Feature","properties":{"name":"PKP Piaseczno","mode":"skm","text":"S4 S40","n":2,"color":"#5a6672","badge":"c5a6672","tip":0},"geometry":{"type":"Point","coordinates":[21.00183,52.124917]}},{"type":"Feature","properties":{"name":"Konstancin-Jeziorna Pańska","mode":"bus","text":"251 L23 L53","n":3,"color":"#0059a9","badge":"bus","tip":0},"geometry":{"type":"Point","coordinates":[21.038819,52.132471]}},{"type":"Feature","properties":{"name":"Konstancin-Jeziorna Skolimów","mode":"bus","text":"L24 N50","n":2,"color":"#0059a9","badge":"bus","tip":0},"geometry":{"type":"Point","coordinates":[21.048067,52.134359]}},{"type":"Feature","properties":{"name":"Konstancin-Jeziorna Os. Grapa","mode":"bus","text":"251","n":1,"color":"#0059a9","badge":"bus","tip":0},"geometry":{"type":"Point","coordinates":[21.060396,52.140025]}},{"type":"Feature","properties":{"name":"Konstancin-Jeziorna Mirkowska","mode":"bus","text":"L21 L55","n":2,"color":"#0059a9","badge":"bus","tip":0},"geometry":{"type":"Point","coordinates":[21.066561,52.145691]}},{"type":"Feature","properties":{"name":"PKP Służewiec","mode":"tram","text":"17 18 31 67","n":4,"color":"#d6212b","badge":"tram","tip":0},"geometry":{"type":"Point","coordinates":[20.989501,52.172131]}},{"type":"Feature","properties":{"name":"Spartańska","mode":"bus","text":"118","n":1,"color":"#0059a9","badge":"bus","tip":1},"geometry":{"type":"Point","coordinates":[21.00183,52.187239]}},{"type":"Feature","properties":{"name":"Instytut Reumatologii","mode":"bus","text":"118 168","n":2,"color":"#0059a9","badge":"bus","tip":0},"geometry":{"type":"Point","coordinates":[21.00183,52.183462]}},{"type":"Feature","properties":{"name":"Zajezdnia Woronicza","mode":"bus","text":"N33","n":1,"color":"#0059a9","badge":"bus","tip":0},"geometry":{"type":"Point","coordinates":[21.00183,52.179685]}},{"type":"Feature","properties":{"name":"Bokserska","mode":"bus","text":"138 174 193 N36","n":4,"color":"#0059a9","badge":"bus","tip":0},"geometry":{"type":"Point","coordinates":[20.995665,52.164577]}},{"type":"Feature","properties":{"name":"Metro Służew","mode":"bus","text":"401","n":1,"color":"#0059a9","badge":"bus","tip":0},"geometry":{"type":"Point","coordinates":[21.02649,52.172131]}},{"type":"Feature","properties":{"name":"Metro Imielin","mode":"bus","text":"319 W1","n":2,"color":"#0059a9","badge":"bus","tip":0},"geometry":{"type":"Point","coordinates":[21.035737,52.160799]}},{"type":"Feature","properties":{"name":"Metro Kabaty","mode":"bus","text":"710 742","n":2,"color":"#0059a9","badge":"bus","tip":0},"geometry":{"type":"Point","coordinates":[21.041902,52.151357]}},{"type":"Feature","properties":{"name":"Metro Kabaty","mode":"metro","text":"M1","n":1,"color":"#0000BB","badge":"c0000BB","tip":0},"geometry":{"type":"Point","coordinates":[21.041902,52.151357]}},{"type":"Feature","properties":{"name":"Rakowiecka - Sanktuarium","mode":"bus","text":"119 174","n":2,"color":"#0059a9","badge":"bus","tip":0},"geometry":{"type":"Point","coordinates":[21.011078,52.202348]}},{"type":"Feature","properties":{"name":"CH Ursynów","mode":"bus","text":"185","n":1,"color":"#0059a9","badge":"bus","tip":0},"geometry":{"type":"Point","coordinates":[21.017242,52.153245]}},{"type":"Feature","properties":{"name":"Ogród Botaniczny","mode":"bus","text":"139","n":1,"color":"#0059a9","badge":"bus","tip":1},"geometry":{"type":"Point","coordinates":[21.048067,52.145691]}},{"type":"Feature","properties":{"name":"Siekierki - Sanktuarium","mode":"bus","text":"167","n":1,"color":"#0059a9","badge":"bus","tip":0},"geometry":{"type":"Point","coordinates":[21.072726,52.209902]}},{"type":"Feature","properties":{"name":"Kępa Okrzewska - Cmentarz","mode":"bus","text":"239 L16","n":2,"color":"#0059a9","badge":"bus","tip":1},"geometry":{"type":"Point","coordinates":[21.088138,52.162688]}},{"type":"Feature","properties":{"name":"Małe Siekierki","mode":"bus","text":"159","n":1,"color":"#0059a9","badge":"bus","tip":0},"geometry":{"type":"Point","coordinates":[21.066561,52.206125]}},{"type":"Feature","properties":{"name":"Antoninów Cm. Południowy - Brama Płd.","mode":"bus","text":"727 737 L-4 L-5","n":4,"color":"#0059a9","badge":"bus","tip":0},"geometry":{"type":"Point","coordinates":[20.930935,52.124917]}},{"type":"Feature","properties":{"name":"Pileckiego","mode":"bus","text":"319","n":1,"color":"#0059a9","badge":"bus","tip":0},"geometry":{"type":"Point","coordinates":[21.02649,52.153245]}},{"type":"Feature","properties":{"name":"Kabaty - STP","mode":"bus","text":"166","n":1,"color":"#0059a9","badge":"bus","tip":1},"geometry":{"type":"Point","coordinates":[21.038819,52.147579]}},{"type":"Feature","properties":{"name":"Bacha","mode":"bus","text":"401","n":1,"color":"#0059a9","badge":"bus","tip":0},"geometry":{"type":"Point","coordinates":[21.02649,52.170242]}},{"type":"Feature","properties":{"name":"Piaseczno Gerbera","mode":"bus","text":"L55","n":1,"color":"#0059a9","badge":"bus","tip":0},"geometry":{"type":"Point","coordinates":[21.007995,52.123028]}},{"type":"Feature","properties":{"name":"Tor Służewiec","mode":"bus","text":"300","n":1,"color":"#0059a9","badge":"bus","tip":1},"geometry":{"type":"Point","coordinates":[21.007995,52.162688]}},{"type":"Feature","properties":{"name":"Osmańska - DHL","mode":"bus","text":"N86","n":1,"color":"#0059a9","badge":"bus","tip":0},"geometry":{"type":"Point","coordinates":[20.995665,52.153245]}},{"type":"Feature","properties":{"name":"Józefosław Wilanowska","mode":"bus","text":"739 L33","n":2,"color":"#0059a9","badge":"bus","tip":0},"geometry":{"type":"Point","coordinates":[21.020325,52.136248]}},{"type":"Feature","properties":{"name":"Słomczyn - Szkoła","mode":"bus","text":"L28","n":1,"color":"#0059a9","badge":"bus","tip":0},"geometry":{"type":"Point","coordinates":[21.069644,52.132471]}},{"type":"Feature","properties":{"name":"Góra Kalwaria Rynek","mode":"bus","text":"742 L15 L21 L25 L54","n":5,"color":"#0059a9","badge":"bus","tip":0},"geometry":{"type":"Point","coordinates":[21.081973,52.109808]}},{"type":"Feature","properties":{"name":"Miasteczko Wilanów","mode":"tram","text":"14 16 67","n":3,"color":"#d6212b","badge":"tram","tip":0},"geometry":{"type":"Point","coordinates":[21.057314,52.168354]}},{"type":"Feature","properties":{"name":"Sągi","mode":"bus","text":"164","n":1,"color":"#0059a9","badge":"bus","tip":0},"geometry":{"type":"Point","coordinates":[21.085056,52.164577]}},{"type":"Feature","properties":{"name":"Sarmacka","mode":"bus","text":"N81","n":1,"color":"#0059a9","badge":"bus","tip":0},"geometry":{"type":"Point","coordinates":[21.060396,52.168354]}},{"type":"Feature","properties":{"name":"Prętowa","mode":"bus","text":"164","n":1,"color":"#0059a9","badge":"bus","tip":0},"geometry":{"type":"Point","coordinates":[21.085056,52.168354]}},{"type":"Feature","properties":{"name":"Os. Kabaty","mode":"bus","text":"139 166 179 192 239 504 N34 N37 N86","n":9,"color":"#0059a9","badge":"bus","tip":0},"geometry":{"type":"Point","coordinates":[21.041902,52.149468]}},{"type":"Feature","properties":{"name":"Dawidy","mode":"bus","text":"209","n":1,"color":"#0059a9","badge":"bus","tip":0},"geometry":{"type":"Point","coordinates":[20.980253,52.149468]}},{"type":"Feature","properties":{"name":"Os. Nowy Mokotów","mode":"bus","text":"308","n":1,"color":"#0059a9","badge":"bus","tip":0},"geometry":{"type":"Point","coordinates":[20.992583,52.174019]}},{"type":"Feature","properties":{"name":"Krasnowola","mode":"bus","text":"192","n":1,"color":"#0059a9","badge":"bus","tip":1},"geometry":{"type":"Point","coordinates":[21.00183,52.151357]}},{"type":"Feature","properties":{"name":"Chylice Długa","mode":"bus","text":"L24","n":1,"color":"#0059a9","badge":"bus","tip":0},"geometry":{"type":"Point","coordinates":[21.035737,52.132471]}},{"type":"Feature","properties":{"name":"Piaseczno Targowisko","mode":"bus","text":"707 710","n":2,"color":"#0059a9","badge":"bus","tip":0},"geometry":{"type":"Point","coordinates":[20.989501,52.126805]}},{"type":"Feature","properties":{"name":"Oczyszczalnia „Południe”","mode":"bus","text":"263","n":1,"color":"#0059a9","badge":"bus","tip":1},"geometry":{"type":"Point","coordinates":[21.075808,52.189128]}},{"type":"Feature","properties":{"name":"Piaseczno Zgoda","mode":"bus","text":"L-2 L-5 L12 L13 L17 L18 L19 L23 L24 L25 L32 L52 L53 L54","n":14,"color":"#0059a9","badge":"bus","tip":0},"geometry":{"type":"Point","coordinates":[21.011078,52.128694]}},{"type":"Feature","properties":{"name":"Baniocha - Centrum","mode":"bus","text":"L15","n":1,"color":"#0059a9","badge":"bus","tip":0},"geometry":{"type":"Point","coordinates":[21.057314,52.115474]}},{"type":"Feature","properties":{"name":"Czersk - Zamek","mode":"bus","text":"L54","n":1,"color":"#0059a9","badge":"bus","tip":1},"geometry":{"type":"Point","coordinates":[21.081973,52.106031]}},{"type":"Feature","properties":{"name":"Piaseczno Julianowska - Cmentarz","mode":"bus","text":"739","n":1,"color":"#0059a9","badge":"bus","tip":1},"geometry":{"type":"Point","coordinates":[21.017242,52.132471]}},{"type":"Feature","properties":{"name":"Henryków-Urocze","mode":"bus","text":"728 L12","n":2,"color":"#0059a9","badge":"bus","tip":0},"geometry":{"type":"Point","coordinates":[20.958676,52.106031]}},{"type":"Feature","properties":{"name":"Wólka Kozodawska Cmentarz","mode":"bus","text":"L28","n":1,"color":"#0059a9","badge":"bus","tip":0},"geometry":{"type":"Point","coordinates":[20.995665,52.119251]}},{"type":"Feature","properties":{"name":"Złotokłos Fogga","mode":"bus","text":"L-2","n":1,"color":"#0059a9","badge":"bus","tip":0},"geometry":{"type":"Point","coordinates":[20.937099,52.109808]}},{"type":"Feature","properties":{"name":"PKP Zalesie Górne","mode":"bus","text":"L13","n":1,"color":"#0059a9","badge":"bus","tip":0},"geometry":{"type":"Point","coordinates":[21.011078,52.115474]}},{"type":"Feature","properties":{"name":"Bielawa - Pętla","mode":"bus","text":"L14 L15","n":2,"color":"#0059a9","badge":"bus","tip":1},"geometry":{"type":"Point","coordinates":[21.078891,52.149468]}},{"type":"Feature","properties":{"name":"Gassy - Pętla","mode":"bus","text":"L14","n":1,"color":"#0059a9","badge":"bus","tip":1},"geometry":{"type":"Point","coordinates":[21.094303,52.143802]}},{"type":"Feature","properties":{"name":"Czarnów","mode":"bus","text":"L16","n":1,"color":"#0059a9","badge":"bus","tip":1},"geometry":{"type":"Point","coordinates":[21.048067,52.128694]}},{"type":"Feature","properties":{"name":"Prażmów Urząd Gminy","mode":"bus","text":"L17 L18 L19","n":3,"color":"#0059a9","badge":"bus","tip":0},"geometry":{"type":"Point","coordinates":[20.971006,52.094699]}},{"type":"Feature","properties":{"name":"Grochowa","mode":"bus","text":"L32 L52","n":2,"color":"#0059a9","badge":"bus","tip":0},"geometry":{"type":"Point","coordinates":[20.983336,52.106031]}},{"type":"Feature","properties":{"name":"Piaseczno Szpital","mode":"bus","text":"L39","n":1,"color":"#0059a9","badge":"bus","tip":1},"geometry":{"type":"Point","coordinates":[21.007995,52.121139]}},{"type":"Feature","properties":{"name":"Pl. Narutowicza","mode":"bus","text":"191","n":1,"color":"#0059a9","badge":"bus","tip":0},"geometry":{"type":"Point","coordinates":[20.986418,52.225011]}},{"type":"Feature","properties":{"name":"Pl. Narutowicza","mode":"tram","text":"25 36","n":2,"color":"#d6212b","badge":"tram","tip":0},"geometry":{"type":"Point","coordinates":[20.986418,52.225011]}},{"type":"Feature","properties":{"name":"P+R Al. Krakowska","mode":"bus","text":"62 63 124 141 154 220 317 703 706 707 711 715 721 728 733 83 EXPRESS CHEŁMOŃSKI N38","n":17,"color":"#0059a9","badge":"bus","tip":0},"geometry":{"type":"Point","coordinates":[20.940182,52.172131]}},{"type":"Feature","properties":{"name":"P+R Al. Krakowska","mode":"tram","text":"1 9 15","n":3,"color":"#d6212b","badge":"tram","tip":0},"geometry":{"type":"Point","coordinates":[20.940182,52.172131]}},{"type":"Feature","properties":{"name":"Ogrody Działkowe Paluch","mode":"bus","text":"124","n":1,"color":"#0059a9","badge":"bus","tip":1},"geometry":{"type":"Point","coordinates":[20.964841,52.157022]}},{"type":"Feature","properties":{"name":"CH Blue City","mode":"bus","text":"159 172","n":2,"color":"#0059a9","badge":"bus","tip":0},"geometry":{"type":"Point","coordinates":[20.946347,52.215568]}},{"type":"Feature","properties":{"name":"Pomnik Lotnika","mode":"bus","text":"143","n":1,"color":"#0059a9","badge":"bus","tip":0},"geometry":{"type":"Point","coordinates":[20.995665,52.219345]}},{"type":"Feature","properties":{"name":"Lotnisko Chopina","mode":"bus","text":"148 175 188 331 N32","n":5,"color":"#0059a9","badge":"bus","tip":0},"geometry":{"type":"Point","coordinates":[20.974088,52.166465]}},{"type":"Feature","properties":{"name":"Grzymały-Sokołowskiego","mode":"bus","text":"717 817","n":2,"color":"#0059a9","badge":"bus","tip":0},"geometry":{"type":"Point","coordinates":[20.967924,52.223122]}},{"type":"Feature","properties":{"name":"Dw. Zachodni","mode":"bus","text":"817","n":1,"color":"#0059a9","badge":"bus","tip":0},"geometry":{"type":"Point","coordinates":[20.961759,52.221234]}},{"type":"Feature","properties":{"name":"Rondo Zesłańców Syberyjskich","mode":"bus","text":"154 182","n":2,"color":"#0059a9","badge":"bus","tip":0},"geometry":{"type":"Point","coordinates":[20.955594,52.217457]}},{"type":"Feature","properties":{"name":"Janki Pl. Szwedzki","mode":"bus","text":"61 706 L-1 N88","n":4,"color":"#0059a9","badge":"bus","tip":0},"geometry":{"type":"Point","coordinates":[20.91244,52.155134]}},{"type":"Feature","properties":{"name":"POD Szczaki","mode":"bus","text":"L-2","n":1,"color":"#0059a9","badge":"bus","tip":0},"geometry":{"type":"Point","coordinates":[20.930935,52.113585]}},{"type":"Feature","properties":{"name":"WKD Raków","mode":"bus","text":"402","n":1,"color":"#0059a9","badge":"bus","tip":0},"geometry":{"type":"Point","coordinates":[20.92477,52.189128]}},{"type":"Feature","properties":{"name":"Zajezdnia Kleszczowa","mode":"bus","text":"320 N38 N41","n":3,"color":"#0059a9","badge":"bus","tip":0},"geometry":{"type":"Point","coordinates":[20.915522,52.194794]}},{"type":"Feature","properties":{"name":"Instalatorów","mode":"bus","text":"228 414","n":2,"color":"#0059a9","badge":"bus","tip":0},"geometry":{"type":"Point","coordinates":[20.934017,52.192905]}},{"type":"Feature","properties":{"name":"Banacha","mode":"tram","text":"1 7 14 33","n":4,"color":"#d6212b","badge":"tram","tip":0},"geometry":{"type":"Point","coordinates":[20.980253,52.208014]}},{"type":"Feature","properties":{"name":"Szczęśliwice","mode":"bus","text":"128 157 184 186 208","n":5,"color":"#0059a9","badge":"bus","tip":0},"geometry":{"type":"Point","coordinates":[20.955594,52.206125]}},{"type":"Feature","properties":{"name":"CH Reduta","mode":"bus","text":"158","n":1,"color":"#0059a9","badge":"bus","tip":0},"geometry":{"type":"Point","coordinates":[20.934017,52.211791]}},{"type":"Feature","properties":{"name":"Regulska","mode":"bus","text":"191 207","n":2,"color":"#0059a9","badge":"bus","tip":1},"geometry":{"type":"Point","coordinates":[20.887781,52.185351]}},{"type":"Feature","properties":{"name":"Władysławów","mode":"bus","text":"727","n":1,"color":"#0059a9","badge":"bus","tip":0},"geometry":{"type":"Point","coordinates":[20.946347,52.126805]}},{"type":"Feature","properties":{"name":"PKP Gołąbki","mode":"bus","text":"194","n":1,"color":"#0059a9","badge":"bus","tip":0},"geometry":{"type":"Point","coordinates":[20.881616,52.209902]}},{"type":"Feature","properties":{"name":"Podolszyn","mode":"bus","text":"815","n":1,"color":"#0059a9","badge":"bus","tip":1},"geometry":{"type":"Point","coordinates":[20.952511,52.143802]}},{"type":"Feature","properties":{"name":"WKD Opacz","mode":"bus","text":"61","n":1,"color":"#0059a9","badge":"bus","tip":0},"geometry":{"type":"Point","coordinates":[20.909358,52.179685]}},{"type":"Feature","properties":{"name":"Pruszków Os. Staszica - Pętla","mode":"bus","text":"817 N85","n":2,"color":"#0059a9","badge":"bus","tip":1},"geometry":{"type":"Point","coordinates":[20.860039,52.172131]}},{"type":"Feature","properties":{"name":"Lotnisko Chopina - Przyloty","mode":"bus","text":"331 N32","n":2,"color":"#0059a9","badge":"bus","tip":0},"geometry":{"type":"Point","coordinates":[20.971006,52.166465]}},{"type":"Feature","properties":{"name":"Lotnisko Chopina - Przyloty","mode":"skm","text":"S2 S3","n":2,"color":"#5a6672","badge":"c5a6672","tip":0},"geometry":{"type":"Point","coordinates":[20.971006,52.166465]}},{"type":"Feature","properties":{"name":"Terminal Autokarowy","mode":"bus","text":"331","n":1,"color":"#0059a9","badge":"bus","tip":0},"geometry":{"type":"Point","coordinates":[20.971006,52.162688]}},{"type":"Feature","properties":{"name":"Ursus - Ratusz","mode":"bus","text":"207 228","n":2,"color":"#0059a9","badge":"bus","tip":0},"geometry":{"type":"Point","coordinates":[20.897028,52.202348]}},{"type":"Feature","properties":{"name":"PKP Ursus","mode":"bus","text":"129 401","n":2,"color":"#0059a9","badge":"bus","tip":0},"geometry":{"type":"Point","coordinates":[20.893945,52.196682]}},{"type":"Feature","properties":{"name":"Ursus-Niedźwiadek","mode":"bus","text":"177 187 401 517 N35","n":5,"color":"#0059a9","badge":"bus","tip":0},"geometry":{"type":"Point","coordinates":[20.878533,52.189128]}},{"type":"Feature","properties":{"name":"Nowe Włochy","mode":"bus","text":"127","n":1,"color":"#0059a9","badge":"bus","tip":0},"geometry":{"type":"Point","coordinates":[20.897028,52.209902]}},{"type":"Feature","properties":{"name":"Piastów Ogińskiego","mode":"bus","text":"62 716 717","n":3,"color":"#0059a9","badge":"bus","tip":0},"geometry":{"type":"Point","coordinates":[20.866204,52.198571]}},{"type":"Feature","properties":{"name":"Kosów","mode":"bus","text":"703 721","n":2,"color":"#0059a9","badge":"bus","tip":1},"geometry":{"type":"Point","coordinates":[20.890863,52.130582]}},{"type":"Feature","properties":{"name":"Skorosze","mode":"bus","text":"178","n":1,"color":"#0059a9","badge":"bus","tip":0},"geometry":{"type":"Point","coordinates":[20.90011,52.187239]}},{"type":"Feature","properties":{"name":"P+R Nadarzyn","mode":"bus","text":"29 711","n":2,"color":"#0059a9","badge":"bus","tip":0},"geometry":{"type":"Point","coordinates":[20.881616,52.145691]}},{"type":"Feature","properties":{"name":"Młochów","mode":"bus","text":"733","n":1,"color":"#0059a9","badge":"bus","tip":0},"geometry":{"type":"Point","coordinates":[20.869286,52.132471]}},{"type":"Feature","properties":{"name":"Zamienie Kakaowa","mode":"bus","text":"L33","n":1,"color":"#0059a9","badge":"bus","tip":0},"geometry":{"type":"Point","coordinates":[20.971006,52.140025]}},{"type":"Feature","properties":{"name":"Jastrzębiec","mode":"bus","text":"L-3","n":1,"color":"#0059a9","badge":"bus","tip":1},"geometry":{"type":"Point","coordinates":[20.903193,52.119251]}},{"type":"Feature","properties":{"name":"Pruszków","mode":"bus","text":"48 60 65 66 78","n":5,"color":"#0059a9","badge":"bus","tip":0},"geometry":{"type":"Point","coordinates":[20.863121,52.185351]}},{"type":"Feature","properties":{"name":"Pruszków","mode":"skm","text":"S1","n":1,"color":"#E84A4B","badge":"cE84A4B","tip":0},"geometry":{"type":"Point","coordinates":[20.863121,52.185351]}},{"type":"Feature","properties":{"name":"Zajezdnia Wola","mode":"tram","text":"24","n":1,"color":"#d6212b","badge":"tram","tip":0},"geometry":{"type":"Point","coordinates":[20.974088,52.243897]}},{"type":"Feature","properties":{"name":"Cm. Wolski","mode":"bus","text":"14 194 197 713 716","n":5,"color":"#0059a9","badge":"bus","tip":0},"geometry":{"type":"Point","coordinates":[20.918605,52.228788]}},{"type":"Feature","properties":{"name":"Cm. Wolski","mode":"tram","text":"11 13 27","n":3,"color":"#d6212b","badge":"tram","tip":0},"geometry":{"type":"Point","coordinates":[20.918605,52.228788]}},{"type":"Feature","properties":{"name":"Lazurowa","mode":"bus","text":"N45","n":1,"color":"#0059a9","badge":"bus","tip":0},"geometry":{"type":"Point","coordinates":[20.90011,52.217457]}},{"type":"Feature","properties":{"name":"Fort Wola","mode":"bus","text":"14","n":1,"color":"#0059a9","badge":"bus","tip":0},"geometry":{"type":"Point","coordinates":[20.918605,52.225011]}},{"type":"Feature","properties":{"name":"Metro Księcia Janusza","mode":"bus","text":"201","n":1,"color":"#0059a9","badge":"bus","tip":0},"geometry":{"type":"Point","coordinates":[20.937099,52.243897]}},{"type":"Feature","properties":{"name":"Metro Bemowo","mode":"bus","text":"149 349 714 719 729","n":5,"color":"#0059a9","badge":"bus","tip":0},"geometry":{"type":"Point","coordinates":[20.91244,52.24012]}},{"type":"Feature","properties":{"name":"Metro Bemowo","mode":"metro","text":"M2","n":1,"color":"#BB0000","badge":"cBB0000","tip":0},"geometry":{"type":"Point","coordinates":[20.91244,52.24012]}},{"type":"Feature","properties":{"name":"Klemensiewicza","mode":"bus","text":"743","n":1,"color":"#0059a9","badge":"bus","tip":0},"geometry":{"type":"Point","coordinates":[20.906275,52.238231]}},{"type":"Feature","properties":{"name":"Rondo Daszyńskiego","mode":"bus","text":"105 178","n":2,"color":"#0059a9","badge":"bus","tip":0},"geometry":{"type":"Point","coordinates":[20.983336,52.24012]}},{"type":"Feature","properties":{"name":"Os. Górczewska","mode":"bus","text":"105 122 177 189 190 743 N42 N45 N95","n":9,"color":"#0059a9","badge":"bus","tip":0},"geometry":{"type":"Point","coordinates":[20.903193,52.238231]}},{"type":"Feature","properties":{"name":"Os. Górczewska","mode":"tram","text":"10 28 46","n":3,"color":"#d6212b","badge":"tram","tip":0},"geometry":{"type":"Point","coordinates":[20.903193,52.238231]}},{"type":"Feature","properties":{"name":"Stare Bemowo","mode":"bus","text":"95 96 167 320 523","n":5,"color":"#0059a9","badge":"bus","tip":0},"geometry":{"type":"Point","coordinates":[20.909358,52.251451]}},{"type":"Feature","properties":{"name":"Boernerowo","mode":"tram","text":"20","n":1,"color":"#d6212b","badge":"tram","tip":1},"geometry":{"type":"Point","coordinates":[20.91244,52.257117]}},{"type":"Feature","properties":{"name":"Koło","mode":"bus","text":"129 249","n":2,"color":"#0059a9","badge":"bus","tip":0},"geometry":{"type":"Point","coordinates":[20.934017,52.249562]}},{"type":"Feature","properties":{"name":"Arkadyjska","mode":"bus","text":"320","n":1,"color":"#0059a9","badge":"bus","tip":0},"geometry":{"type":"Point","coordinates":[20.90011,52.245785]}},{"type":"Feature","properties":{"name":"Podkowińska","mode":"bus","text":"320","n":1,"color":"#0059a9","badge":"bus","tip":0},"geometry":{"type":"Point","coordinates":[20.897028,52.245785]}},{"type":"Feature","properties":{"name":"Groty","mode":"bus","text":"149 320","n":2,"color":"#0059a9","badge":"bus","tip":0},"geometry":{"type":"Point","coordinates":[20.893945,52.24012]}},{"type":"Feature","properties":{"name":"Karolin","mode":"bus","text":"112","n":1,"color":"#0059a9","badge":"bus","tip":0},"geometry":{"type":"Point","coordinates":[20.890863,52.215568]}},{"type":"Feature","properties":{"name":"Znana","mode":"bus","text":"190","n":1,"color":"#0059a9","badge":"bus","tip":0},"geometry":{"type":"Point","coordinates":[20.921687,52.236342]}},{"type":"Feature","properties":{"name":"Dw. Zachodni (Tunelowa)","mode":"bus","text":"103","n":1,"color":"#0059a9","badge":"bus","tip":1},"geometry":{"type":"Point","coordinates":[20.958676,52.228788]}},{"type":"Feature","properties":{"name":"Ostroroga","mode":"bus","text":"106 136","n":2,"color":"#0059a9","badge":"bus","tip":0},"geometry":{"type":"Point","coordinates":[20.961759,52.25334]}},{"type":"Feature","properties":{"name":"Ożarów Mazowiecki Starostwo","mode":"bus","text":"97","n":1,"color":"#0059a9","badge":"bus","tip":0},"geometry":{"type":"Point","coordinates":[20.869286,52.211791]}},{"type":"Feature","properties":{"name":"Koprki","mode":"bus","text":"713","n":1,"color":"#0059a9","badge":"bus","tip":0},"geometry":{"type":"Point","coordinates":[20.835379,52.215568]}},{"type":"Feature","properties":{"name":"Esperanto","mode":"bus","text":"107 111","n":2,"color":"#0059a9","badge":"bus","tip":0},"geometry":{"type":"Point","coordinates":[20.980253,52.25334]}},{"type":"Feature","properties":{"name":"Nowe Bemowo","mode":"bus","text":"112 201 220","n":3,"color":"#0059a9","badge":"bus","tip":0},"geometry":{"type":"Point","coordinates":[20.92477,52.257117]}},{"type":"Feature","properties":{"name":"Nowe Bemowo","mode":"tram","text":"11 19 23 24","n":4,"color":"#d6212b","badge":"tram","tip":0},"geometry":{"type":"Point","coordinates":[20.92477,52.257117]}},{"type":"Feature","properties":{"name":"Fort Radiowo","mode":"bus","text":"167 320","n":2,"color":"#0059a9","badge":"bus","tip":1},"geometry":{"type":"Point","coordinates":[20.903193,52.25334]}},{"type":"Feature","properties":{"name":"Wolica k. Płochocina","mode":"bus","text":"743","n":1,"color":"#0059a9","badge":"bus","tip":1},"geometry":{"type":"Point","coordinates":[20.829215,52.20046]}},{"type":"Feature","properties":{"name":"Coopera - Przychodnia","mode":"bus","text":"349","n":1,"color":"#0059a9","badge":"bus","tip":1},"geometry":{"type":"Point","coordinates":[20.897028,52.232565]}},{"type":"Feature","properties":{"name":"Jana Heweliusza","mode":"bus","text":"249","n":1,"color":"#0059a9","badge":"bus","tip":1},"geometry":{"type":"Point","coordinates":[20.890863,52.221234]}},{"type":"Feature","properties":{"name":"Ożarów Mazowiecki Kilińskiego","mode":"bus","text":"743","n":1,"color":"#0059a9","badge":"bus","tip":0},"geometry":{"type":"Point","coordinates":[20.850791,52.21368]}},{"type":"Feature","properties":{"name":"Warszawa Zachodnia (Peron 9)","mode":"skm","text":"S4","n":1,"color":"#2F7B20","badge":"c2F7B20","tip":0},"geometry":{"type":"Point","coordinates":[20.952511,52.2269]}},{"type":"Feature","properties":{"name":"Pl. Wilsona","mode":"bus","text":"181 303","n":2,"color":"#0059a9","badge":"bus","tip":0},"geometry":{"type":"Point","coordinates":[20.986418,52.26656]}},{"type":"Feature","properties":{"name":"Metro Marymont","mode":"bus","text":"110 121 132 134 326 518 705 735","n":8,"color":"#0059a9","badge":"bus","tip":0},"geometry":{"type":"Point","coordinates":[20.971006,52.26656]}},{"type":"Feature","properties":{"name":"Metro Marymont","mode":"tram","text":"17 27 36","n":3,"color":"#d6212b","badge":"tram","tip":0},"geometry":{"type":"Point","coordinates":[20.971006,52.26656]}},{"type":"Feature","properties":{"name":"Metro Słodowiec","mode":"bus","text":"755 N02","n":2,"color":"#0059a9","badge":"bus","tip":0},"geometry":{"type":"Point","coordinates":[20.961759,52.268448]}},{"type":"Feature","properties":{"name":"Prozy","mode":"bus","text":"303 N01 N44","n":3,"color":"#0059a9","badge":"bus","tip":0},"geometry":{"type":"Point","coordinates":[20.946347,52.277891]}},{"type":"Feature","properties":{"name":"Piaski","mode":"tram","text":"16 22","n":2,"color":"#d6212b","badge":"tram","tip":0},"geometry":{"type":"Point","coordinates":[20.946347,52.264671]}},{"type":"Feature","properties":{"name":"Chomiczówka","mode":"bus","text":"116 121 171 180 N43","n":5,"color":"#0059a9","badge":"bus","tip":0},"geometry":{"type":"Point","coordinates":[20.930935,52.262782]}},{"type":"Feature","properties":{"name":"Metro Młociny","mode":"bus","text":"103 150 156 184 203 210 250 511 712 750 800 N02 N41 N44 N46 N56 N58","n":17,"color":"#0059a9","badge":"bus","tip":0},"geometry":{"type":"Point","coordinates":[20.943264,52.274114]}},{"type":"Feature","properties":{"name":"Metro Młociny","mode":"tram","text":"2 6 26 33 46","n":5,"color":"#d6212b","badge":"tram","tip":0},"geometry":{"type":"Point","coordinates":[20.943264,52.274114]}},{"type":"Feature","properties":{"name":"Metro Młociny","mode":"metro","text":"M1","n":1,"color":"#0000BB","badge":"c0000BB","tip":0},"geometry":{"type":"Point","coordinates":[20.943264,52.274114]}},{"type":"Feature","properties":{"name":"Zajezdnia Żoliborz","mode":"bus","text":"N01 N44","n":2,"color":"#0059a9","badge":"bus","tip":0},"geometry":{"type":"Point","coordinates":[20.943264,52.276002]}},{"type":"Feature","properties":{"name":"Zajezdnia Żoliborz","mode":"tram","text":"36","n":1,"color":"#d6212b","badge":"tram","tip":0},"geometry":{"type":"Point","coordinates":[20.943264,52.276002]}},{"type":"Feature","properties":{"name":"Cm. Północny - Brama Gł.","mode":"bus","text":"181 303","n":2,"color":"#0059a9","badge":"bus","tip":0},"geometry":{"type":"Point","coordinates":[20.92477,52.272225]}},{"type":"Feature","properties":{"name":"Marymont-Potok","mode":"tram","text":"15","n":1,"color":"#d6212b","badge":"tram","tip":0},"geometry":{"type":"Point","coordinates":[20.983336,52.270337]}},{"type":"Feature","properties":{"name":"Gwiaździsta","mode":"bus","text":"122 157 185 197","n":4,"color":"#0059a9","badge":"bus","tip":0},"geometry":{"type":"Point","coordinates":[20.974088,52.276002]}},{"type":"Feature","properties":{"name":"Cm. Północny - Brama Zach.","mode":"bus","text":"110 409 N91","n":3,"color":"#0059a9","badge":"bus","tip":0},"geometry":{"type":"Point","coordinates":[20.921687,52.274114]}},{"type":"Feature","properties":{"name":"Truskaw Skibińskiego","mode":"bus","text":"95 210 N58","n":3,"color":"#0059a9","badge":"bus","tip":1},"geometry":{"type":"Point","coordinates":[20.860039,52.26656]}},{"type":"Feature","properties":{"name":"Izabelin Sienkiewicza","mode":"bus","text":"97","n":1,"color":"#0059a9","badge":"bus","tip":0},"geometry":{"type":"Point","coordinates":[20.878533,52.262782]}},{"type":"Feature","properties":{"name":"Sieraków","mode":"bus","text":"98 210","n":2,"color":"#0059a9","badge":"bus","tip":0},"geometry":{"type":"Point","coordinates":[20.878533,52.274114]}},{"type":"Feature","properties":{"name":"Młociny - UKSW","mode":"bus","text":"114 N41","n":2,"color":"#0059a9","badge":"bus","tip":0},"geometry":{"type":"Point","coordinates":[20.934017,52.27978]}},{"type":"Feature","properties":{"name":"Zaborów - Szkoła","mode":"bus","text":"96","n":1,"color":"#0059a9","badge":"bus","tip":0},"geometry":{"type":"Point","coordinates":[20.82305,52.238231]}},{"type":"Feature","properties":{"name":"Leszno","mode":"bus","text":"41 44 719","n":3,"color":"#0059a9","badge":"bus","tip":0},"geometry":{"type":"Point","coordinates":[20.79839,52.232565]}},{"type":"Feature","properties":{"name":"Dziekanów Leśny","mode":"bus","text":"1 2 3 97 150 N56","n":6,"color":"#0059a9","badge":"bus","tip":1},"geometry":{"type":"Point","coordinates":[20.90011,52.285445]}},{"type":"Feature","properties":{"name":"Wólka","mode":"bus","text":"729","n":1,"color":"#0059a9","badge":"bus","tip":1},"geometry":{"type":"Point","coordinates":[20.835379,52.249562]}},{"type":"Feature","properties":{"name":"Fort Wawrzyszew","mode":"bus","text":"203","n":1,"color":"#0059a9","badge":"bus","tip":1},"geometry":{"type":"Point","coordinates":[20.918605,52.262782]}},{"type":"Feature","properties":{"name":"Dw. Gdański (Rydygiera)","mode":"bus","text":"221","n":1,"color":"#0059a9","badge":"bus","tip":1},"geometry":{"type":"Point","coordinates":[20.989501,52.260894]}},{"type":"Feature","properties":{"name":"Pl. Niemena","mode":"bus","text":"221","n":1,"color":"#0059a9","badge":"bus","tip":0},"geometry":{"type":"Point","coordinates":[20.964841,52.259005]}},{"type":"Feature","properties":{"name":"CH Łomianki","mode":"bus","text":"110","n":1,"color":"#0059a9","badge":"bus","tip":0},"geometry":{"type":"Point","coordinates":[20.927852,52.281668]}},{"type":"Feature","properties":{"name":"Koczargi Stare Klonowa","mode":"bus","text":"714","n":1,"color":"#0059a9","badge":"bus","tip":0},"geometry":{"type":"Point","coordinates":[20.853874,52.242008]}},{"type":"Feature","properties":{"name":"CH Babice Nowe","mode":"bus","text":"98 712","n":2,"color":"#0059a9","badge":"bus","tip":0},"geometry":{"type":"Point","coordinates":[20.878533,52.236342]}},{"type":"Feature","properties":{"name":"Łomianki Kołłątaja","mode":"bus","text":"1 250","n":2,"color":"#0059a9","badge":"bus","tip":1},"geometry":{"type":"Point","coordinates":[20.91244,52.287334]}},{"type":"Feature","properties":{"name":"Palmiry - Muzeum","mode":"bus","text":"800","n":1,"color":"#0059a9","badge":"bus","tip":1},"geometry":{"type":"Point","coordinates":[20.860039,52.274114]}},{"type":"Feature","properties":{"name":"Palmiry","mode":"bus","text":"750","n":1,"color":"#0059a9","badge":"bus","tip":0},"geometry":{"type":"Point","coordinates":[20.878533,52.283557]}},{"type":"Feature","properties":{"name":"Łomianki Armii „Poznań”","mode":"bus","text":"N56","n":1,"color":"#0059a9","badge":"bus","tip":0},"geometry":{"type":"Point","coordinates":[20.918605,52.289222]}},{"type":"Feature","properties":{"name":"Kiełpin","mode":"bus","text":"2","n":1,"color":"#0059a9","badge":"bus","tip":0},"geometry":{"type":"Point","coordinates":[20.918605,52.293]}},{"type":"Feature","properties":{"name":"Kiełpin KMŁ","mode":"bus","text":"2","n":1,"color":"#0059a9","badge":"bus","tip":0},"geometry":{"type":"Point","coordinates":[20.91244,52.293]}},{"type":"Feature","properties":{"name":"Kiełpin KMŁ","mode":"bus","text":"3","n":1,"color":"#0059a9","badge":"bus","tip":0},"geometry":{"type":"Point","coordinates":[20.915522,52.294888]}},{"type":"Feature","properties":{"name":"Dębina","mode":"bus","text":"750","n":1,"color":"#0059a9","badge":"bus","tip":1},"geometry":{"type":"Point","coordinates":[20.856956,52.294888]}},{"type":"Feature","properties":{"name":"Izabelin-Dziekanówek","mode":"bus","text":"3 150 750","n":3,"color":"#0059a9","badge":"bus","tip":1},"geometry":{"type":"Point","coordinates":[20.890863,52.287334]}},{"type":"Feature","properties":{"name":"Cybulice Duże","mode":"bus","text":"755","n":1,"color":"#0059a9","badge":"bus","tip":1},"geometry":{"type":"Point","coordinates":[20.829215,52.283557]}},{"type":"Feature","properties":{"name":"Łomianki ICDS","mode":"bus","text":"2","n":1,"color":"#0059a9","badge":"bus","tip":0},"geometry":{"type":"Point","coordinates":[20.921687,52.289222]}},{"type":"Feature","properties":{"name":"Emilii Plater","mode":"bus","text":"117 521 N45","n":3,"color":"#0059a9","badge":"bus","tip":0},"geometry":{"type":"Point","coordinates":[21.011078,52.24012]}},{"type":"Feature","properties":{"name":"Dw. Centralny","mode":"bus","text":"100 131 160 174 504 507 520 525 N11 N12 N13 N14 N16 N21 N22 N24 N25 N31 N33 N34 N36 N37 N41 N42 N43 N44 N45 N46 N61 N62 N63 N64 N71 N72 N81 N83 N86 N91 N95","n":39,"color":"#0059a9","badge":"bus","tip":0},"geometry":{"type":"Point","coordinates":[21.011078,52.234454]}},{"type":"Feature","properties":{"name":"Metro Politechnika","mode":"bus","text":"151 411 502 514","n":4,"color":"#0059a9","badge":"bus","tip":0},"geometry":{"type":"Point","coordinates":[21.032654,52.221234]}},{"type":"Feature","properties":{"name":"Pl. Konstytucji","mode":"bus","text":"520","n":1,"color":"#0059a9","badge":"bus","tip":0},"geometry":{"type":"Point","coordinates":[21.032654,52.2269]}},{"type":"Feature","properties":{"name":"Centrum","mode":"bus","text":"N32 N35 N38 N85 N88","n":5,"color":"#0059a9","badge":"bus","tip":0},"geometry":{"type":"Point","coordinates":[21.020325,52.234454]}},{"type":"Feature","properties":{"name":"Muranowska","mode":"tram","text":"16","n":1,"color":"#d6212b","badge":"tram","tip":0},"geometry":{"type":"Point","coordinates":[20.998748,52.257117]}},{"type":"Feature","properties":{"name":"Pl. Piłsudskiego","mode":"bus","text":"128 175","n":2,"color":"#0059a9","badge":"bus","tip":0},"geometry":{"type":"Point","coordinates":[21.017242,52.247674]}},{"type":"Feature","properties":{"name":"Pl. Trzech Krzyży","mode":"bus","text":"108 517","n":2,"color":"#0059a9","badge":"bus","tip":0},"geometry":{"type":"Point","coordinates":[21.035737,52.232565]}},{"type":"Feature","properties":{"name":"Konwiktorska","mode":"bus","text":"178 503","n":2,"color":"#0059a9","badge":"bus","tip":0},"geometry":{"type":"Point","coordinates":[21.007995,52.259005]}},{"type":"Feature","properties":{"name":"Mariensztat","mode":"bus","text":"106 118","n":2,"color":"#0059a9","badge":"bus","tip":0},"geometry":{"type":"Point","coordinates":[21.020325,52.249562]}},{"type":"Feature","properties":{"name":"Torwar","mode":"bus","text":"171","n":1,"color":"#0059a9","badge":"bus","tip":0},"geometry":{"type":"Point","coordinates":[21.051149,52.2269]}},{"type":"Feature","properties":{"name":"Rondo ONZ","mode":"bus","text":"174","n":1,"color":"#0059a9","badge":"bus","tip":0},"geometry":{"type":"Point","coordinates":[21.004913,52.242008]}},{"type":"Feature","properties":{"name":"Rondo „Radosława”","mode":"bus","text":"500","n":1,"color":"#0059a9","badge":"bus","tip":0},"geometry":{"type":"Point","coordinates":[20.983336,52.259005]}},{"type":"Feature","properties":{"name":"Metro Ratusz Arsenał","mode":"bus","text":"E-2","n":1,"color":"#0059a9","badge":"bus","tip":0},"geometry":{"type":"Point","coordinates":[21.00183,52.251451]}},{"type":"Feature","properties":{"name":"Browarna","mode":"bus","text":"127","n":1,"color":"#0059a9","badge":"bus","tip":0},"geometry":{"type":"Point","coordinates":[21.02649,52.243897]}},{"type":"Feature","properties":{"name":"Bielańska","mode":"bus","text":"518","n":1,"color":"#0059a9","badge":"bus","tip":0},"geometry":{"type":"Point","coordinates":[21.007995,52.251451]}},{"type":"Feature","properties":{"name":"R-1 Zajezdnia Wola","mode":"tram","text":"24","n":1,"color":"#d6212b","badge":"tram","tip":1},"geometry":{"type":"Point","coordinates":[20.967924,52.245785]}},{"type":"Feature","properties":{"name":"Grodzisk Maz. Traugutta Dw. PKP","mode":"bus","text":"0 18 21 22 23 24 25 28 30 31 32 33 34 45 63 82 92 93","n":18,"color":"#0059a9","badge":"bus","tip":0},"geometry":{"type":"Point","coordinates":[20.816885,52.166465]}},{"type":"Feature","properties":{"name":"Grodzisk Maz. Szpital / Kołłątaja","mode":"bus","text":"13 16 17 20 26 29 46","n":7,"color":"#0059a9","badge":"bus","tip":0},"geometry":{"type":"Point","coordinates":[20.81072,52.155134]}},{"type":"Feature","properties":{"name":"Grodzisk Maz. Spokojna / Radońska","mode":"wkd","text":"WKD","n":1,"color":"#a518a3","badge":"ca518a3","tip":0},"geometry":{"type":"Point","coordinates":[20.819967,52.158911]}},{"type":"Feature","properties":{"name":"Bieniewo-Parcela","mode":"bus","text":"10","n":1,"color":"#0059a9","badge":"bus","tip":1},"geometry":{"type":"Point","coordinates":[20.779896,52.208014]}},{"type":"Feature","properties":{"name":"Błonie Harcerska","mode":"bus","text":"12 40 42 43","n":4,"color":"#0059a9","badge":"bus","tip":0},"geometry":{"type":"Point","coordinates":[20.804555,52.198571]}},{"type":"Feature","properties":{"name":"Błonie Stadion","mode":"bus","text":"67 77","n":2,"color":"#0059a9","badge":"bus","tip":0},"geometry":{"type":"Point","coordinates":[20.807638,52.20046]}},{"type":"Feature","properties":{"name":"Błonie Harcerska","mode":"bus","text":"12 40 42 43","n":4,"color":"#0059a9","badge":"bus","tip":0},"geometry":{"type":"Point","coordinates":[20.807638,52.198571]}},{"type":"Feature","properties":{"name":"Bieniewice Szkoła","mode":"bus","text":"19","n":1,"color":"#0059a9","badge":"bus","tip":0},"geometry":{"type":"Point","coordinates":[20.789143,52.198571]}},{"type":"Feature","properties":{"name":"Bieniewo-Parcela","mode":"bus","text":"10","n":1,"color":"#0059a9","badge":"bus","tip":0},"geometry":{"type":"Point","coordinates":[20.773731,52.208014]}},{"type":"Feature","properties":{"name":"Błonie Narutowicza","mode":"bus","text":"19","n":1,"color":"#0059a9","badge":"bus","tip":0},"geometry":{"type":"Point","coordinates":[20.804555,52.204237]}},{"type":"Feature","properties":{"name":"Błonie Wyszyńskiego","mode":"bus","text":"13","n":1,"color":"#0059a9","badge":"bus","tip":0},"geometry":{"type":"Point","coordinates":[20.804555,52.20046]}},{"type":"Feature","properties":{"name":"Bramki DPS","mode":"bus","text":"11","n":1,"color":"#0059a9","badge":"bus","tip":0},"geometry":{"type":"Point","coordinates":[20.795308,52.206125]}},{"type":"Feature","properties":{"name":"Pass","mode":"bus","text":"14","n":1,"color":"#0059a9","badge":"bus","tip":0},"geometry":{"type":"Point","coordinates":[20.79839,52.209902]}},{"type":"Feature","properties":{"name":"Pass","mode":"bus","text":"14","n":1,"color":"#0059a9","badge":"bus","tip":0},"geometry":{"type":"Point","coordinates":[20.795308,52.21368]}},{"type":"Feature","properties":{"name":"Błonie Szkoła Nr 2","mode":"bus","text":"19","n":1,"color":"#0059a9","badge":"bus","tip":0},"geometry":{"type":"Point","coordinates":[20.801473,52.202348]}},{"type":"Feature","properties":{"name":"Brwinów OSP","mode":"bus","text":"15 23 35 45","n":4,"color":"#0059a9","badge":"bus","tip":1},"geometry":{"type":"Point","coordinates":[20.844627,52.174019]}},{"type":"Feature","properties":{"name":"Brwinów Zespół Szkół Ogólnokształcących","mode":"bus","text":"65 66","n":2,"color":"#0059a9","badge":"bus","tip":0},"geometry":{"type":"Point","coordinates":[20.838462,52.170242]}},{"type":"Feature","properties":{"name":"Żółwin Szkoła i Orlik","mode":"bus","text":"55","n":1,"color":"#0059a9","badge":"bus","tip":0},"geometry":{"type":"Point","coordinates":[20.844627,52.151357]}},{"type":"Feature","properties":{"name":"Brwinów Urząd Miejski","mode":"bus","text":"15 23 35 45","n":4,"color":"#0059a9","badge":"bus","tip":0},"geometry":{"type":"Point","coordinates":[20.841544,52.172131]}},{"type":"Feature","properties":{"name":"Milanówek Cmentarz","mode":"bus","text":"16 46","n":2,"color":"#0059a9","badge":"bus","tip":0},"geometry":{"type":"Point","coordinates":[20.819967,52.174019]}},{"type":"Feature","properties":{"name":"Milanówek Cmentarz","mode":"bus","text":"16 46","n":2,"color":"#0059a9","badge":"bus","tip":0},"geometry":{"type":"Point","coordinates":[20.819967,52.177797]}},{"type":"Feature","properties":{"name":"Milanówek Grudów WKD","mode":"wkd","text":"WKD","n":1,"color":"#a518a3","badge":"ca518a3","tip":0},"geometry":{"type":"Point","coordinates":[20.832297,52.166465]}},{"type":"Feature","properties":{"name":"Otrębusy WKD","mode":"bus","text":"17","n":1,"color":"#0059a9","badge":"bus","tip":0},"geometry":{"type":"Point","coordinates":[20.856956,52.162688]}},{"type":"Feature","properties":{"name":"Brwinów OSP","mode":"bus","text":"48 64 67 69","n":4,"color":"#0059a9","badge":"bus","tip":0},"geometry":{"type":"Point","coordinates":[20.844627,52.175908]}},{"type":"Feature","properties":{"name":"Bieniewice Szkoła","mode":"bus","text":"19","n":1,"color":"#0059a9","badge":"bus","tip":0},"geometry":{"type":"Point","coordinates":[20.792225,52.194794]}},{"type":"Feature","properties":{"name":"Stare Faszczyce przy nr 50","mode":"bus","text":"49","n":1,"color":"#0059a9","badge":"bus","tip":0},"geometry":{"type":"Point","coordinates":[20.801473,52.194794]}},{"type":"Feature","properties":{"name":"Stare Faszczyce przy nr 50","mode":"bus","text":"49","n":1,"color":"#0059a9","badge":"bus","tip":0},"geometry":{"type":"Point","coordinates":[20.807638,52.192905]}},{"type":"Feature","properties":{"name":"Nowy Teresin","mode":"bus","text":"20 44","n":2,"color":"#0059a9","badge":"bus","tip":1},"geometry":{"type":"Point","coordinates":[20.755236,52.208014]}},{"type":"Feature","properties":{"name":"Nowy Teresin","mode":"bus","text":"20 44","n":2,"color":"#0059a9","badge":"bus","tip":1},"geometry":{"type":"Point","coordinates":[20.752154,52.206125]}},{"type":"Feature","properties":{"name":"Kaski","mode":"bus","text":"20 26","n":2,"color":"#0059a9","badge":"bus","tip":0},"geometry":{"type":"Point","coordinates":[20.767566,52.196682]}},{"type":"Feature","properties":{"name":"Pułapina Nowa Rondo","mode":"bus","text":"80","n":1,"color":"#0059a9","badge":"bus","tip":0},"geometry":{"type":"Point","coordinates":[20.776813,52.183462]}},{"type":"Feature","properties":{"name":"Baranów Szkoła","mode":"bus","text":"24","n":1,"color":"#0059a9","badge":"bus","tip":0},"geometry":{"type":"Point","coordinates":[20.776813,52.175908]}},{"type":"Feature","properties":{"name":"Władków Pętla","mode":"bus","text":"21","n":1,"color":"#0059a9","badge":"bus","tip":0},"geometry":{"type":"Point","coordinates":[20.804555,52.147579]}},{"type":"Feature","properties":{"name":"Makówka Lukrecji","mode":"bus","text":"22 58","n":2,"color":"#0059a9","badge":"bus","tip":0},"geometry":{"type":"Point","coordinates":[20.81072,52.143802]}},{"type":"Feature","properties":{"name":"Makówka Lukrecji","mode":"bus","text":"22 58","n":2,"color":"#0059a9","badge":"bus","tip":0},"geometry":{"type":"Point","coordinates":[20.813802,52.140025]}},{"type":"Feature","properties":{"name":"Odrano-Wola Niedźwiedzia","mode":"bus","text":"58","n":1,"color":"#0059a9","badge":"bus","tip":0},"geometry":{"type":"Point","coordinates":[20.819967,52.151357]}},{"type":"Feature","properties":{"name":"Książenice Osiedle","mode":"bus","text":"35","n":1,"color":"#0059a9","badge":"bus","tip":0},"geometry":{"type":"Point","coordinates":[20.844627,52.143802]}},{"type":"Feature","properties":{"name":"Adamowizna Szkoła","mode":"bus","text":"58","n":1,"color":"#0059a9","badge":"bus","tip":0},"geometry":{"type":"Point","coordinates":[20.816885,52.151357]}},{"type":"Feature","properties":{"name":"Szczęsne Cmentarz","mode":"bus","text":"50 C1","n":2,"color":"#0059a9","badge":"bus","tip":0},"geometry":{"type":"Point","coordinates":[20.826132,52.151357]}},{"type":"Feature","properties":{"name":"Izdebno Kościelne Szkoła","mode":"bus","text":"25","n":1,"color":"#0059a9","badge":"bus","tip":0},"geometry":{"type":"Point","coordinates":[20.789143,52.177797]}},{"type":"Feature","properties":{"name":"Izdebno Kościelne Bursztynowa nr 52","mode":"bus","text":"24","n":1,"color":"#0059a9","badge":"bus","tip":0},"geometry":{"type":"Point","coordinates":[20.782978,52.181574]}},{"type":"Feature","properties":{"name":"Izdebno Kościelne Pętla","mode":"bus","text":"24","n":1,"color":"#0059a9","badge":"bus","tip":0},"geometry":{"type":"Point","coordinates":[20.786061,52.179685]}},{"type":"Feature","properties":{"name":"Izdebno Kościelne Szkoła","mode":"bus","text":"25","n":1,"color":"#0059a9","badge":"bus","tip":0},"geometry":{"type":"Point","coordinates":[20.792225,52.175908]}},{"type":"Feature","properties":{"name":"Kłudno Nowe Pętla","mode":"bus","text":"26","n":1,"color":"#0059a9","badge":"bus","tip":0},"geometry":{"type":"Point","coordinates":[20.792225,52.185351]}},{"type":"Feature","properties":{"name":"Kłudno Nowe Pętla","mode":"bus","text":"26","n":1,"color":"#0059a9","badge":"bus","tip":0},"geometry":{"type":"Point","coordinates":[20.795308,52.187239]}},{"type":"Feature","properties":{"name":"Grodzisk Maz. Rokiciańska","mode":"bus","text":"27","n":1,"color":"#0059a9","badge":"bus","tip":0},"geometry":{"type":"Point","coordinates":[20.819967,52.168354]}},{"type":"Feature","properties":{"name":"Natolin Cegielnia","mode":"bus","text":"27","n":1,"color":"#0059a9","badge":"bus","tip":0},"geometry":{"type":"Point","coordinates":[20.801473,52.181574]}},{"type":"Feature","properties":{"name":"Józefina Szkoła","mode":"bus","text":"51","n":1,"color":"#0059a9","badge":"bus","tip":0},"geometry":{"type":"Point","coordinates":[20.844627,52.132471]}},{"type":"Feature","properties":{"name":"Pieńki Słubickie","mode":"bus","text":"30","n":1,"color":"#0059a9","badge":"bus","tip":0},"geometry":{"type":"Point","coordinates":[20.829215,52.121139]}},{"type":"Feature","properties":{"name":"Żabia Wola Urząd Gminy","mode":"bus","text":"32 52","n":2,"color":"#0059a9","badge":"bus","tip":0},"geometry":{"type":"Point","coordinates":[20.850791,52.130582]}},{"type":"Feature","properties":{"name":"Szczęsne Cmentarz","mode":"bus","text":"C1","n":1,"color":"#0059a9","badge":"bus","tip":0},"geometry":{"type":"Point","coordinates":[20.826132,52.149468]}},{"type":"Feature","properties":{"name":"Skuły Szkoła","mode":"bus","text":"30","n":1,"color":"#0059a9","badge":"bus","tip":0},"geometry":{"type":"Point","coordinates":[20.838462,52.119251]}},{"type":"Feature","properties":{"name":"Żabia Wola Urząd Gminy","mode":"bus","text":"32 52","n":2,"color":"#0059a9","badge":"bus","tip":0},"geometry":{"type":"Point","coordinates":[20.853874,52.126805]}},{"type":"Feature","properties":{"name":"Petrykozy Trakt Królewski","mode":"bus","text":"31","n":1,"color":"#0059a9","badge":"bus","tip":0},"geometry":{"type":"Point","coordinates":[20.853874,52.104142]}},{"type":"Feature","properties":{"name":"Grodzisk Maz. Dw. PKP","mode":"bus","text":"32","n":1,"color":"#0059a9","badge":"bus","tip":1},"geometry":{"type":"Point","coordinates":[20.813802,52.164577]}},{"type":"Feature","properties":{"name":"Ojrzanów Szkoła","mode":"bus","text":"52","n":1,"color":"#0059a9","badge":"bus","tip":0},"geometry":{"type":"Point","coordinates":[20.875451,52.121139]}},{"type":"Feature","properties":{"name":"Siestrzeń Rozalińska","mode":"bus","text":"51","n":1,"color":"#0059a9","badge":"bus","tip":0},"geometry":{"type":"Point","coordinates":[20.860039,52.134359]}},{"type":"Feature","properties":{"name":"Siestrzeń Rozalińska","mode":"bus","text":"51","n":1,"color":"#0059a9","badge":"bus","tip":0},"geometry":{"type":"Point","coordinates":[20.856956,52.140025]}},{"type":"Feature","properties":{"name":"Ojrzanów Przyleśna","mode":"bus","text":"33","n":1,"color":"#0059a9","badge":"bus","tip":1},"geometry":{"type":"Point","coordinates":[20.884698,52.115474]}},{"type":"Feature","properties":{"name":"Ojrzanów Przyleśna","mode":"bus","text":"33","n":1,"color":"#0059a9","badge":"bus","tip":1},"geometry":{"type":"Point","coordinates":[20.887781,52.119251]}},{"type":"Feature","properties":{"name":"Podkampinos Rondo","mode":"bus","text":"41","n":1,"color":"#0059a9","badge":"bus","tip":0},"geometry":{"type":"Point","coordinates":[20.773731,52.225011]}},{"type":"Feature","properties":{"name":"Marianów Jodłowa","mode":"bus","text":"41","n":1,"color":"#0059a9","badge":"bus","tip":0},"geometry":{"type":"Point","coordinates":[20.792225,52.236342]}},{"type":"Feature","properties":{"name":"Sochaczew Sienkiewicza (przy PKP)","mode":"bus","text":"42","n":1,"color":"#0059a9","badge":"bus","tip":1},"geometry":{"type":"Point","coordinates":[20.730577,52.21368]}},{"type":"Feature","properties":{"name":"Roztoka","mode":"bus","text":"43","n":1,"color":"#0059a9","badge":"bus","tip":0},"geometry":{"type":"Point","coordinates":[20.81072,52.257117]}},{"type":"Feature","properties":{"name":"Płochocin PKP / Kolejowa","mode":"bus","text":"49 94","n":2,"color":"#0059a9","badge":"bus","tip":1},"geometry":{"type":"Point","coordinates":[20.832297,52.204237]}},{"type":"Feature","properties":{"name":"Walendów","mode":"bus","text":"60","n":1,"color":"#0059a9","badge":"bus","tip":0},"geometry":{"type":"Point","coordinates":[20.887781,52.143802]}},{"type":"Feature","properties":{"name":"Reguły Urząd Gminy","mode":"bus","text":"61","n":1,"color":"#0059a9","badge":"bus","tip":0},"geometry":{"type":"Point","coordinates":[20.893945,52.177797]}},{"type":"Feature","properties":{"name":"Malichy WKD","mode":"bus","text":"97","n":1,"color":"#0059a9","badge":"bus","tip":0},"geometry":{"type":"Point","coordinates":[20.878533,52.181574]}},{"type":"Feature","properties":{"name":"Komorów WKD","mode":"wkd","text":"WKD","n":1,"color":"#a518a3","badge":"ca518a3","tip":0},"geometry":{"type":"Point","coordinates":[20.872368,52.170242]}},{"type":"Feature","properties":{"name":"Parzniew Centrum Handlowe","mode":"bus","text":"77","n":1,"color":"#0059a9","badge":"bus","tip":0},"geometry":{"type":"Point","coordinates":[20.847709,52.183462]}},{"type":"Feature","properties":{"name":"Moszna Park Logistyczny","mode":"bus","text":"68","n":1,"color":"#0059a9","badge":"bus","tip":0},"geometry":{"type":"Point","coordinates":[20.838462,52.191017]}},{"type":"Feature","properties":{"name":"Moszna Park Logistyczny - Hale Zachodnie","mode":"bus","text":"78","n":1,"color":"#0059a9","badge":"bus","tip":0},"geometry":{"type":"Point","coordinates":[20.832297,52.192905]}},{"type":"Feature","properties":{"name":"Żyrardów PKP","mode":"bus","text":"80","n":1,"color":"#0059a9","badge":"bus","tip":0},"geometry":{"type":"Point","coordinates":[20.779896,52.151357]}},{"type":"Feature","properties":{"name":"Mszczonów Rynek","mode":"bus","text":"82 83 EXPRESS CHEŁMOŃSKI","n":2,"color":"#0059a9","badge":"bus","tip":0},"geometry":{"type":"Point","coordinates":[20.801473,52.124917]}},{"type":"Feature","properties":{"name":"Suntago Park Wodny","mode":"bus","text":"82","n":1,"color":"#0059a9","badge":"bus","tip":1},"geometry":{"type":"Point","coordinates":[20.792225,52.130582]}},{"type":"Feature","properties":{"name":"Mszczonów Rynek","mode":"bus","text":"83 EXPRESS CHEŁMOŃSKI","n":1,"color":"#0059a9","badge":"bus","tip":1},"geometry":{"type":"Point","coordinates":[20.801473,52.123028]}},{"type":"Feature","properties":{"name":"Granica - Kampinoski Park Narodowy","mode":"bus","text":"92","n":1,"color":"#0059a9","badge":"bus","tip":1},"geometry":{"type":"Point","coordinates":[20.770648,52.24012]}},{"type":"Feature","properties":{"name":"Roztoka - Kampinoski Park Narodowy","mode":"bus","text":"93","n":1,"color":"#0059a9","badge":"bus","tip":0},"geometry":{"type":"Point","coordinates":[20.807638,52.25334]}},{"type":"Feature","properties":{"name":"Danuty","mode":"bus","text":"M1","n":1,"color":"#0059a9","badge":"bus","tip":1},"geometry":{"type":"Point","coordinates":[21.112797,52.151357]}},{"type":"Feature","properties":{"name":"Mlądz","mode":"bus","text":"M2","n":1,"color":"#0059a9","badge":"bus","tip":0},"geometry":{"type":"Point","coordinates":[21.140539,52.177797]}},{"type":"Feature","properties":{"name":"Danuty","mode":"bus","text":"M1","n":1,"color":"#0059a9","badge":"bus","tip":1},"geometry":{"type":"Point","coordinates":[21.112797,52.149468]}},{"type":"Feature","properties":{"name":"Cegłów - Szkoła","mode":"bus","text":"C01 C02 P10","n":3,"color":"#0059a9","badge":"bus","tip":0},"geometry":{"type":"Point","coordinates":[21.22993,52.192905]}},{"type":"Feature","properties":{"name":"Cisówka - Pętla","mode":"bus","text":"P01","n":1,"color":"#0059a9","badge":"bus","tip":0},"geometry":{"type":"Point","coordinates":[21.177528,52.247674]}},{"type":"Feature","properties":{"name":"Mińsk Mazowiecki /Dw. PKP/","mode":"bus","text":"P01 P07 P08 P09","n":4,"color":"#0059a9","badge":"bus","tip":0},"geometry":{"type":"Point","coordinates":[21.196023,52.194794]}},{"type":"Feature","properties":{"name":"Okuniew","mode":"bus","text":"P02 P03","n":2,"color":"#0059a9","badge":"bus","tip":0},"geometry":{"type":"Point","coordinates":[21.137457,52.242008]}},{"type":"Feature","properties":{"name":"Rynek (Stanisławów)","mode":"bus","text":"P02 P12","n":2,"color":"#0059a9","badge":"bus","tip":0},"geometry":{"type":"Point","coordinates":[21.196023,52.243897]}},{"type":"Feature","properties":{"name":"Kąty Goździejewskie Drugie","mode":"bus","text":"P03","n":1,"color":"#0059a9","badge":"bus","tip":0},"geometry":{"type":"Point","coordinates":[21.171364,52.234454]}},{"type":"Feature","properties":{"name":"Wólka Piecząca","mode":"bus","text":"P04","n":1,"color":"#0059a9","badge":"bus","tip":0},"geometry":{"type":"Point","coordinates":[21.202188,52.249562]}},{"type":"Feature","properties":{"name":"Mińsk Mazowiecki /Dw. PKP/","mode":"bus","text":"P04 P05 P12 P13","n":4,"color":"#0059a9","badge":"bus","tip":0},"geometry":{"type":"Point","coordinates":[21.19294,52.194794]}},{"type":"Feature","properties":{"name":"Wólka Piecząca","mode":"bus","text":"P04","n":1,"color":"#0059a9","badge":"bus","tip":0},"geometry":{"type":"Point","coordinates":[21.20527,52.249562]}},{"type":"Feature","properties":{"name":"Grzebowilk OSP","mode":"bus","text":"P05","n":1,"color":"#0059a9","badge":"bus","tip":0},"geometry":{"type":"Point","coordinates":[21.186776,52.177797]}},{"type":"Feature","properties":{"name":"Cisie - Wiadukt","mode":"bus","text":"P06","n":1,"color":"#0059a9","badge":"bus","tip":0},"geometry":{"type":"Point","coordinates":[21.162116,52.209902]}},{"type":"Feature","properties":{"name":"Mińsk Mazowiecki /Dw. PKP/","mode":"bus","text":"P06 P11","n":2,"color":"#0059a9","badge":"bus","tip":0},"geometry":{"type":"Point","coordinates":[21.189858,52.192905]}},{"type":"Feature","properties":{"name":"Dobre /Rynek/","mode":"bus","text":"P07 P11","n":2,"color":"#0059a9","badge":"bus","tip":0},"geometry":{"type":"Point","coordinates":[21.2176,52.249562]}},{"type":"Feature","properties":{"name":"Garczyn Mały Pętla","mode":"bus","text":"P08","n":1,"color":"#0059a9","badge":"bus","tip":0},"geometry":{"type":"Point","coordinates":[21.236094,52.236342]}},{"type":"Feature","properties":{"name":"Kąck","mode":"bus","text":"P09","n":1,"color":"#0059a9","badge":"bus","tip":0},"geometry":{"type":"Point","coordinates":[21.165199,52.198571]}},{"type":"Feature","properties":{"name":"Mińsk Mazowiecki /Dw. PKP/","mode":"bus","text":"P10 Z10","n":2,"color":"#0059a9","badge":"bus","tip":0},"geometry":{"type":"Point","coordinates":[21.186776,52.192905]}},{"type":"Feature","properties":{"name":"PKP Mrozy","mode":"bus","text":"P13","n":1,"color":"#0059a9","badge":"bus","tip":1},"geometry":{"type":"Point","coordinates":[21.242259,52.196682]}},{"type":"Feature","properties":{"name":"Piaseczno II","mode":"bus","text":"Z10","n":1,"color":"#0059a9","badge":"bus","tip":0},"geometry":{"type":"Point","coordinates":[21.226847,52.174019]}},{"type":"Feature","properties":{"name":"Łosie Łosie-pętla","mode":"bus","text":"R1 R2","n":2,"color":"#0059a9","badge":"bus","tip":0},"geometry":{"type":"Point","coordinates":[21.069644,52.31944]}},{"type":"Feature","properties":{"name":"Emilianów Cicha","mode":"bus","text":"R3","n":1,"color":"#0059a9","badge":"bus","tip":0},"geometry":{"type":"Point","coordinates":[21.100468,52.311885]}},{"type":"Feature","properties":{"name":"Kuligów Kuligów OSP","mode":"bus","text":"R4","n":1,"color":"#0059a9","badge":"bus","tip":1},"geometry":{"type":"Point","coordinates":[21.057314,52.33266]}},{"type":"Feature","properties":{"name":"Arciechów Arciechów-pętla","mode":"bus","text":"R5","n":1,"color":"#0059a9","badge":"bus","tip":0},"geometry":{"type":"Point","coordinates":[21.023407,52.33266]}},{"type":"Feature","properties":{"name":"Radzymin Falandysza","mode":"bus","text":"R38","n":1,"color":"#0059a9","badge":"bus","tip":0},"geometry":{"type":"Point","coordinates":[21.075808,52.308108]}},{"type":"Feature","properties":{"name":"Sulejówek Miłosna-Pomnik","mode":"bus","text":"A1","n":1,"color":"#0059a9","badge":"bus","tip":0},"geometry":{"type":"Point","coordinates":[21.143622,52.225011]}},{"type":"Feature","properties":{"name":"Michałówek","mode":"bus","text":"W3","n":1,"color":"#0059a9","badge":"bus","tip":0},"geometry":{"type":"Point","coordinates":[21.146704,52.209902]}},{"type":"Feature","properties":{"name":"PKP Janówek","mode":"bus","text":"W2","n":1,"color":"#0059a9","badge":"bus","tip":0},"geometry":{"type":"Point","coordinates":[20.890863,52.308108]}},{"type":"Feature","properties":{"name":"Świerkowa","mode":"bus","text":"W3","n":1,"color":"#0059a9","badge":"bus","tip":0},"geometry":{"type":"Point","coordinates":[20.91244,52.326994]}},{"type":"Feature","properties":{"name":"Podkowa Leśna Zachodnia","mode":"wkd","text":"WKD","n":1,"color":"#a518a3","badge":"ca518a3","tip":0},"geometry":{"type":"Point","coordinates":[20.835379,52.164577]}},{"type":"Feature","properties":{"name":"Warszawa Śródmieście WKD","mode":"wkd","text":"WKD","n":1,"color":"#a518a3","badge":"ca518a3","tip":0},"geometry":{"type":"Point","coordinates":[21.004913,52.236342]}}]}