{"type":"FeatureCollection","features":[{"type":"Feature","properties":{"id":"c13","lines":"3 6 7 25 26","n":5,"bus":1},"geometry":{"type":"LineString","coordinates":[[21.041902,52.247674],[21.044984,52.245785]]}},{"type":"Feature","properties":{"id":"c14","lines":"7 13 28","n":3,"bus":1},"geometry":{"type":"LineString","coordinates":[[21.041902,52.247674],[21.044984,52.249562]]}},{"type":"Feature","properties":{"id":"c15","lines":"3 6 13 25 26 28","n":6,"bus":1},"geometry":{"type":"LineString","coordinates":[[21.041902,52.247674],[21.038819,52.247674],[21.035737,52.249562]]}},{"type":"Feature","properties":{"id":"c17","lines":"3 6 22 26","n":4,"bus":1},"geometry":{"type":"LineString","coordinates":[[21.044984,52.245785],[21.048067,52.245785]]}},{"type":"Feature","properties":{"id":"c18","lines":"7 22 25","n":3,"bus":1},"geometry":{"type":"LineString","coordinates":[[21.044984,52.245785],[21.044984,52.24012],[21.048067,52.238231]]}},{"type":"Feature","properties":{"id":"c20","lines":"3 6 22 26","n":4,"bus":1},"geometry":{"type":"LineString","coordinates":[[21.048067,52.245785],[21.051149,52.243897]]}},{"type":"Feature","properties":{"id":"c44","lines":"3 6 22 26","n":4,"bus":1},"geometry":{"type":"LineString","coordinates":[[21.051149,52.243897],[21.054231,52.243897],[21.057314,52.242008]]}},{"type":"Feature","properties":{"id":"c49","lines":"2 6","n":2,"bus":1},"geometry":{"type":"LineString","coordinates":[[20.943264,52.274114],[20.943264,52.276002]]}},{"type":"Feature","properties":{"id":"c53","lines":"26 33 46","n":3,"bus":0},"geometry":{"type":"LineString","coordinates":[[20.943264,52.274114],[20.934017,52.268448]]}},{"type":"Feature","properties":{"id":"c56","lines":"6 17 36","n":3,"bus":1},"geometry":{"type":"LineString","coordinates":[[20.949429,52.274114],[20.949429,52.276002]]}},{"type":"Feature","properties":{"id":"c57","lines":"6 17 36","n":3,"bus":0},"geometry":{"type":"LineString","coordinates":[[20.949429,52.274114],[20.952511,52.272225]]}},{"type":"Feature","properties":{"id":"c58","lines":"6 17 36","n":3,"bus":1},"geometry":{"type":"LineString","coordinates":[[20.952511,52.272225],[20.955594,52.274114],[20.958676,52.274114]]}},{"type":"Feature","properties":{"id":"c60","lines":"6 17 36","n":3,"bus":0},"geometry":{"type":"LineString","coordinates":[[20.958676,52.274114],[20.958676,52.272225]]}},{"type":"Feature","properties":{"id":"c62","lines":"6 17 36","n":3,"bus":1},"geometry":{"type":"LineString","coordinates":[[20.958676,52.272225],[20.961759,52.270337]]}},{"type":"Feature","properties":{"id":"c75","lines":"19 28 33","n":3,"bus":1},"geometry":{"type":"LineString","coordinates":[[20.946347,52.264671],[20.943264,52.26656]]}},{"type":"Feature","properties":{"id":"c76","lines":"16 19 22 28 33","n":5,"bus":1},"geometry":{"type":"LineString","coordinates":[[20.946347,52.264671],[20.949429,52.26656],[20.958676,52.26656]]}},{"type":"Feature","properties":{"id":"c100","lines":"20 23 24","n":3,"bus":1},"geometry":{"type":"LineString","coordinates":[[20.961759,52.251451],[20.958676,52.25334]]}},{"type":"Feature","properties":{"id":"c101","lines":"20 23 24","n":3,"bus":1},"geometry":{"type":"LineString","coordinates":[[20.961759,52.251451],[20.967924,52.247674]]}},{"type":"Feature","properties":{"id":"c107","lines":"13 26 27","n":3,"bus":1},"geometry":{"type":"LineString","coordinates":[[20.961759,52.24012],[20.967924,52.24012],[20.974088,52.243897]]}},{"type":"Feature","properties":{"id":"c109","lines":"13 26 27","n":3,"bus":0},"geometry":{"type":"LineString","coordinates":[[20.961759,52.24012],[20.946347,52.24012]]}},{"type":"Feature","properties":{"id":"c113","lines":"10 11","n":2,"bus":1},"geometry":{"type":"LineString","coordinates":[[20.961759,52.238231],[20.980253,52.238231],[20.983336,52.24012]]}},{"type":"Feature","properties":{"id":"c114","lines":"10 11","n":2,"bus":1},"geometry":{"type":"LineString","coordinates":[[20.961759,52.238231],[20.949429,52.238231],[20.946347,52.236342]]}},{"type":"Feature","properties":{"id":"c120","lines":"1 3 4 25","n":4,"bus":1},"geometry":{"type":"LineString","coordinates":[[21.017242,52.272225],[21.01416,52.274114]]}},{"type":"Feature","properties":{"id":"c121","lines":"1 3 4 25","n":4,"bus":0},"geometry":{"type":"LineString","coordinates":[[21.017242,52.272225],[21.020325,52.270337]]}},{"type":"Feature","properties":{"id":"c143","lines":"1 22 24","n":3,"bus":1},"geometry":{"type":"LineString","coordinates":[[20.983336,52.24012],[20.983336,52.243897]]}},{"type":"Feature","properties":{"id":"c144","lines":"10 11","n":2,"bus":1},"geometry":{"type":"LineString","coordinates":[[20.983336,52.24012],[20.995665,52.24012],[20.998748,52.242008]]}},{"type":"Feature","properties":{"id":"c145","lines":"1 22 24","n":3,"bus":0},"geometry":{"type":"LineString","coordinates":[[20.983336,52.24012],[20.992583,52.234454],[20.992583,52.230677]]}},{"type":"Feature","properties":{"id":"c147","lines":"10 11","n":2,"bus":1},"geometry":{"type":"LineString","coordinates":[[20.946347,52.236342],[20.943264,52.236342],[20.937099,52.232565]]}},{"type":"Feature","properties":{"id":"c151","lines":"10 11","n":2,"bus":1},"geometry":{"type":"LineString","coordinates":[[20.937099,52.232565],[20.930935,52.232565]]}},{"type":"Feature","properties":{"id":"c153","lines":"10 11 26","n":3,"bus":1},"geometry":{"type":"LineString","coordinates":[[20.918605,52.225011],[20.91244,52.221234],[20.909358,52.221234]]}},{"type":"Feature","properties":{"id":"c155","lines":"10 11 26","n":3,"bus":1},"geometry":{"type":"LineString","coordinates":[[20.918605,52.225011],[20.92477,52.228788]]}},{"type":"Feature","properties":{"id":"c158","lines":"10 11 26","n":3,"bus":1},"geometry":{"type":"LineString","coordinates":[[20.909358,52.221234],[20.909358,52.2269]]}},{"type":"Feature","properties":{"id":"c169","lines":"10 28 46","n":3,"bus":1},"geometry":{"type":"LineString","coordinates":[[20.903193,52.238231],[20.906275,52.238231]]}},{"type":"Feature","properties":{"id":"c204","lines":"4 15 16 18 36","n":5,"bus":1},"geometry":{"type":"LineString","coordinates":[[21.01416,52.245785],[21.007995,52.249562]]}},{"type":"Feature","properties":{"id":"c205","lines":"4 15 16 18 36","n":5,"bus":1},"geometry":{"type":"LineString","coordinates":[[21.01416,52.245785],[21.01416,52.242008]]}},{"type":"Feature","properties":{"id":"c211","lines":"1 22 24","n":3,"bus":1},"geometry":{"type":"LineString","coordinates":[[20.983336,52.243897],[20.980253,52.245785]]}},{"type":"Feature","properties":{"id":"c216","lines":"13 20 23 24 26 27","n":6,"bus":1},"geometry":{"type":"LineString","coordinates":[[20.974088,52.243897],[20.977171,52.243897],[20.980253,52.245785]]}},{"type":"Feature","properties":{"id":"c217","lines":"20 23 24","n":3,"bus":1},"geometry":{"type":"LineString","coordinates":[[20.974088,52.243897],[20.967924,52.247674]]}},{"type":"Feature","properties":{"id":"c218","lines":"13 20 23 26","n":4,"bus":1},"geometry":{"type":"LineString","coordinates":[[20.980253,52.245785],[20.986418,52.249562],[20.989501,52.249562]]}},{"type":"Feature","properties":{"id":"c222","lines":"1 22 27","n":3,"bus":0},"geometry":{"type":"LineString","coordinates":[[20.980253,52.245785],[20.977171,52.247674]]}},{"type":"Feature","properties":{"id":"c224","lines":"13 20 23 26","n":4,"bus":1},"geometry":{"type":"LineString","coordinates":[[20.989501,52.249562],[20.998748,52.249562]]}},{"type":"Feature","properties":{"id":"c225","lines":"10 11","n":2,"bus":1},"geometry":{"type":"LineString","coordinates":[[20.998748,52.242008],[21.004913,52.242008]]}},{"type":"Feature","properties":{"id":"c227","lines":"17 19 33","n":3,"bus":1},"geometry":{"type":"LineString","coordinates":[[21.004913,52.242008],[20.998748,52.245785],[20.998748,52.249562]]}},{"type":"Feature","properties":{"id":"c228","lines":"10 11 17 19 33","n":5,"bus":1},"geometry":{"type":"LineString","coordinates":[[21.004913,52.242008],[21.004913,52.238231],[21.011078,52.234454]]}},{"type":"Feature","properties":{"id":"c242","lines":"17 19 33","n":3,"bus":1},"geometry":{"type":"LineString","coordinates":[[20.995665,52.251451],[20.992583,52.25334]]}},{"type":"Feature","properties":{"id":"c243","lines":"17 19 33","n":3,"bus":1},"geometry":{"type":"LineString","coordinates":[[20.995665,52.251451],[20.998748,52.249562]]}},{"type":"Feature","properties":{"id":"c246","lines":"4 15 16 18 36","n":5,"bus":1},"geometry":{"type":"LineString","coordinates":[[21.00183,52.251451],[21.004913,52.249562],[21.007995,52.249562]]}},{"type":"Feature","properties":{"id":"c247","lines":"15 16 18 36","n":4,"bus":1},"geometry":{"type":"LineString","coordinates":[[21.00183,52.251451],[21.00183,52.25334],[20.998748,52.255228]]}},{"type":"Feature","properties":{"id":"c248","lines":"4 13 20 23 26","n":5,"bus":1},"geometry":{"type":"LineString","coordinates":[[21.00183,52.251451],[21.004913,52.25334],[21.01416,52.25334]]}},{"type":"Feature","properties":{"id":"c249","lines":"13 20 23 26","n":4,"bus":1},"geometry":{"type":"LineString","coordinates":[[21.00183,52.251451],[20.998748,52.249562]]}},{"type":"Feature","properties":{"id":"c261","lines":"7 9 22 24 25","n":5,"bus":1},"geometry":{"type":"LineString","coordinates":[[21.02649,52.236342],[21.023407,52.234454],[21.020325,52.234454]]}},{"type":"Feature","properties":{"id":"c262","lines":"7 9 22 24 25","n":5,"bus":1},"geometry":{"type":"LineString","coordinates":[[21.02649,52.236342],[21.032654,52.236342]]}},{"type":"Feature","properties":{"id":"c287","lines":"11","n":1,"bus":0},"geometry":{"type":"LineString","coordinates":[[21.054231,52.206125],[21.044984,52.206125]]}},{"type":"Feature","properties":{"id":"c314","lines":"4 10","n":2,"bus":1},"geometry":{"type":"LineString","coordinates":[[21.02649,52.177797],[21.032654,52.181574]]}},{"type":"Feature","properties":{"id":"c345","lines":"14 16 19 67","n":4,"bus":1},"geometry":{"type":"LineString","coordinates":[[21.051149,52.183462],[21.048067,52.185351],[21.048067,52.187239]]}},{"type":"Feature","properties":{"id":"c347","lines":"14 16 67","n":3,"bus":0},"geometry":{"type":"LineString","coordinates":[[21.051149,52.183462],[21.054231,52.181574]]}},{"type":"Feature","properties":{"id":"c348","lines":"19","n":1,"bus":0},"geometry":{"type":"LineString","coordinates":[[21.051149,52.183462],[21.051149,52.181574],[21.044984,52.177797]]}},{"type":"Feature","properties":{"id":"c378","lines":"26 33 46","n":3,"bus":1},"geometry":{"type":"LineString","coordinates":[[20.934017,52.268448],[20.937099,52.268448]]}},{"type":"Feature","properties":{"id":"c379","lines":"26 33 46","n":3,"bus":1},"geometry":{"type":"LineString","coordinates":[[20.937099,52.268448],[20.940182,52.268448]]}},{"type":"Feature","properties":{"id":"c382","lines":"26 33 46","n":3,"bus":0},"geometry":{"type":"LineString","coordinates":[[20.940182,52.268448],[20.943264,52.26656]]}},{"type":"Feature","properties":{"id":"c387","lines":"6 17 36","n":3,"bus":1},"geometry":{"type":"LineString","coordinates":[[20.961759,52.268448],[20.967924,52.268448]]}},{"type":"Feature","properties":{"id":"c389","lines":"6 17 36","n":3,"bus":1},"geometry":{"type":"LineString","coordinates":[[20.961759,52.268448],[20.961759,52.270337]]}},{"type":"Feature","properties":{"id":"c391","lines":"6 17 36","n":3,"bus":1},"geometry":{"type":"LineString","coordinates":[[20.967924,52.268448],[20.971006,52.26656]]}},{"type":"Feature","properties":{"id":"c394","lines":"6 36","n":2,"bus":1},"geometry":{"type":"LineString","coordinates":[[20.971006,52.26656],[20.986418,52.26656]]}},{"type":"Feature","properties":{"id":"c396","lines":"6 36","n":2,"bus":1},"geometry":{"type":"LineString","coordinates":[[20.971006,52.26656],[20.986418,52.26656]]}},{"type":"Feature","properties":{"id":"c397","lines":"17 27","n":2,"bus":1},"geometry":{"type":"LineString","coordinates":[[20.971006,52.26656],[20.977171,52.262782]]}},{"type":"Feature","properties":{"id":"c400","lines":"17 19 33","n":3,"bus":1},"geometry":{"type":"LineString","coordinates":[[20.992583,52.25334],[20.986418,52.257117]]}},{"type":"Feature","properties":{"id":"c403","lines":"15 16 18 36","n":4,"bus":0},"geometry":{"type":"LineString","coordinates":[[20.998748,52.255228],[20.998748,52.257117]]}},{"type":"Feature","properties":{"id":"c407","lines":"7 9 22 24 25","n":5,"bus":1},"geometry":{"type":"LineString","coordinates":[[21.032654,52.236342],[21.035737,52.238231],[21.044984,52.238231]]}},{"type":"Feature","properties":{"id":"c411","lines":"7 9 22 24 25","n":5,"bus":1},"geometry":{"type":"LineString","coordinates":[[21.044984,52.238231],[21.048067,52.238231]]}},{"type":"Feature","properties":{"id":"c419","lines":"9 24","n":2,"bus":0},"geometry":{"type":"LineString","coordinates":[[21.048067,52.238231],[21.054231,52.238231]]}},{"type":"Feature","properties":{"id":"c446","lines":"19 26 28 46","n":4,"bus":1},"geometry":{"type":"LineString","coordinates":[[20.930935,52.259005],[20.927852,52.259005],[20.92477,52.257117]]}},{"type":"Feature","properties":{"id":"c447","lines":"19 26 28 46","n":4,"bus":1},"geometry":{"type":"LineString","coordinates":[[20.930935,52.259005],[20.937099,52.262782]]}},{"type":"Feature","properties":{"id":"c451","lines":"11 23 24 26 28 46","n":6,"bus":1},"geometry":{"type":"LineString","coordinates":[[20.92477,52.257117],[20.92477,52.25334]]}},{"type":"Feature","properties":{"id":"c452","lines":"19 26 28 46","n":4,"bus":1},"geometry":{"type":"LineString","coordinates":[[20.937099,52.262782],[20.943264,52.26656]]}},{"type":"Feature","properties":{"id":"c465","lines":"18 20","n":2,"bus":1},"geometry":{"type":"LineString","coordinates":[[20.998748,52.274114],[21.004913,52.270337]]}},{"type":"Feature","properties":{"id":"c493","lines":"10 11 26","n":3,"bus":1},"geometry":{"type":"LineString","coordinates":[[20.909358,52.2269],[20.91244,52.228788],[20.91244,52.232565]]}},{"type":"Feature","properties":{"id":"c495","lines":"10 11 26","n":3,"bus":1},"geometry":{"type":"LineString","coordinates":[[20.909358,52.2269],[20.909358,52.234454],[20.91244,52.236342]]}},{"type":"Feature","properties":{"id":"c496","lines":"10 11 26","n":3,"bus":1},"geometry":{"type":"LineString","coordinates":[[20.91244,52.232565],[20.91244,52.236342]]}},{"type":"Feature","properties":{"id":"c498","lines":"10 11 26","n":3,"bus":1},"geometry":{"type":"LineString","coordinates":[[20.91244,52.236342],[20.91244,52.24012]]}},{"type":"Feature","properties":{"id":"c499","lines":"11 26 28 46","n":4,"bus":1},"geometry":{"type":"LineString","coordinates":[[20.91244,52.24012],[20.91244,52.242008]]}},{"type":"Feature","properties":{"id":"c500","lines":"10 28 46","n":3,"bus":1},"geometry":{"type":"LineString","coordinates":[[20.91244,52.24012],[20.909358,52.24012],[20.906275,52.238231]]}},{"type":"Feature","properties":{"id":"c503","lines":"11 26 28 46","n":4,"bus":1},"geometry":{"type":"LineString","coordinates":[[20.91244,52.242008],[20.915522,52.243897],[20.915522,52.247674]]}},{"type":"Feature","properties":{"id":"c505","lines":"11 26 28 46","n":4,"bus":1},"geometry":{"type":"LineString","coordinates":[[20.915522,52.247674],[20.918605,52.249562]]}},{"type":"Feature","properties":{"id":"c506","lines":"20","n":1,"bus":0},"geometry":{"type":"LineString","coordinates":[[20.915522,52.247674],[20.927852,52.247674]]}},{"type":"Feature","properties":{"id":"c507","lines":"20","n":1,"bus":0},"geometry":{"type":"LineString","coordinates":[[20.915522,52.247674],[20.91244,52.245785],[20.909358,52.245785]]}},{"type":"Feature","properties":{"id":"c509","lines":"23 24","n":2,"bus":1},"geometry":{"type":"LineString","coordinates":[[20.918605,52.249562],[20.92477,52.249562]]}},{"type":"Feature","properties":{"id":"c511","lines":"11 23 24 26 28 46","n":6,"bus":1},"geometry":{"type":"LineString","coordinates":[[20.918605,52.249562],[20.92477,52.25334]]}},{"type":"Feature","properties":{"id":"c532","lines":"2","n":1,"bus":0},"geometry":{"type":"LineString","coordinates":[[20.943264,52.276002],[20.949429,52.27978],[20.961759,52.27978]]}},{"type":"Feature","properties":{"id":"c533","lines":"6 36","n":2,"bus":0},"geometry":{"type":"LineString","coordinates":[[20.943264,52.276002],[20.949429,52.276002]]}},{"type":"Feature","properties":{"id":"c538","lines":"16 19 22 28 33","n":5,"bus":0},"geometry":{"type":"LineString","coordinates":[[20.958676,52.26656],[20.961759,52.264671],[20.961759,52.262782]]}},{"type":"Feature","properties":{"id":"c539","lines":"16 19 22 28 33","n":5,"bus":1},"geometry":{"type":"LineString","coordinates":[[20.964841,52.262782],[20.971006,52.262782]]}},{"type":"Feature","properties":{"id":"c540","lines":"16 19 22 28 33","n":5,"bus":1},"geometry":{"type":"LineString","coordinates":[[20.964841,52.262782],[20.961759,52.262782]]}},{"type":"Feature","properties":{"id":"c543","lines":"16 19 22 28 33","n":5,"bus":0},"geometry":{"type":"LineString","coordinates":[[20.971006,52.262782],[20.974088,52.260894],[20.980253,52.260894]]}},{"type":"Feature","properties":{"id":"c545","lines":"17 27","n":2,"bus":1},"geometry":{"type":"LineString","coordinates":[[20.977171,52.262782],[20.980253,52.260894]]}},{"type":"Feature","properties":{"id":"c549","lines":"6 15 36","n":3,"bus":1},"geometry":{"type":"LineString","coordinates":[[20.986418,52.26656],[20.995665,52.260894]]}},{"type":"Feature","properties":{"id":"c550","lines":"15","n":1,"bus":1},"geometry":{"type":"LineString","coordinates":[[20.986418,52.26656],[20.986418,52.268448]]}},{"type":"Feature","properties":{"id":"c559","lines":"1 3 4 25","n":4,"bus":0},"geometry":{"type":"LineString","coordinates":[[21.020325,52.270337],[21.020325,52.268448]]}},{"type":"Feature","properties":{"id":"c642","lines":"15 36","n":2,"bus":1},"geometry":{"type":"LineString","coordinates":[[20.995665,52.260894],[20.995665,52.259005],[20.998748,52.257117]]}},{"type":"Feature","properties":{"id":"c643","lines":"1 28","n":2,"bus":1},"geometry":{"type":"LineString","coordinates":[[20.995665,52.260894],[20.992583,52.259005],[20.986418,52.259005]]}},{"type":"Feature","properties":{"id":"c644","lines":"1 28","n":2,"bus":1},"geometry":{"type":"LineString","coordinates":[[20.995665,52.260894],[21.004913,52.260894]]}},{"type":"Feature","properties":{"id":"c645","lines":"6","n":1,"bus":0},"geometry":{"type":"LineString","coordinates":[[20.995665,52.260894],[20.998748,52.259005]]}},{"type":"Feature","properties":{"id":"c653","lines":"16","n":1,"bus":0},"geometry":{"type":"LineString","coordinates":[[20.998748,52.257117],[20.992583,52.257117]]}},{"type":"Feature","properties":{"id":"c654","lines":"18","n":1,"bus":0},"geometry":{"type":"LineString","coordinates":[[20.998748,52.257117],[20.998748,52.259005]]}},{"type":"Feature","properties":{"id":"c664","lines":"14 16 19 67","n":4,"bus":1},"geometry":{"type":"LineString","coordinates":[[21.044984,52.206125],[21.044984,52.20046]]}},{"type":"Feature","properties":{"id":"c666","lines":"11 14 16 19 67","n":5,"bus":1},"geometry":{"type":"LineString","coordinates":[[21.044984,52.206125],[21.038819,52.209902]]}},{"type":"Feature","properties":{"id":"c667","lines":"19 67","n":2,"bus":0},"geometry":{"type":"LineString","coordinates":[[21.044984,52.206125],[21.041902,52.206125]]}},{"type":"Feature","properties":{"id":"c668","lines":"14 16 19 67","n":4,"bus":1},"geometry":{"type":"LineString","coordinates":[[21.044984,52.20046],[21.044984,52.194794]]}},{"type":"Feature","properties":{"id":"c671","lines":"14 16 19 67","n":4,"bus":1},"geometry":{"type":"LineString","coordinates":[[21.044984,52.194794],[21.044984,52.192905],[21.048067,52.191017]]}},{"type":"Feature","properties":{"id":"c674","lines":"14 16 19 67","n":4,"bus":0},"geometry":{"type":"LineString","coordinates":[[21.048067,52.191017],[21.048067,52.187239]]}},{"type":"Feature","properties":{"id":"c676","lines":"14 16 67","n":3,"bus":1},"geometry":{"type":"LineString","coordinates":[[21.054231,52.181574],[21.054231,52.177797],[21.057314,52.175908]]}},{"type":"Feature","properties":{"id":"c678","lines":"14 16 67","n":3,"bus":1},"geometry":{"type":"LineString","coordinates":[[21.057314,52.175908],[21.057314,52.168354]]}},{"type":"Feature","properties":{"id":"c683","lines":"7 9 22 24 25","n":5,"bus":1},"geometry":{"type":"LineString","coordinates":[[21.011078,52.234454],[21.020325,52.234454]]}},{"type":"Feature","properties":{"id":"c684","lines":"7 9 22 24 25","n":5,"bus":1},"geometry":{"type":"LineString","coordinates":[[21.011078,52.234454],[21.007995,52.232565],[20.998748,52.232565]]}},{"type":"Feature","properties":{"id":"c688","lines":"10 11 17 19 33","n":5,"bus":0},"geometry":{"type":"LineString","coordinates":[[21.011078,52.234454],[21.011078,52.228788]]}},{"type":"Feature","properties":{"id":"c690","lines":"4 15 16 18 36","n":5,"bus":1},"geometry":{"type":"LineString","coordinates":[[21.020325,52.234454],[21.020325,52.238231],[21.01416,52.242008]]}},{"type":"Feature","properties":{"id":"c691","lines":"4 15 16 18 36","n":5,"bus":1},"geometry":{"type":"LineString","coordinates":[[21.020325,52.234454],[21.032654,52.2269]]}},{"type":"Feature","properties":{"id":"c703","lines":"15 36","n":2,"bus":1},"geometry":{"type":"LineString","coordinates":[[21.032654,52.2269],[21.032654,52.221234]]}},{"type":"Feature","properties":{"id":"c705","lines":"4 15 16 18 36","n":5,"bus":1},"geometry":{"type":"LineString","coordinates":[[21.032654,52.2269],[21.032654,52.225011],[21.035737,52.223122]]}},{"type":"Feature","properties":{"id":"c710","lines":"10 11 14 15 17 19 36","n":7,"bus":0},"geometry":{"type":"LineString","coordinates":[[21.032654,52.221234],[21.023407,52.221234],[21.020325,52.223122],[21.01416,52.223122]]}},{"type":"Feature","properties":{"id":"c711","lines":"10 11 14 17 19","n":5,"bus":0},"geometry":{"type":"LineString","coordinates":[[21.032654,52.221234],[21.035737,52.219345]]}},{"type":"Feature","properties":{"id":"c712","lines":"10 11 14 15 17 19 36","n":7,"bus":0},"geometry":{"type":"LineString","coordinates":[[21.032654,52.221234],[21.035737,52.223122]]}},{"type":"Feature","properties":{"id":"c716","lines":"4 10 17 18","n":4,"bus":1},"geometry":{"type":"LineString","coordinates":[[21.038819,52.215568],[21.041902,52.21368],[21.041902,52.206125]]}},{"type":"Feature","properties":{"id":"c719","lines":"4 10 11 14 16 17 18 19","n":8,"bus":0},"geometry":{"type":"LineString","coordinates":[[21.038819,52.215568],[21.038819,52.217457],[21.035737,52.219345]]}},{"type":"Feature","properties":{"id":"c720","lines":"4 10 11 14 16 17 18 19","n":8,"bus":0},"geometry":{"type":"LineString","coordinates":[[21.038819,52.215568],[21.038819,52.209902]]}},{"type":"Feature","properties":{"id":"c721","lines":"4 10 11 14 16 17 18 19","n":8,"bus":0},"geometry":{"type":"LineString","coordinates":[[21.038819,52.215568],[21.038819,52.221234],[21.035737,52.223122]]}},{"type":"Feature","properties":{"id":"c722","lines":"4 10 18","n":3,"bus":1},"geometry":{"type":"LineString","coordinates":[[21.041902,52.206125],[21.035737,52.202348]]}},{"type":"Feature","properties":{"id":"c723","lines":"17 19 67","n":3,"bus":0},"geometry":{"type":"LineString","coordinates":[[21.041902,52.206125],[21.029572,52.206125]]}},{"type":"Feature","properties":{"id":"c724","lines":"4 10 18","n":3,"bus":1},"geometry":{"type":"LineString","coordinates":[[21.035737,52.202348],[21.035737,52.198571]]}},{"type":"Feature","properties":{"id":"c726","lines":"4 10 18","n":3,"bus":0},"geometry":{"type":"LineString","coordinates":[[21.035737,52.202348],[21.038819,52.204237],[21.038819,52.209902]]}},{"type":"Feature","properties":{"id":"c727","lines":"4 10 18","n":3,"bus":1},"geometry":{"type":"LineString","coordinates":[[21.035737,52.198571],[21.035737,52.192905]]}},{"type":"Feature","properties":{"id":"c729","lines":"4 10 18","n":3,"bus":1},"geometry":{"type":"LineString","coordinates":[[21.035737,52.192905],[21.032654,52.191017],[21.032654,52.187239]]}},{"type":"Feature","properties":{"id":"c733","lines":"4 10 18","n":3,"bus":1},"geometry":{"type":"LineString","coordinates":[[21.032654,52.187239],[21.032654,52.185351]]}},{"type":"Feature","properties":{"id":"c737","lines":"18 31","n":2,"bus":1},"geometry":{"type":"LineString","coordinates":[[21.017242,52.183462],[21.011078,52.183462]]}},{"type":"Feature","properties":{"id":"c738","lines":"18 31","n":2,"bus":1},"geometry":{"type":"LineString","coordinates":[[21.017242,52.183462],[21.02649,52.183462]]}},{"type":"Feature","properties":{"id":"c740","lines":"17 18 31 67","n":4,"bus":1},"geometry":{"type":"LineString","coordinates":[[21.011078,52.183462],[21.011078,52.177797]]}},{"type":"Feature","properties":{"id":"c742","lines":"17 67","n":2,"bus":0},"geometry":{"type":"LineString","coordinates":[[21.011078,52.183462],[21.011078,52.189128]]}},{"type":"Feature","properties":{"id":"c751","lines":"17 67","n":2,"bus":1},"geometry":{"type":"LineString","coordinates":[[21.011078,52.202348],[21.011078,52.196682]]}},{"type":"Feature","properties":{"id":"c754","lines":"17 67","n":2,"bus":0},"geometry":{"type":"LineString","coordinates":[[21.011078,52.202348],[21.01416,52.202348],[21.017242,52.204237]]}},{"type":"Feature","properties":{"id":"c755","lines":"17 67","n":2,"bus":1},"geometry":{"type":"LineString","coordinates":[[21.011078,52.196682],[21.011078,52.189128]]}},{"type":"Feature","properties":{"id":"c758","lines":"17 19 33","n":3,"bus":1},"geometry":{"type":"LineString","coordinates":[[21.020325,52.208014],[21.01416,52.211791],[21.01416,52.219345]]}},{"type":"Feature","properties":{"id":"c759","lines":"17 19 67","n":3,"bus":0},"geometry":{"type":"LineString","coordinates":[[21.020325,52.208014],[21.02649,52.208014],[21.029572,52.206125]]}},{"type":"Feature","properties":{"id":"c760","lines":"17 33 67","n":3,"bus":0},"geometry":{"type":"LineString","coordinates":[[21.020325,52.208014],[21.020325,52.206125],[21.017242,52.204237]]}},{"type":"Feature","properties":{"id":"c786","lines":"7","n":1,"bus":0},"geometry":{"type":"LineString","coordinates":[[21.044984,52.249562],[21.044984,52.251451]]}},{"type":"Feature","properties":{"id":"c787","lines":"7","n":1,"bus":0},"geometry":{"type":"LineString","coordinates":[[21.044984,52.249562],[21.051149,52.25334]]}},{"type":"Feature","properties":{"id":"c789","lines":"3 6 13 25 26 28","n":6,"bus":1},"geometry":{"type":"LineString","coordinates":[[21.035737,52.249562],[21.035737,52.251451],[21.032654,52.25334]]}},{"type":"Feature","properties":{"id":"c793","lines":"4 13 20 23 26","n":5,"bus":1},"geometry":{"type":"LineString","coordinates":[[21.032654,52.25334],[21.023407,52.25334]]}},{"type":"Feature","properties":{"id":"c794","lines":"3 4 23 25","n":4,"bus":1},"geometry":{"type":"LineString","coordinates":[[21.032654,52.25334],[21.032654,52.255228]]}},{"type":"Feature","properties":{"id":"c800","lines":"6 20 28","n":3,"bus":1},"geometry":{"type":"LineString","coordinates":[[21.032654,52.25334],[21.029572,52.25334],[21.02649,52.255228]]}},{"type":"Feature","properties":{"id":"c802","lines":"6 20 28","n":3,"bus":0},"geometry":{"type":"LineString","coordinates":[[21.032654,52.25334],[21.029572,52.25334],[21.02649,52.255228]]}},{"type":"Feature","properties":{"id":"c864","lines":"15","n":1,"bus":1},"geometry":{"type":"LineString","coordinates":[[20.983336,52.270337],[20.986418,52.268448]]}},{"type":"Feature","properties":{"id":"c866","lines":"23 24","n":2,"bus":1},"geometry":{"type":"LineString","coordinates":[[20.92477,52.249562],[20.927852,52.247674]]}},{"type":"Feature","properties":{"id":"c869","lines":"9 24","n":2,"bus":1},"geometry":{"type":"LineString","coordinates":[[21.069644,52.24012],[21.066561,52.24012]]}},{"type":"Feature","properties":{"id":"c876","lines":"3 6 22 26","n":4,"bus":0},"geometry":{"type":"LineString","coordinates":[[21.069644,52.24012],[21.066561,52.24012],[21.063479,52.242008]]}},{"type":"Feature","properties":{"id":"c877","lines":"3 6 9 24","n":4,"bus":0},"geometry":{"type":"LineString","coordinates":[[21.069644,52.24012],[21.072726,52.24012]]}},{"type":"Feature","properties":{"id":"c879","lines":"9 24","n":2,"bus":1},"geometry":{"type":"LineString","coordinates":[[21.066561,52.24012],[21.057314,52.24012]]}},{"type":"Feature","properties":{"id":"c880","lines":"3 6 9 24","n":4,"bus":1},"geometry":{"type":"LineString","coordinates":[[21.072726,52.24012],[21.075808,52.238231]]}},{"type":"Feature","properties":{"id":"c882","lines":"3 6 9 24","n":4,"bus":1},"geometry":{"type":"LineString","coordinates":[[21.075808,52.238231],[21.078891,52.236342],[21.078891,52.234454]]}},{"type":"Feature","properties":{"id":"c899","lines":"1 9 15","n":3,"bus":1},"geometry":{"type":"LineString","coordinates":[[20.940182,52.172131],[20.943264,52.174019],[20.943264,52.175908]]}},{"type":"Feature","properties":{"id":"c922","lines":"3 6 9 24","n":4,"bus":1},"geometry":{"type":"LineString","coordinates":[[21.085056,52.230677],[21.078891,52.234454]]}},{"type":"Feature","properties":{"id":"c924","lines":"3 6 22 26","n":4,"bus":1},"geometry":{"type":"LineString","coordinates":[[21.063479,52.242008],[21.057314,52.242008]]}},{"type":"Feature","properties":{"id":"c928","lines":"2 17","n":2,"bus":1},"geometry":{"type":"LineString","coordinates":[[20.964841,52.285445],[20.961759,52.285445],[20.958676,52.283557]]}},{"type":"Feature","properties":{"id":"c931","lines":"2 17","n":2,"bus":0},"geometry":{"type":"LineString","coordinates":[[20.964841,52.285445],[20.967924,52.283557]]}},{"type":"Feature","properties":{"id":"c932","lines":"2 17","n":2,"bus":1},"geometry":{"type":"LineString","coordinates":[[20.958676,52.283557],[20.955594,52.285445]]}},{"type":"Feature","properties":{"id":"c962","lines":"7 9 22 24 25","n":5,"bus":1},"geometry":{"type":"LineString","coordinates":[[20.998748,52.232565],[20.995665,52.230677],[20.992583,52.230677]]}},{"type":"Feature","properties":{"id":"c971","lines":"1 7 9 25","n":4,"bus":0},"geometry":{"type":"LineString","coordinates":[[20.992583,52.230677],[20.986418,52.2269],[20.986418,52.225011]]}},{"type":"Feature","properties":{"id":"c1014","lines":"1 9 15","n":3,"bus":1},"geometry":{"type":"LineString","coordinates":[[20.964841,52.202348],[20.961759,52.20046],[20.961759,52.196682]]}},{"type":"Feature","properties":{"id":"c1017","lines":"1 9 15","n":3,"bus":0},"geometry":{"type":"LineString","coordinates":[[20.964841,52.202348],[20.974088,52.208014],[20.974088,52.211791]]}},{"type":"Feature","properties":{"id":"c1042","lines":"14 15 33 36","n":4,"bus":0},"geometry":{"type":"LineString","coordinates":[[20.995665,52.225011],[20.998748,52.223122],[21.01416,52.223122]]}},{"type":"Feature","properties":{"id":"c1043","lines":"14 15 33 36","n":4,"bus":0},"geometry":{"type":"LineString","coordinates":[[20.995665,52.225011],[20.986418,52.225011]]}},{"type":"Feature","properties":{"id":"c1045","lines":"20 23 24","n":3,"bus":1},"geometry":{"type":"LineString","coordinates":[[20.937099,52.249562],[20.934017,52.249562]]}},{"type":"Feature","properties":{"id":"c1046","lines":"20 23 24","n":3,"bus":1},"geometry":{"type":"LineString","coordinates":[[20.937099,52.249562],[20.943264,52.25334]]}},{"type":"Feature","properties":{"id":"c1048","lines":"20 23 24","n":3,"bus":1},"geometry":{"type":"LineString","coordinates":[[20.934017,52.249562],[20.930935,52.247674],[20.927852,52.247674]]}},{"type":"Feature","properties":{"id":"c1051","lines":"20 23 24","n":3,"bus":1},"geometry":{"type":"LineString","coordinates":[[20.943264,52.25334],[20.952511,52.25334]]}},{"type":"Feature","properties":{"id":"c1092","lines":"4 10","n":2,"bus":1},"geometry":{"type":"LineString","coordinates":[[21.032654,52.181574],[21.032654,52.185351]]}},{"type":"Feature","properties":{"id":"c1097","lines":"1 4 25","n":3,"bus":1},"geometry":{"type":"LineString","coordinates":[[21.01416,52.274114],[21.011078,52.274114],[21.007995,52.276002]]}},{"type":"Feature","properties":{"id":"c1098","lines":"25","n":1,"bus":1},"geometry":{"type":"LineString","coordinates":[[21.01416,52.274114],[21.01416,52.277891]]}},{"type":"Feature","properties":{"id":"c1099","lines":"1 3 25","n":3,"bus":0},"geometry":{"type":"LineString","coordinates":[[21.01416,52.274114],[21.011078,52.276002]]}},{"type":"Feature","properties":{"id":"c1122","lines":"2 17","n":2,"bus":1},"geometry":{"type":"LineString","coordinates":[[20.955594,52.285445],[20.955594,52.287334]]}},{"type":"Feature","properties":{"id":"c1123","lines":"2 17","n":2,"bus":0},"geometry":{"type":"LineString","coordinates":[[20.955594,52.285445],[20.952511,52.285445]]}},{"type":"Feature","properties":{"id":"c1151","lines":"3 4 25","n":3,"bus":1},"geometry":{"type":"LineString","coordinates":[[21.032654,52.257117],[21.02649,52.260894],[21.02649,52.262782]]}},{"type":"Feature","properties":{"id":"c1153","lines":"3 4 25","n":3,"bus":0},"geometry":{"type":"LineString","coordinates":[[21.032654,52.257117],[21.032654,52.255228]]}},{"type":"Feature","properties":{"id":"c1156","lines":"6 20 28","n":3,"bus":1},"geometry":{"type":"LineString","coordinates":[[21.02649,52.257117],[21.023407,52.257117],[21.017242,52.260894]]}},{"type":"Feature","properties":{"id":"c1157","lines":"6 20 28","n":3,"bus":1},"geometry":{"type":"LineString","coordinates":[[21.02649,52.257117],[21.02649,52.255228]]}},{"type":"Feature","properties":{"id":"c1158","lines":"1","n":1,"bus":1},"geometry":{"type":"LineString","coordinates":[[21.023407,52.260894],[21.02649,52.262782]]}},{"type":"Feature","properties":{"id":"c1159","lines":"1","n":1,"bus":1},"geometry":{"type":"LineString","coordinates":[[21.023407,52.260894],[21.017242,52.260894]]}},{"type":"Feature","properties":{"id":"c1164","lines":"13 26 27","n":3,"bus":0},"geometry":{"type":"LineString","coordinates":[[20.946347,52.24012],[20.940182,52.236342],[20.937099,52.236342]]}},{"type":"Feature","properties":{"id":"c1170","lines":"1 7 14 33","n":4,"bus":1},"geometry":{"type":"LineString","coordinates":[[20.974088,52.211791],[20.980253,52.208014]]}},{"type":"Feature","properties":{"id":"c1172","lines":"1 7 9 14 15 33","n":6,"bus":1},"geometry":{"type":"LineString","coordinates":[[20.974088,52.211791],[20.980253,52.215568]]}},{"type":"Feature","properties":{"id":"c1182","lines":"17 18 31 67","n":4,"bus":1},"geometry":{"type":"LineString","coordinates":[[21.011078,52.177797],[21.011078,52.175908]]}},{"type":"Feature","properties":{"id":"c1184","lines":"17 18 31 67","n":4,"bus":1},"geometry":{"type":"LineString","coordinates":[[21.011078,52.175908],[21.004913,52.172131]]}},{"type":"Feature","properties":{"id":"c1191","lines":"17 18 31 67","n":4,"bus":1},"geometry":{"type":"LineString","coordinates":[[21.004913,52.172131],[20.998748,52.172131]]}},{"type":"Feature","properties":{"id":"c1313","lines":"1 9 15","n":3,"bus":0},"geometry":{"type":"LineString","coordinates":[[20.943264,52.175908],[20.946347,52.177797]]}},{"type":"Feature","properties":{"id":"c1314","lines":"1 9 15","n":3,"bus":1},"geometry":{"type":"LineString","coordinates":[[20.946347,52.177797],[20.949429,52.179685],[20.949429,52.181574]]}},{"type":"Feature","properties":{"id":"c1318","lines":"1 9 15","n":3,"bus":1},"geometry":{"type":"LineString","coordinates":[[20.949429,52.181574],[20.952511,52.183462]]}},{"type":"Feature","properties":{"id":"c1364","lines":"17 19 33","n":3,"bus":1},"geometry":{"type":"LineString","coordinates":[[21.01416,52.219345],[21.01416,52.223122]]}},{"type":"Feature","properties":{"id":"c1437","lines":"20","n":1,"bus":1},"geometry":{"type":"LineString","coordinates":[[20.909358,52.247674],[20.909358,52.245785]]}},{"type":"Feature","properties":{"id":"c1438","lines":"20","n":1,"bus":1},"geometry":{"type":"LineString","coordinates":[[20.909358,52.247674],[20.909358,52.251451]]}},{"type":"Feature","properties":{"id":"c1472","lines":"1 9 15","n":3,"bus":0},"geometry":{"type":"LineString","coordinates":[[20.961759,52.196682],[20.961759,52.192905],[20.955594,52.189128]]}},{"type":"Feature","properties":{"id":"c1482","lines":"1 9 15","n":3,"bus":0},"geometry":{"type":"LineString","coordinates":[[20.955594,52.189128],[20.955594,52.185351],[20.952511,52.183462]]}},{"type":"Feature","properties":{"id":"c1487","lines":"1 7 9 14 15 33","n":6,"bus":1},"geometry":{"type":"LineString","coordinates":[[20.980253,52.219345],[20.986418,52.223122],[20.986418,52.225011]]}},{"type":"Feature","properties":{"id":"c1488","lines":"1 7 9 14 15 33","n":6,"bus":1},"geometry":{"type":"LineString","coordinates":[[20.980253,52.219345],[20.980253,52.215568]]}},{"type":"Feature","properties":{"id":"c1490","lines":"16","n":1,"bus":1},"geometry":{"type":"LineString","coordinates":[[20.986418,52.257117],[20.992583,52.257117]]}},{"type":"Feature","properties":{"id":"c1491","lines":"16 17 19 33","n":4,"bus":1},"geometry":{"type":"LineString","coordinates":[[20.986418,52.257117],[20.983336,52.259005]]}},{"type":"Feature","properties":{"id":"c1492","lines":"16","n":1,"bus":0},"geometry":{"type":"LineString","coordinates":[[20.992583,52.257117],[20.989501,52.259005],[20.983336,52.259005]]}},{"type":"Feature","properties":{"id":"c1493","lines":"9 24","n":2,"bus":1},"geometry":{"type":"LineString","coordinates":[[21.054231,52.238231],[21.057314,52.24012]]}},{"type":"Feature","properties":{"id":"c1499","lines":"10 11 17 19 33","n":5,"bus":0},"geometry":{"type":"LineString","coordinates":[[21.011078,52.228788],[21.01416,52.2269],[21.01416,52.223122]]}},{"type":"Feature","properties":{"id":"c1500","lines":"4 13 20 23 26","n":5,"bus":1},"geometry":{"type":"LineString","coordinates":[[21.023407,52.25334],[21.01416,52.25334]]}},{"type":"Feature","properties":{"id":"c1507","lines":"23","n":1,"bus":1},"geometry":{"type":"LineString","coordinates":[[21.032654,52.255228],[21.035737,52.257117]]}},{"type":"Feature","properties":{"id":"c1533","lines":"10 11 13 26 27","n":5,"bus":1},"geometry":{"type":"LineString","coordinates":[[20.930935,52.232565],[20.92477,52.228788]]}},{"type":"Feature","properties":{"id":"c1534","lines":"13 26 27","n":3,"bus":0},"geometry":{"type":"LineString","coordinates":[[20.930935,52.232565],[20.937099,52.236342]]}},{"type":"Feature","properties":{"id":"c1540","lines":"20","n":1,"bus":0},"geometry":{"type":"LineString","coordinates":[[20.909358,52.251451],[20.91244,52.25334],[20.91244,52.257117]]}},{"type":"Feature","properties":{"id":"c1541","lines":"17 19 67","n":3,"bus":0},"geometry":{"type":"LineString","coordinates":[[21.038819,52.209902],[21.032654,52.206125],[21.029572,52.206125]]}},{"type":"Feature","properties":{"id":"c1544","lines":"1 3 4 25","n":4,"bus":1},"geometry":{"type":"LineString","coordinates":[[21.02649,52.262782],[21.020325,52.26656]]}},{"type":"Feature","properties":{"id":"c1545","lines":"1 6 18 28","n":4,"bus":1},"geometry":{"type":"LineString","coordinates":[[21.017242,52.260894],[21.01416,52.260894]]}},{"type":"Feature","properties":{"id":"c1546","lines":"18 20","n":2,"bus":1},"geometry":{"type":"LineString","coordinates":[[21.017242,52.260894],[21.017242,52.262782]]}},{"type":"Feature","properties":{"id":"c1549","lines":"24","n":1,"bus":0},"geometry":{"type":"LineString","coordinates":[[20.967924,52.247674],[20.967924,52.245785]]}},{"type":"Feature","properties":{"id":"c1567","lines":"18","n":1,"bus":0},"geometry":{"type":"LineString","coordinates":[[21.02649,52.183462],[21.029572,52.185351],[21.032654,52.185351]]}},{"type":"Feature","properties":{"id":"c1603","lines":"1 6 18 28","n":4,"bus":0},"geometry":{"type":"LineString","coordinates":[[21.004913,52.260894],[21.007995,52.262782]]}},{"type":"Feature","properties":{"id":"c1604","lines":"6 18","n":2,"bus":0},"geometry":{"type":"LineString","coordinates":[[21.004913,52.260894],[21.00183,52.260894],[20.998748,52.259005]]}},{"type":"Feature","properties":{"id":"c1612","lines":"1 22 27","n":3,"bus":1},"geometry":{"type":"LineString","coordinates":[[20.977171,52.25334],[20.980253,52.255228]]}},{"type":"Feature","properties":{"id":"c1613","lines":"1 22 27","n":3,"bus":0},"geometry":{"type":"LineString","coordinates":[[20.977171,52.25334],[20.977171,52.247674]]}},{"type":"Feature","properties":{"id":"c1614","lines":"1 22 27","n":3,"bus":0},"geometry":{"type":"LineString","coordinates":[[20.977171,52.25334],[20.977171,52.247674]]}},{"type":"Feature","properties":{"id":"c1615","lines":"1 22 27","n":3,"bus":1},"geometry":{"type":"LineString","coordinates":[[20.980253,52.255228],[20.980253,52.257117]]}},{"type":"Feature","properties":{"id":"c1617","lines":"1 22 27","n":3,"bus":1},"geometry":{"type":"LineString","coordinates":[[20.980253,52.257117],[20.983336,52.259005]]}},{"type":"Feature","properties":{"id":"c1618","lines":"1","n":1,"bus":1},"geometry":{"type":"LineString","coordinates":[[20.980253,52.257117],[20.983336,52.257117],[20.986418,52.259005]]}},{"type":"Feature","properties":{"id":"c1621","lines":"17","n":1,"bus":0},"geometry":{"type":"LineString","coordinates":[[20.949429,52.276002],[20.955594,52.27978],[20.961759,52.27978]]}},{"type":"Feature","properties":{"id":"c1624","lines":"1 6 18 28","n":4,"bus":0},"geometry":{"type":"LineString","coordinates":[[21.007995,52.262782],[21.011078,52.262782],[21.01416,52.260894]]}},{"type":"Feature","properties":{"id":"c1626","lines":"20 23 24","n":3,"bus":1},"geometry":{"type":"LineString","coordinates":[[20.952511,52.25334],[20.958676,52.25334]]}},{"type":"Feature","properties":{"id":"c1632","lines":"2 17","n":2,"bus":1},"geometry":{"type":"LineString","coordinates":[[20.955594,52.287334],[20.955594,52.289222]]}},{"type":"Feature","properties":{"id":"c1635","lines":"2 17","n":2,"bus":1},"geometry":{"type":"LineString","coordinates":[[20.955594,52.289222],[20.955594,52.291111]]}},{"type":"Feature","properties":{"id":"c1656","lines":"17 18 31 67","n":4,"bus":1},"geometry":{"type":"LineString","coordinates":[[20.998748,52.172131],[20.989501,52.172131]]}},{"type":"Feature","properties":{"id":"c1669","lines":"11 13 27","n":3,"bus":0},"geometry":{"type":"LineString","coordinates":[[20.918605,52.228788],[20.92477,52.228788]]}},{"type":"Feature","properties":{"id":"c1714","lines":"1 4","n":2,"bus":1},"geometry":{"type":"LineString","coordinates":[[21.004913,52.281668],[21.007995,52.27978]]}},{"type":"Feature","properties":{"id":"c1715","lines":"1 4","n":2,"bus":1},"geometry":{"type":"LineString","coordinates":[[21.004913,52.281668],[21.00183,52.281668]]}},{"type":"Feature","properties":{"id":"c1716","lines":"1 4","n":2,"bus":1},"geometry":{"type":"LineString","coordinates":[[21.007995,52.27978],[21.007995,52.276002]]}},{"type":"Feature","properties":{"id":"c1718","lines":"4 25","n":2,"bus":0},"geometry":{"type":"LineString","coordinates":[[21.007995,52.276002],[21.011078,52.277891],[21.01416,52.277891]]}},{"type":"Feature","properties":{"id":"c1754","lines":"2 17","n":2,"bus":1},"geometry":{"type":"LineString","coordinates":[[20.967924,52.283557],[20.961759,52.27978]]}},{"type":"Feature","properties":{"id":"c1759","lines":"2 17","n":2,"bus":1},"geometry":{"type":"LineString","coordinates":[[20.955594,52.291111],[20.958676,52.291111],[20.961759,52.293]]}},{"type":"Feature","properties":{"id":"c1785","lines":"16 17 19 22 27 28 33","n":7,"bus":1},"geometry":{"type":"LineString","coordinates":[[20.980253,52.260894],[20.983336,52.259005]]}},{"type":"Feature","properties":{"id":"c1827","lines":"1 28","n":2,"bus":1},"geometry":{"type":"LineString","coordinates":[[20.986418,52.259005],[20.983336,52.259005]]}},{"type":"Feature","properties":{"id":"c1831","lines":"18 20","n":2,"bus":1},"geometry":{"type":"LineString","coordinates":[[21.004913,52.270337],[21.007995,52.268448]]}},{"type":"Feature","properties":{"id":"c1833","lines":"18 20","n":2,"bus":0},"geometry":{"type":"LineString","coordinates":[[21.007995,52.268448],[21.017242,52.262782]]}},{"type":"Feature","properties":{"id":"c2702","lines":"23","n":1,"bus":0},"geometry":{"type":"LineString","coordinates":[[21.035737,52.257117],[21.032654,52.259005]]}},{"type":"Feature","properties":{"id":"c2703","lines":"23","n":1,"bus":0},"geometry":{"type":"LineString","coordinates":[[21.035737,52.257117],[21.032654,52.259005]]}},{"type":"Feature","properties":{"id":"c2704","lines":"1 3 4 25","n":4,"bus":1},"geometry":{"type":"LineString","coordinates":[[21.020325,52.268448],[21.020325,52.26656]]}},{"type":"Feature","properties":{"id":"c2706","lines":"4 16 18","n":3,"bus":0},"geometry":{"type":"LineString","coordinates":[[21.035737,52.223122],[21.035737,52.219345]]}},{"type":"Feature","properties":{"id":"c3638","lines":"7","n":1,"bus":0},"geometry":{"type":"LineString","coordinates":[[21.044984,52.251451],[21.048067,52.251451],[21.051149,52.25334]]}}]}